{"type":"FeatureCollection","features":[{"type":"Feature","geometry":{"type":"Polygon","coordinates":[[[-71.06456348796381,-4.0285085491931785],[-71.06410751243128,-4.028717244551622],[-71.06383392711176,-4.0287654050113435],[-71.06363544364466,-4.028540656174875],[-71.06391975780024,-4.02793597447331],[-71.06474587817682,-4.027989486146437],[-71.06456348796381,-4.0285085491931785]]]},"id":"0","properties":{"class":"coca_cultivation"}},{"type":"Feature","geometry":{"type":"Polygon","coordinates":[[[-71.03360694883999,-4.017308675029839],[-71.03370082615551,-4.017367538637889],[-71.03366863964733,-4.017487941459303],[-71.03363377093014,-4.017600317409936],[-71.03353184698757,-4.017608344262958],[-71.03344065188107,-4.017479914605097],[-71.03345674513515,-4.0173461336899905],[-71.03360694883999,-4.017308675029839]]]},"id":"1","properties":{"class":"coca_cultivation"}},{"type":"Feature","geometry":{"type":"Polygon","coordinates":[[[-71.06789295018687,-4.0388863632647505],[-71.06822017968669,-4.038977331881025],[-71.06837306560054,-4.039108433692423],[-71.06848035396114,-4.039290370864986],[-71.06831673921123,-4.039346557336498],[-71.06822554410472,-4.039461605813657],[-71.06817994655147,-4.039584680910689],[-71.06799755633845,-4.039584680910689],[-71.06780443728938,-4.039472307996737],[-71.06760327161327,-4.039384014982013],[-71.0677534753181,-4.0392769931331],[-71.06769714892879,-4.039169971270053],[-71.06782857717052,-4.038942549764238],[-71.06789295018687,-4.0388863632647505]]]},"id":"2","properties":{"class":"coca_cultivation"}},{"type":"Feature","geometry":{"type":"Polygon","coordinates":[[[-71.07620801836431,-4.0516092212429],[-71.07622947603643,-4.0521764282463515],[-71.0761168232578,-4.052219236305937],[-71.07594516188085,-4.0522192363059375],[-71.07579495817602,-4.052304852418314],[-71.07559111029089,-4.052229938320487],[-71.07544090658607,-4.0521015141366155],[-71.07549991518438,-4.052021249011355],[-71.0754677286762,-4.0519142288319285],[-71.07536580473364,-4.0518018576283],[-71.07538189798773,-4.051673433376467],[-71.07562329679907,-4.051662731354564],[-71.07599880606115,-4.051710890452027],[-71.07620801836431,-4.0516092212429]]]},"id":"3","properties":{"class":"coca_cultivation"}},{"type":"Feature","geometry":{"type":"Polygon","coordinates":[[[-71.07558038145483,-4.052342309464638],[-71.0759344330448,-4.05246003159891],[-71.07606317907751,-4.052599157735499],[-71.07590224653661,-4.0528078468955],[-71.07584323793829,-4.052647316777201],[-71.0757735005039,-4.052652667781659],[-71.07567157656133,-4.0527222308363795],[-71.07567157656133,-4.0525617007010695],[-71.07559111029089,-4.05267407179913],[-71.07547309309423,-4.052529594670195],[-71.07558038145483,-4.052342309464638]]]},"id":"4","properties":{"class":"coca_cultivation"}},{"type":"Feature","geometry":{"type":"Polygon","coordinates":[[[-71.07539262682378,-4.052229938320487],[-71.07551064402044,-4.05223528932769],[-71.07541944891393,-4.052534945675427],[-71.07546236425817,-4.0527489858558265],[-71.075612567963,-4.052743634852004],[-71.07566084772527,-4.052823899905577],[-71.07578959375799,-4.0529041649511965],[-71.07566084772527,-4.0529951319932485],[-71.07575204283178,-4.053070046020201],[-71.07594516188085,-4.053032589007589],[-71.0760792723316,-4.053187768048535],[-71.0761329165119,-4.053289437059208],[-71.07609000116766,-4.053412510055029],[-71.07595589071691,-4.053492775042202],[-71.07580568701208,-4.053540934030687],[-71.07569839865148,-4.053556987026209],[-71.07556428820074,-4.053476722045395],[-71.07539799124181,-4.053391106057099],[-71.07528533846319,-4.053369702058609],[-71.07524242311895,-4.053251980056763],[-71.07536580473364,-4.053187768048534],[-71.07535507589758,-4.053032589007589],[-71.07530143171728,-4.053027238005652],[-71.07536044031562,-4.052979078986571],[-71.07536044031562,-4.052823899905577],[-71.07524242311895,-4.05267407179913],[-71.07539262682378,-4.052229938320487]]]},"id":"5","properties":{"class":"coca_cultivation"}},{"type":"Feature","geometry":{"type":"Polygon","coordinates":[[[-71.07596661955297,-4.052283448391073],[-71.07620265394628,-4.052374415502958],[-71.07619192511022,-4.052604508740274],[-71.0761865606922,-4.052823899905577],[-71.07603635698736,-4.052781091878001],[-71.07610073000372,-4.052550998690922],[-71.07596661955297,-4.052283448391073]]]},"id":"6","properties":{"class":"coca_cultivation"}},{"type":"Feature","geometry":{"type":"Polygon","coordinates":[[[-71.0772375813499,-4.04952848368146],[-71.07745752248913,-4.049619451103106],[-71.07745752248913,-4.049935161487156],[-71.07728586111217,-4.050122447249995],[-71.07728586111217,-4.05034719010818],[-71.0774521580711,-4.050518422720135],[-71.0775058022514,-4.050673602243428],[-71.07733414087444,-4.0508180797038795],[-71.07715175066143,-4.050791324620553],[-71.07730195436626,-4.050646847155331],[-71.07707664880901,-4.050491667626909],[-71.07711956415325,-4.0502776268492156],[-71.07706591997295,-4.049956565576533],[-71.0772375813499,-4.04952848368146]]]},"id":"7","properties":{"class":"coca_cultivation"}},{"type":"Feature","geometry":{"type":"Polygon","coordinates":[[[-71.08023595410911,-4.025535439945591],[-71.08043980199425,-4.0257227313385595],[-71.08042907315819,-4.026091962815635],[-71.08038615781395,-4.026209688758634],[-71.07962977487175,-4.026070558096903],[-71.0794581134948,-4.025968885675223],[-71.07950102883903,-4.0258458085161966],[-71.0797102411422,-4.0259795880359945],[-71.0801072080764,-4.025926076230709],[-71.08018767434685,-4.025872564421912],[-71.08012866574852,-4.0256424636039965],[-71.08023595410911,-4.025535439945591]]]},"id":"8","properties":{"class":"coca_cultivation"}},{"type":"Feature","geometry":{"type":"Polygon","coordinates":[[[-71.0102082732641,-4.0226795170206255],[-71.01062133345238,-4.022743731442526],[-71.0111845973455,-4.022813297060545],[-71.01141526732079,-4.022861457869543],[-71.01133480105034,-4.023241393040679],[-71.0111470464193,-4.023642732817727],[-71.01083591017357,-4.023771161504627],[-71.01055696043602,-4.023797917478508],[-71.01005806955925,-4.0237015959684],[-71.00989177260033,-4.023674839991351],[-71.00989713701836,-4.023257446635556],[-71.0101385358297,-4.023107613071049],[-71.01020290884605,-4.022631356200879],[-71.0102082732641,-4.0226795170206255]]]},"id":"9","properties":{"class":"coca_cultivation"}},{"type":"Feature","geometry":{"type":"Polygon","coordinates":[[[-71.01011707815758,-4.023064803476133],[-71.01000978979698,-4.023166476260396],[-71.00985422167412,-4.023310958616191],[-71.0099400523626,-4.023781863894292],[-71.00946261915794,-4.023669488795832],[-71.00904419455162,-4.023412631369744],[-71.00870087179771,-4.023219988247012],[-71.00875451597801,-4.022743731442526],[-71.00882961783043,-4.0224601177075945],[-71.00904955896965,-4.0222835279737055],[-71.0101760867559,-4.022658112212201],[-71.01011707815758,-4.023064803476133]]]},"id":"10","properties":{"class":"coca_cultivation"}},{"type":"Feature","geometry":{"type":"MultiPolygon","coordinates":[[[[-71.0043325260777,-4.005020989217818],[-71.00431946337187,-4.0050220316848595],[-71.0043137506146,-4.005004935264377],[-71.0043325260777,-4.005020989217818]]],[[[-71.00431946337187,-4.0050220316848595],[-71.00435666595884,-4.005133366883151],[-71.00427083527036,-4.005376851771757],[-71.00395969902463,-4.005272501114074],[-71.00399724995084,-4.005047745806208],[-71.00431946337187,-4.0050220316848595]]]]},"id":"11","properties":{"class":"coca_cultivation"}},{"type":"Feature","geometry":{"type":"Polygon","coordinates":[[[-71.1189400648387,-4.054215826053995],[-71.1187791322978,-4.054825839150522],[-71.11795301192122,-4.054686713397099],[-71.11809248678999,-4.054280037980574],[-71.1189400648387,-4.054215826053995]]]},"id":"12","properties":{"class":"coca_cultivation"}},{"type":"Feature","geometry":{"type":"Polygon","coordinates":[[[-71.11276025526838,-4.053359666545616],[-71.11318940871077,-4.05346668653375],[-71.11280317061262,-4.0550612826786825],[-71.11147279494122,-4.05483654113057],[-71.11235255949812,-4.053884064352091],[-71.11276025526838,-4.053359666545616]]]},"id":"13","properties":{"class":"coca_cultivation"}},{"type":"Feature","geometry":{"type":"Polygon","coordinates":[[[-71.12967670319861,-4.066418758728848],[-71.12985909341162,-4.066424109642024],[-71.12996638177222,-4.066632795228264],[-71.13002539037055,-4.066841480760449],[-71.13006294129676,-4.066911042592513],[-71.12999320386237,-4.067031438056885],[-71.12999320386237,-4.067149158049091],[-71.12978667376822,-4.067018060783954],[-71.12963378785437,-4.066935121686832],[-71.12964183448142,-4.066683628888524],[-71.12967670319861,-4.066418758728848]]]},"id":"14","properties":{"class":"coca_cultivation"}},{"type":"Feature","geometry":{"type":"Polygon","coordinates":[[[-71.2072730625483,-4.003290530739833],[-71.20758956321205,-4.003616961748482],[-71.20787387736763,-4.003916636002486],[-71.2082815731379,-4.004227012792754],[-71.20812600501503,-4.004617659275289],[-71.20784705527748,-4.005040413477819],[-71.20747691043343,-4.005473870091615],[-71.20717113860573,-4.005254466155305],[-71.20707994349924,-4.004730036996002],[-71.20718723185982,-4.004483876254325],[-71.20735889323677,-4.004382201143765],[-71.20730524905647,-4.004157445591376],[-71.20720332511391,-4.004077175736289],[-71.20716040976968,-4.004045067792043],[-71.2072730625483,-4.003290530739833]]]},"id":"15","properties":{"class":"coca_cultivation"}},{"type":"Feature","geometry":{"type":"Polygon","coordinates":[[[-71.20900040515389,-4.003360098014896],[-71.20949929603066,-4.003718636954101],[-71.20939200767006,-4.003841717449274],[-71.20903259166207,-4.003606259094526],[-71.20894676097359,-4.003445719268373],[-71.20900040515389,-4.003360098014896]]]},"id":"16","properties":{"class":"coca_cultivation"}},{"type":"Feature","geometry":{"type":"Polygon","coordinates":[[[-71.21056692153192,-4.001396052000827],[-71.21118382960535,-4.001733186443288],[-71.21136085540033,-4.001818807866887],[-71.2113554909823,-4.002070320746967],[-71.21120528727747,-4.002493076264959],[-71.21081904917932,-4.002407454911856],[-71.21071176081873,-4.002316482214369],[-71.21057765036798,-4.0023325362205435],[-71.21008412390924,-4.00204891539847],[-71.20986954718805,-4.00184556455993],[-71.21016459017969,-4.001353241268049],[-71.21056692153192,-4.001396052000827]]]},"id":"17","properties":{"class":"coca_cultivation"}},{"type":"Feature","geometry":{"type":"Polygon","coordinates":[[[-71.20925263911462,-4.0007485394285105],[-71.20960669070459,-4.000882323059786],[-71.2095905974505,-4.001096376824373],[-71.2096442416308,-4.001289025164677],[-71.20953158885217,-4.001433511390178],[-71.20954768210626,-4.0016582676902885],[-71.20956377536035,-4.00180275385065],[-71.20955304652429,-4.001990050687251],[-71.20947794467187,-4.00209707743179],[-71.20913462191797,-4.00196329399893],[-71.2090863421557,-4.001850915898435],[-71.2090863421557,-4.001492376141406],[-71.20908097773767,-4.001032160700873],[-71.20925263911462,-4.0007485394285105]]]},"id":"18","properties":{"class":"coca_cultivation"}},{"type":"Feature","geometry":{"type":"Polygon","coordinates":[[[-71.20730453452045,-3.9901124316847953],[-71.20744669159824,-3.9901124316847953],[-71.20741718729907,-3.9902248113936607],[-71.20755397995883,-3.9902756498283245],[-71.20777660330707,-3.990240865636531],[-71.20791607817584,-3.990331839673515],[-71.20811992606097,-3.990497733479737],[-71.20810383280688,-3.9906609515467037],[-71.20790534933978,-3.9907198170711005],[-71.20774978121692,-3.990759952653483],[-71.20761567076617,-3.990631518782928],[-71.20743864497119,-3.9904254894069555],[-71.20730453452045,-3.9901124316847953]]]},"id":"19","properties":{"class":"coca_cultivation"}},{"type":"Feature","geometry":{"type":"Polygon","coordinates":[[[-71.2204403936171,-4.015339846914879],[-71.22050208442444,-4.015246200031011],[-71.2209285556578,-4.015374630040436],[-71.22084272496933,-4.015535167523792],[-71.22084808938737,-4.015810756796601],[-71.220783716371,-4.0160408603899835],[-71.22058255069489,-4.016051562881121],[-71.22038406722778,-4.016270963918483],[-71.22021508805985,-4.016361935063018],[-71.22001660459274,-4.016418123117811],[-71.21983421437973,-4.016487689275531],[-71.21971887939209,-4.016565282290599],[-71.21956599347824,-4.016578660395907],[-71.21935678117508,-4.016578660395907],[-71.21928972594971,-4.016570633532744],[-71.2193245946669,-4.016000726046961],[-71.21949089162582,-4.016014104161518],[-71.21960354440445,-4.016062265372116],[-71.21975374810928,-4.016030157898695],[-71.22005147330994,-4.0157572443237175],[-71.22016144387956,-4.015516438152357],[-71.2204403936171,-4.015339846914879]]]},"id":"20","properties":{"class":"coca_cultivation"}},{"type":"Feature","geometry":{"type":"Polygon","coordinates":[[[-71.21815761854691,-4.013036719659692],[-71.21830782225175,-4.013438064458189],[-71.21804496576829,-4.013753788894373],[-71.21769091417832,-4.014090918242313],[-71.2173636846785,-4.013828706539283],[-71.21722957422776,-4.0135932510607235],[-71.21728321840806,-4.013352444251052],[-71.21759971907181,-4.013224013923532],[-71.21787330439133,-4.012977855739326],[-71.21815761854691,-4.013036719659692]]]},"id":"21","properties":{"class":"coca_cultivation"}},{"type":"Feature","geometry":{"type":"Polygon","coordinates":[[[-71.2170579128508,-4.014626043905599],[-71.21715983679337,-4.0146046388858085],[-71.21742269327683,-4.014556477589207],[-71.21791085531754,-4.014310319806693],[-71.21795377066178,-4.014476208755242],[-71.21755143930955,-4.014679556452629],[-71.21728321840806,-4.014765176520599],[-71.21720275213761,-4.01492571412381],[-71.21677359869523,-4.014893606605695],[-71.21657511522812,-4.014668853943503],[-71.21622642805619,-4.0144815600110775],[-71.21624788572832,-4.014315671063622],[-71.21643564035935,-4.014117674533816],[-71.2170579128508,-4.014626043905599]]]},"id":"22","properties":{"class":"coca_cultivation"}},{"type":"Feature","geometry":{"type":"Polygon","coordinates":[[[-70.34503764438968,-13.17583849229002],[-70.34517175484042,-13.176394762492206],[-70.3450430088077,-13.176381704520736],[-70.34493572044711,-13.17603958541982],[-70.34474528360705,-13.176159718899056],[-70.34467554617267,-13.176055255007416],[-70.34475601244311,-13.175940344675118],[-70.34462458420138,-13.175781037079723],[-70.34441537189822,-13.175916840282323],[-70.34433490562778,-13.175825434288862],[-70.34438050318103,-13.175726193457317],[-70.3443939142261,-13.175593001751732],[-70.34413642216067,-13.175290055641678],[-70.34425712156634,-13.175237823515825],[-70.34457898664813,-13.17531356009466],[-70.34481233883243,-13.175514653655771],[-70.34488744068484,-13.175564274119465],[-70.34472919035296,-13.17566351501667],[-70.34474796581607,-13.175778425478939],[-70.34485525417666,-13.175864608290233],[-70.34503764438968,-13.17583849229002]]]},"id":"23","properties":{"class":"coca_cultivation"}},{"type":"Feature","geometry":{"type":"Polygon","coordinates":[[[-70.34309704588587,-13.187628576220153],[-70.34308095263178,-13.18778004168252],[-70.34307290600474,-13.187988959407706],[-70.34293074892695,-13.188103864080473],[-70.34284760044748,-13.188049023220659],[-70.34300853298838,-13.187615518848302],[-70.34309704588587,-13.187628576220153]]]},"id":"24","properties":{"class":"coca_cultivation"}},{"type":"Feature","geometry":{"type":"Polygon","coordinates":[[[-71.3988285862019,-12.88315936105275],[-71.39876421318554,-12.88366661023476],[-71.39861669168972,-12.883948995932256],[-71.39809634314084,-12.883865326129143],[-71.39814998732113,-12.883376380158396],[-71.3988285862019,-12.88315936105275]]]},"id":"25","properties":{"class":"coca_cultivation"}},{"type":"Feature","geometry":{"type":"Polygon","coordinates":[[[-71.39815535173916,-12.883410371085631],[-71.39800246582531,-12.884098032699812],[-71.39760818110013,-12.883789500345939],[-71.39762427435421,-12.883572481598193],[-71.39815535173916,-12.883410371085631]]]},"id":"26","properties":{"class":"coca_cultivation"}},{"type":"Feature","geometry":{"type":"Polygon","coordinates":[[[-71.39858986959958,-12.883969913378662],[-71.39851744995617,-12.884325509700366],[-71.39802660570645,-12.884134638208089],[-71.39807488546872,-12.883888858264084],[-71.39858986959958,-12.883969913378662]]]},"id":"27","properties":{"class":"coca_cultivation"}},{"type":"Feature","geometry":{"type":"Polygon","coordinates":[[[-71.39925505743527,-12.88309137912555],[-71.39916654453778,-12.88367706896997],[-71.39876957760359,-12.88367183960242],[-71.39885809050107,-12.883180278565083],[-71.39925505743527,-12.88309137912555]]]},"id":"28","properties":{"class":"coca_cultivation"}},{"type":"Feature","geometry":{"type":"Polygon","coordinates":[[[-71.39916654453778,-12.883708445172994],[-71.39905657396817,-12.884445784812575],[-71.39856036530041,-12.88434904179209],[-71.39865960703396,-12.88392807848409],[-71.39876957760359,-12.88367445428622],[-71.39916654453778,-12.883708445172994]]]},"id":"29","properties":{"class":"coca_cultivation"}},{"type":"Feature","geometry":{"type":"Polygon","coordinates":[[[-71.39954205379986,-12.883514958525103],[-71.399206777673,-12.88348358229784],[-71.39928187952542,-12.883114911333198],[-71.39957155809903,-12.883415600458642],[-71.39954205379986,-12.883514958525103]]]},"id":"30","properties":{"class":"coca_cultivation"}},{"type":"Feature","geometry":{"type":"Polygon","coordinates":[[[-71.39953400717282,-12.883554178803639],[-71.39940794334912,-12.8839411518894],[-71.39916386232876,-12.884035280387435],[-71.39921750650906,-12.883517573210533],[-71.39953400717282,-12.883554178803639]]]},"id":"31","properties":{"class":"coca_cultivation"}},{"type":"Feature","geometry":{"type":"Polygon","coordinates":[[[-71.39970566854977,-12.884053583146835],[-71.39954205379986,-12.884354271145508],[-71.39940257893109,-12.884443170136839],[-71.39924701080822,-12.88445362883963],[-71.39912094698452,-12.884403949997491],[-71.39905925617718,-12.884351656468805],[-71.3992255531361,-12.884037895067433],[-71.39970566854977,-12.884053583146835]]]},"id":"32","properties":{"class":"coca_cultivation"}},{"type":"Feature","geometry":{"type":"Polygon","coordinates":[[[-71.3998558722546,-12.883026011870474],[-71.40007581339383,-12.88314367291733],[-71.40015627966427,-12.883444362008245],[-71.39997925386929,-12.883630004658079],[-71.39973249063992,-12.883624775289544],[-71.39957960472607,-12.883616931236537],[-71.39957960472607,-12.883384224218938],[-71.3994589053204,-12.883279636724886],[-71.39955546484495,-12.883114911333198],[-71.39985319004559,-12.88304431470361],[-71.3998558722546,-12.883026011870474]]]},"id":"33","properties":{"class":"coca_cultivation"}},{"type":"Feature","geometry":{"type":"MultiPolygon","coordinates":[[[[-71.39963012029322,-12.884293407070457],[-71.39992107331005,-12.883683481729195],[-71.40027921487483,-12.884220196094933],[-71.39963012029322,-12.884293407070457]]],[[[-71.39993320991191,-12.883658039677035],[-71.39992107331005,-12.883683481729195],[-71.39991979886683,-12.883681571831454],[-71.39993320991191,-12.883658039677035]]]]},"id":"34","properties":{"class":"coca_cultivation"}},{"type":"Feature","geometry":{"type":"Polygon","coordinates":[[[-71.40078883458766,-12.88338349771211],[-71.40105705548915,-12.88388551707717],[-71.40033822347316,-12.884235884162921],[-71.40041064311656,-12.883956113469704],[-71.40051524926814,-12.883948269427066],[-71.40053938914927,-12.883801847252865],[-71.40041332532557,-12.88384106748648],[-71.40026580382974,-12.88379661788792],[-71.40032481242808,-12.883697259933182],[-71.40078883458766,-12.88338349771211]]]},"id":"35","properties":{"class":"coca_cultivation"}},{"type":"Feature","geometry":{"type":"Polygon","coordinates":[[[-71.40027116824778,-12.884238498840817],[-71.40026848603877,-12.88452349856852],[-71.3998956589857,-12.884578406735676],[-71.39979105283412,-12.884437214281514],[-71.39965426017436,-12.88433524190401],[-71.40027116824778,-12.884238498840817]]]},"id":"36","properties":{"class":"coca_cultivation"}},{"type":"Feature","geometry":{"type":"Polygon","coordinates":[[[-71.4010398957817,-12.883924989363258],[-71.40128665901106,-12.884199530734719],[-71.40125715471191,-12.88435379670662],[-71.40104257799071,-12.884528979983251],[-71.4009513828842,-12.884712007156304],[-71.4006992552368,-12.884704163137341],[-71.40036129690093,-12.884604805542608],[-71.40037202573698,-12.884249209617401],[-71.4010398957817,-12.883924989363258]]]},"id":"37","properties":{"class":"coca_cultivation"}}]}