{"type":"FeatureCollection","features":[{"type":"Feature","geometry":{"type":"Polygon","coordinates":[[[-74.91853514222836,-9.45831620059437],[-74.91780558137631,-9.459406246012382],[-74.91680779962277,-9.45917342106765],[-74.91764464883542,-9.458199787772722],[-74.91871753244138,-9.4572261517215],[-74.91853514222836,-9.45831620059437]]]},"id":"0","properties":{"class":"historical_disturbance"}},{"type":"Feature","geometry":{"type":"Polygon","coordinates":[[[-74.9159874379341,-9.463395728217014],[-74.91549391147537,-9.463639133120777],[-74.91495746967239,-9.46307824330091],[-74.91597670909805,-9.46278192378132],[-74.9159874379341,-9.463395728217014]]]},"id":"1","properties":{"class":"historical_disturbance"}},{"type":"Feature","geometry":{"type":"Polygon","coordinates":[[[-74.89885117227071,-9.465885388998172],[-74.89852930718892,-9.465874806249014],[-74.89815379792684,-9.46533508561015],[-74.89718820268148,-9.465123430226278],[-74.89751006776326,-9.46456254282861],[-74.89916230851644,-9.464880026373674],[-74.89885117227071,-9.465885388998172]]]},"id":"2","properties":{"class":"historical_disturbance"}},{"type":"Feature","geometry":{"type":"Polygon","coordinates":[[[-74.9037336075175,-9.462362317294486],[-74.90320789455058,-9.462637471478432],[-74.90291821597697,-9.462161242943864],[-74.90374433635355,-9.461674430871104],[-74.9037336075175,-9.462362317294486]]]},"id":"3","properties":{"class":"historical_disturbance"}},{"type":"Feature","geometry":{"type":"Polygon","coordinates":[[[-74.90424859164835,-9.462404648721732],[-74.90517127154948,-9.462859711235465],[-74.90438806651713,-9.463410018586861],[-74.90389454005839,-9.463081950848812],[-74.90424859164835,-9.462849128393145],[-74.90399109958292,-9.462658637175771],[-74.90424859164835,-9.462404648721732]]]},"id":"4","properties":{"class":"historical_disturbance"}},{"type":"Feature","geometry":{"type":"Polygon","coordinates":[[[-74.90363704799296,-9.46294437396225],[-74.90377652286173,-9.46346293270884],[-74.90341174243571,-9.463611092207044],[-74.9030684196818,-9.463558178107876],[-74.90363704799296,-9.46294437396225]]]},"id":"5","properties":{"class":"historical_disturbance"}},{"type":"Feature","geometry":{"type":"Polygon","coordinates":[[[-74.9074457847941,-9.461028874668012],[-74.90627634166361,-9.46225648870355],[-74.90561115382792,-9.462192991533355],[-74.90528928874613,-9.461409858803307],[-74.90615832446696,-9.46172734526022],[-74.90650164722086,-9.461251115464908],[-74.90724193690897,-9.460256322208817],[-74.9074457847941,-9.461028874668012]]]},"id":"6","properties":{"class":"historical_disturbance"}},{"type":"Feature","geometry":{"type":"Polygon","coordinates":[[[-74.82143270771414,-9.59128312982127],[-74.82051002781301,-9.591621653233883],[-74.82046711246878,-9.592700694355852],[-74.81928694050222,-9.592594906162413],[-74.81866466801077,-9.59181207250496],[-74.81864321033865,-9.591092710253145],[-74.8171197156182,-9.59011945301269],[-74.8173557500115,-9.58914619297893],[-74.81864321033865,-9.58846914087336],[-74.81963026325613,-9.588363351359762],[-74.82130396168142,-9.588088298470016],[-74.82143270771414,-9.59128312982127]]]},"id":"7","properties":{"class":"historical_disturbance"}},{"type":"Feature","geometry":{"type":"Polygon","coordinates":[[[-74.87989616949963,-9.577716933403225],[-74.88013220389294,-9.577939098313296],[-74.8800356443684,-9.578859494249352],[-74.87981570322918,-9.579462510923554],[-74.87948310931134,-9.579980892822425],[-74.87931681235243,-9.58040406113261],[-74.87889838774609,-9.580446377934623],[-74.87887693007397,-9.580033788890042],[-74.8789895828526,-9.579764018858995],[-74.87907541354109,-9.579118685758099],[-74.87916124422955,-9.57871667435385],[-74.87947238047528,-9.578489220322172],[-74.87970305045056,-9.578335821005469],[-74.87963331301617,-9.578103077082265],[-74.87989616949963,-9.577716933403225]]]},"id":"8","properties":{"class":"historical_disturbance"}},{"type":"Feature","geometry":{"type":"Polygon","coordinates":[[[-74.87423133030214,-9.573217032865754],[-74.87443517818727,-9.573217032865754],[-74.87485896721162,-9.5739205639038],[-74.87490724697389,-9.574560617191413],[-74.87480532303132,-9.575057847838629],[-74.87373243942537,-9.575269435127309],[-74.87313698902406,-9.575523339699723],[-74.87264346256532,-9.5752324073613],[-74.87260591163911,-9.57436489854552],[-74.87225722446718,-9.573746003706953],[-74.87253617420473,-9.573746003706955],[-74.87294923439302,-9.574063385816306],[-74.87320672645845,-9.574264394332184],[-74.87397920265474,-9.573608471367487],[-74.87423133030214,-9.573217032865754]]]},"id":"9","properties":{"class":"historical_disturbance"}},{"type":"Feature","geometry":{"type":"Polygon","coordinates":[[[-74.87132381573,-9.573370434494505],[-74.87132381573,-9.573534415469327],[-74.8711092390088,-9.573597891954451],[-74.87069081440248,-9.57355557429902],[-74.87049233093538,-9.573386303624561],[-74.87061034813203,-9.573158846022938],[-74.87132381573,-9.573370434494505]]]},"id":"10","properties":{"class":"historical_disturbance"}},{"type":"Feature","geometry":{"type":"Polygon","coordinates":[[[-74.8720265544919,-9.572963126569427],[-74.87240206375398,-9.572947257419594],[-74.87262736931123,-9.572957836852895],[-74.87279366627016,-9.573010734014437],[-74.87279366627016,-9.57326992998694],[-74.87267028465547,-9.573481518389322],[-74.87217675819673,-9.573761872819471],[-74.8718280710248,-9.573560864006236],[-74.87169932499208,-9.57335985507405],[-74.8720265544919,-9.572963126569427]]]},"id":"11","properties":{"class":"historical_disturbance"}},{"type":"Feature","geometry":{"type":"Polygon","coordinates":[[[-74.87072300091066,-9.573920563903801],[-74.87108778133668,-9.574116282805704],[-74.87143110409059,-9.574618803794111],[-74.87133990898408,-9.574862129479252],[-74.8707498230008,-9.575343490647194],[-74.870604983714,-9.574830391356292],[-74.87042795791902,-9.574396636711977],[-74.87036894932069,-9.573999909418166],[-74.87072300091066,-9.573920563903801]]]},"id":"12","properties":{"class":"historical_disturbance"}},{"type":"Feature","geometry":{"type":"Polygon","coordinates":[[[-74.87770079579792,-9.574052806417445],[-74.87720190492115,-9.574936185087958],[-74.87609147038899,-9.574698149145373],[-74.87626313176594,-9.57414273129731],[-74.87662254777393,-9.573592602247807],[-74.87671910729847,-9.573592602247807],[-74.8769229551836,-9.573841218370902],[-74.87726627793751,-9.574026357918829],[-74.87770079579792,-9.574052806417445]]]},"id":"13","properties":{"class":"historical_disturbance"}},{"type":"Feature","geometry":{"type":"Polygon","coordinates":[[[-74.87991672108987,-9.57177800153678],[-74.88001864503244,-9.57231226434522],[-74.88028686593391,-9.572867685186086],[-74.87950366090159,-9.5734231051189],[-74.87898331235269,-9.573354338890754],[-74.87899404118875,-9.572708993609924],[-74.87911742280343,-9.57198430113663],[-74.87991672108987,-9.57177800153678]]]},"id":"14","properties":{"class":"historical_disturbance"}},{"type":"Feature","geometry":{"type":"Polygon","coordinates":[[[-74.877634263403,-9.570740622474984],[-74.87824580705839,-9.570814678982106],[-74.87811706102568,-9.571592271332456],[-74.87781665361601,-9.57176683263591],[-74.87724266088682,-9.571454738121108],[-74.87725875414091,-9.571063297137988],[-74.877634263403,-9.570740622474984]]]},"id":"15","properties":{"class":"historical_disturbance"}},{"type":"Feature","geometry":{"type":"Polygon","coordinates":[[[-74.87986586130339,-9.570354470426354],[-74.87990877664762,-9.571576402118597],[-74.87941525018888,-9.571486476559443],[-74.87961373365599,-9.570338601154697],[-74.87986586130339,-9.570354470426354]]]},"id":"16","properties":{"class":"historical_disturbance"}},{"type":"Feature","geometry":{"type":"Polygon","coordinates":[[[-74.87769327200132,-9.570275124060649],[-74.87807414568144,-9.570343890912],[-74.87848720586973,-9.570714173718526],[-74.87778446710783,-9.570677145456036],[-74.8776181701489,-9.570581929905373],[-74.87769327200132,-9.570275124060649]]]},"id":"17","properties":{"class":"historical_disturbance"}},{"type":"Feature","geometry":{"type":"Polygon","coordinates":[[[-74.88417467475666,-9.568539073069429],[-74.88460382819905,-9.569470074016376],[-74.88409420848622,-9.569676375017389],[-74.88355776668324,-9.568872329383263],[-74.88417467475666,-9.568539073069429]]]},"id":"18","properties":{"class":"historical_disturbance"}},{"type":"Feature","geometry":{"type":"Polygon","coordinates":[[[-74.87553991188453,-9.565387417657064],[-74.87610317577766,-9.565800024489494],[-74.87596906532691,-9.56607509543293],[-74.87556136955665,-9.566075095432929],[-74.87534142841743,-9.565688938083865],[-74.87553991188453,-9.565387417657064]]]},"id":"19","properties":{"class":"historical_disturbance"}},{"type":"Feature","geometry":{"type":"Polygon","coordinates":[[[-74.88218898990023,-9.560776875625768],[-74.88278980471956,-9.560782165531847],[-74.88286490657198,-9.561252966842474],[-74.882328464769,-9.561252966842474],[-74.8820763371216,-9.56098847180435],[-74.88218898990023,-9.560718686653594],[-74.88218898990023,-9.560776875625768]]]},"id":"20","properties":{"class":"historical_disturbance"}},{"type":"Feature","geometry":{"type":"Polygon","coordinates":[[[-74.88079404693207,-9.561988453548993],[-74.88109445434173,-9.56217359955296],[-74.88078868251404,-9.56273961671147],[-74.8805848346289,-9.562506862106117],[-74.88079404693207,-9.561988453548993]]]},"id":"21","properties":{"class":"historical_disturbance"}},{"type":"Feature","geometry":{"type":"Polygon","coordinates":[[[-74.87906670432648,-9.562369325219],[-74.87930810313782,-9.56269729770416],[-74.87928128104767,-9.56302526987306],[-74.87893795829376,-9.562512151985285],[-74.87899160247406,-9.562030772644492],[-74.87906670432648,-9.562369325219]]]},"id":"22","properties":{"class":"historical_disturbance"}},{"type":"Feature","geometry":{"type":"Polygon","coordinates":[[[-74.87914667915592,-9.564194032822304],[-74.87922714542637,-9.564194032822304],[-74.87916813682804,-9.564257511051899],[-74.8791413147379,-9.564326279120603],[-74.8791413147379,-9.564580191869158],[-74.87894819568882,-9.564522003547701],[-74.87896428894291,-9.564358018224537],[-74.87904475521336,-9.56427867045913],[-74.87914667915592,-9.564194032822304]]]},"id":"23","properties":{"class":"historical_disturbance"}},{"type":"Feature","geometry":{"type":"Polygon","coordinates":[[[-74.88035367321262,-9.565442435829292],[-74.88050387691746,-9.565833883285823],[-74.88017664741764,-9.565833883285823],[-74.88035367321262,-9.565442435829292]]]},"id":"24","properties":{"class":"historical_disturbance"}},{"type":"Feature","geometry":{"type":"Polygon","coordinates":[[[-74.8777891616867,-9.565869580846678],[-74.87858845997314,-9.565933058763472],[-74.87849190044862,-9.56666305395469],[-74.87762286472778,-9.566329795474882],[-74.8777891616867,-9.565869580846678]]]},"id":"25","properties":{"class":"historical_disturbance"}},{"type":"Feature","geometry":{"type":"Polygon","coordinates":[[[-74.87938353242149,-9.344894912323198],[-74.87949618520011,-9.34493196490108],[-74.8794586342739,-9.345117227731324],[-74.87928697289695,-9.345127814175788],[-74.87938353242149,-9.344894912323198]]]},"id":"26","properties":{"class":"historical_disturbance"}},{"type":"Feature","geometry":{"type":"Polygon","coordinates":[[[-74.87753659593601,-9.34590952238192],[-74.87760365116138,-9.345901582566416],[-74.8776251088335,-9.345848650458517],[-74.87769484626789,-9.345838064035977],[-74.87773776161212,-9.345888349540203],[-74.87770021068592,-9.345930695222341],[-74.87760096895236,-9.34590952238192],[-74.87755537139911,-9.345933341827294],[-74.87761706220645,-9.346018033175472],[-74.87753123151798,-9.346036559405146],[-74.87753391372699,-9.345938635037166],[-74.87747892844023,-9.345914815597784],[-74.87742528426189,-9.345906875776773],[-74.87746685850162,-9.34584865045852],[-74.87753659593601,-9.34590952238192]]]},"id":"27","properties":{"class":"historical_disturbance"}},{"type":"Feature","geometry":{"type":"Polygon","coordinates":[[[-74.90998251031178,-9.333725246362766],[-74.91011662076252,-9.333725246362764],[-74.91017562936085,-9.333910515152631],[-74.91017026494282,-9.334098430538914],[-74.91012734959858,-9.334045496637538],[-74.91002810786503,-9.333915808545179],[-74.90988326857823,-9.333905221760002],[-74.90998251031178,-9.333725246362766]]]},"id":"28","properties":{"class":"historical_disturbance"}},{"type":"Feature","geometry":{"type":"Polygon","coordinates":[[[-74.90977598021765,-9.334048143332799],[-74.90993423054951,-9.33401902968383],[-74.90994495938557,-9.334077256979336],[-74.90981084893482,-9.334167244598694],[-74.90980816672581,-9.334265172275725],[-74.90971428941029,-9.33425987888848],[-74.90974647591847,-9.334185771458614],[-74.90977598021765,-9.334048143332799]]]},"id":"29","properties":{"class":"historical_disturbance"}},{"type":"Feature","geometry":{"type":"Polygon","coordinates":[[[-74.90959895442265,-9.334103723928616],[-74.90972770045536,-9.334109017318227],[-74.90970892499226,-9.334156657821149],[-74.90964186976689,-9.334201651623482],[-74.90959895442265,-9.334103723928616]]]},"id":"30","properties":{"class":"historical_disturbance"}},{"type":"Feature","geometry":{"type":"Polygon","coordinates":[[[-70.84723279940842,-13.085812525236719],[-70.84744201171159,-13.085890901951446],[-70.84736154544115,-13.085990179087682],[-70.84718988406418,-13.085937927968331],[-70.84723279940842,-13.085812525236719]]]},"id":"31","properties":{"class":"historical_disturbance"}},{"type":"Feature","geometry":{"type":"Polygon","coordinates":[[[-70.84590778815506,-13.085713248028936],[-70.8462028311467,-13.086094681293133],[-70.84591851699112,-13.086246209412343],[-70.84590778815506,-13.085713248028936]]]},"id":"32","properties":{"class":"historical_disturbance"}},{"type":"Feature","geometry":{"type":"Polygon","coordinates":[[[-70.84654078948257,-13.0859536033053],[-70.8469592140889,-13.086188733240155],[-70.84659443366287,-13.086335036197534],[-70.84654078948257,-13.0859536033053]]]},"id":"33","properties":{"class":"historical_disturbance"}},{"type":"Feature","geometry":{"type":"Polygon","coordinates":[[[-70.84708259570358,-13.08600062931022],[-70.84728107917068,-13.086042430195933],[-70.84722207057236,-13.086293235361438],[-70.84698067176102,-13.086293235361438],[-70.84708259570358,-13.08600062931022]]]},"id":"34","properties":{"class":"historical_disturbance"}},{"type":"Feature","geometry":{"type":"Polygon","coordinates":[[[-70.84718988406418,-13.085342264424959],[-70.84709868895767,-13.085593070302883],[-70.84702895152328,-13.08555126934095],[-70.8470665024495,-13.08534748955002],[-70.84718988406418,-13.085342264424959]]]},"id":"35","properties":{"class":"historical_disturbance"}},{"type":"Feature","geometry":{"type":"Polygon","coordinates":[[[-70.84565566050766,-13.085425866412624],[-70.84589169490097,-13.085535593978399],[-70.8456985758519,-13.085613970781182],[-70.84565566050766,-13.085425866412624]]]},"id":"36","properties":{"class":"historical_disturbance"}},{"type":"Feature","geometry":{"type":"Polygon","coordinates":[[[-70.84585414397476,-13.08569234755906],[-70.84565566050766,-13.085974503753041],[-70.84558592307327,-13.085702797794218],[-70.84585414397476,-13.08569234755906]]]},"id":"37","properties":{"class":"historical_disturbance"}},{"type":"Feature","geometry":{"type":"Polygon","coordinates":[[[-70.84476516711472,-13.086486564168988],[-70.84474907386063,-13.086596291262579],[-70.84468470084427,-13.086591066163994],[-70.84476516711472,-13.086486564168988]]]},"id":"38","properties":{"class":"historical_disturbance"}},{"type":"Feature","geometry":{"type":"Polygon","coordinates":[[[-70.84396050441025,-13.08715015108462],[-70.84406779277084,-13.087296453471305],[-70.84381030070541,-13.087322578888367],[-70.84381030070541,-13.087139700910818],[-70.84396050441025,-13.08715015108462]]]},"id":"39","properties":{"class":"historical_disturbance"}},{"type":"Feature","geometry":{"type":"Polygon","coordinates":[[[-70.84531770217178,-13.086005854421316],[-70.84511385428665,-13.086272334940722],[-70.84505484568832,-13.085953603305299],[-70.84531770217178,-13.086005854421316]]]},"id":"40","properties":{"class":"historical_disturbance"}},{"type":"Feature","geometry":{"type":"Polygon","coordinates":[[[-70.83820778957613,-13.086176517858622],[-70.83856720558413,-13.08630192040505],[-70.83839017978914,-13.086422097785517],[-70.83825070492037,-13.086422097785517],[-70.83812195888765,-13.086359396550852],[-70.83820778957613,-13.086176517858622]]]},"id":"41","properties":{"class":"historical_disturbance"}},{"type":"Feature","geometry":{"type":"Polygon","coordinates":[[[-70.83748359314211,-13.085925712574367],[-70.83756405941256,-13.08593616279964],[-70.83748359314211,-13.086092916125562],[-70.83739776245363,-13.085998864141962],[-70.83731193176516,-13.085915262348658],[-70.83748359314211,-13.085925712574367]]]},"id":"42","properties":{"class":"historical_disturbance"}},{"type":"Feature","geometry":{"type":"Polygon","coordinates":[[[-70.83784837356814,-13.086040665027996],[-70.83797711960085,-13.086045890138262],[-70.83798784843692,-13.086207868501209],[-70.837644525683,-13.086186968073276],[-70.83784837356814,-13.086040665027996]]]},"id":"43","properties":{"class":"historical_disturbance"}},{"type":"Feature","geometry":{"type":"Polygon","coordinates":[[[-70.8378966533304,-13.086260119563331],[-70.83828825584658,-13.086500474306417],[-70.83818633190401,-13.086610201393809],[-70.83774108520754,-13.086364621654349],[-70.8378966533304,-13.086260119563331]]]},"id":"44","properties":{"class":"historical_disturbance"}},{"type":"Feature","geometry":{"type":"Polygon","coordinates":[[[-70.83736557594546,-13.086631101785878],[-70.83742994896181,-13.086631101785878],[-70.8374996863962,-13.086746053910526],[-70.83741922012575,-13.086923707088623],[-70.83736021152743,-13.08676695429107],[-70.83736557594546,-13.086631101785878]]]},"id":"45","properties":{"class":"historical_disturbance"}},{"type":"Feature","geometry":{"type":"Polygon","coordinates":[[[-70.83712954155214,-13.086589300999986],[-70.83695251575716,-13.08675650410102],[-70.83691496483095,-13.086620651590067],[-70.83712954155214,-13.086589300999986]]]},"id":"46","properties":{"class":"historical_disturbance"}},{"type":"Feature","geometry":{"type":"Polygon","coordinates":[[[-70.83677548996218,-13.086458673498372],[-70.83688277832277,-13.086469123701042],[-70.8368344985605,-13.086693802951428],[-70.83673793903597,-13.0866885778549],[-70.83677548996218,-13.086458673498372]]]},"id":"47","properties":{"class":"historical_disturbance"}},{"type":"Feature","geometry":{"type":"Polygon","coordinates":[[[-70.83425612167709,-13.085475378193228],[-70.83450288490646,-13.085653032287174],[-70.83462626652114,-13.085757534635558],[-70.83496422485702,-13.085804560677886],[-70.83508224205367,-13.085788885331441],[-70.83507151321763,-13.085950863863298],[-70.83496958927505,-13.08588293739515],[-70.83490521625869,-13.085982214534585],[-70.83477110580795,-13.085976989422972],[-70.8345458002507,-13.085851586711229],[-70.83444924072616,-13.085767984867974],[-70.83421857075088,-13.085611231335404],[-70.83425612167709,-13.085475378193228]]]},"id":"48","properties":{"class":"historical_disturbance"}},{"type":"Feature","geometry":{"type":"Polygon","coordinates":[[[-70.83480329231611,-13.086316621446889],[-70.83502859787338,-13.086295721028163],[-70.83503932670943,-13.086363647382548],[-70.83484620766036,-13.086442023922034],[-70.83480329231611,-13.086316621446889]]]},"id":"49","properties":{"class":"historical_disturbance"}},{"type":"Feature","geometry":{"type":"Polygon","coordinates":[[[-70.83521133815513,-13.088415817435497],[-70.8352596179174,-13.088562119070843],[-70.8351147786306,-13.088640494911195],[-70.8349538460897,-13.088624819745126],[-70.83493775283561,-13.088535993785197],[-70.83521133815513,-13.088415817435497]]]},"id":"50","properties":{"class":"historical_disturbance"}},{"type":"Feature","geometry":{"type":"Polygon","coordinates":[[[-70.83578533088432,-13.088572569184329],[-70.83593017017112,-13.088614369633856],[-70.83594626342521,-13.088724095780096],[-70.83585506831871,-13.088797246517123],[-70.8357102290319,-13.088724095780096],[-70.83578533088432,-13.088572569184329]]]},"id":"51","properties":{"class":"historical_disturbance"}},{"type":"Feature","geometry":{"type":"Polygon","coordinates":[[[-70.83758111107204,-13.087810550659617],[-70.83744163620327,-13.087810550659617],[-70.83751137363765,-13.087716499331464],[-70.83758647549007,-13.087716499331464],[-70.83758111107204,-13.087810550659617]]]},"id":"52","properties":{"class":"historical_disturbance"}},{"type":"Feature","geometry":{"type":"Polygon","coordinates":[[[-70.83806927311275,-13.087601547659437],[-70.83829994308803,-13.087962077723905],[-70.83811755287502,-13.087962077723907],[-70.83806927311275,-13.087601547659437]]]},"id":"53","properties":{"class":"historical_disturbance"}},{"type":"Feature","geometry":{"type":"Polygon","coordinates":[[[-70.837570382236,-13.088066579093281],[-70.83751673805568,-13.088400983177488],[-70.83716268646572,-13.088322607260972],[-70.83732361900661,-13.08806135402587],[-70.837570382236,-13.088066579093281]]]},"id":"54","properties":{"class":"historical_disturbance"}},{"type":"Feature","geometry":{"type":"Polygon","coordinates":[[[-70.82952585342906,-13.089944202833305],[-70.82958486202739,-13.089970327969672],[-70.82953658226512,-13.090153203846642],[-70.82944002274058,-13.090153203846643],[-70.82952585342906,-13.089944202833305]]]},"id":"55","properties":{"class":"historical_disturbance"}},{"type":"Feature","geometry":{"type":"Polygon","coordinates":[[[-70.82912888649486,-13.090294279430434],[-70.82929518345378,-13.090367429701333],[-70.82921471718333,-13.090424904898962],[-70.82906987789653,-13.090383104756567],[-70.82912888649486,-13.090294279430434]]]},"id":"56","properties":{"class":"historical_disturbance"}},{"type":"Feature","geometry":{"type":"Polygon","coordinates":[[[-70.82960095528148,-13.090712280685965],[-70.82953121784709,-13.090973531110553],[-70.82938637856029,-13.09093695606779],[-70.8294078362324,-13.090811555879931],[-70.82960095528148,-13.090712280685965]]]},"id":"57","properties":{"class":"historical_disturbance"}},{"type":"Feature","geometry":{"type":"Polygon","coordinates":[[[-70.82935419205211,-13.0917311557754],[-70.82936492088817,-13.091961055212963],[-70.8292629969456,-13.09186700546898],[-70.82935419205211,-13.0917311557754]]]},"id":"58","properties":{"class":"historical_disturbance"}},{"type":"Feature","geometry":{"type":"Polygon","coordinates":[[[-70.82921471718333,-13.09046148001774],[-70.82925763252757,-13.090597330411383],[-70.82908060673259,-13.090571205341488],[-70.82921471718333,-13.09046148001774]]]},"id":"59","properties":{"class":"historical_disturbance"}},{"type":"Feature","geometry":{"type":"Polygon","coordinates":[[[-70.82896258953593,-13.090822005898028],[-70.8290645134785,-13.09082200589803],[-70.82905378464244,-13.090916056040912],[-70.82888748768352,-13.090905606026812],[-70.82896258953593,-13.090822005898028]]]},"id":"60","properties":{"class":"historical_disturbance"}},{"type":"Feature","geometry":{"type":"Polygon","coordinates":[[[-70.83067920330546,-13.08974042667463],[-70.83079185608409,-13.089855377348973],[-70.83076503399394,-13.089902402609376],[-70.83056655052684,-13.089813577109954],[-70.83067920330546,-13.08974042667463]]]},"id":"61","properties":{"class":"historical_disturbance"}},{"type":"Feature","geometry":{"type":"Polygon","coordinates":[[[-70.83064165237926,-13.089033710039464],[-70.83076503399394,-13.089389012969477],[-70.83051827076457,-13.089389012969477],[-70.83064165237926,-13.089033710039464]]]},"id":"62","properties":{"class":"historical_disturbance"}},{"type":"Feature","geometry":{"type":"Polygon","coordinates":[[[-70.8249309731628,-13.093043809263895],[-70.82529038917079,-13.093404331365363],[-70.82479686271205,-13.093670803883855],[-70.82438916694178,-13.093608104493665],[-70.82443208228602,-13.093242357732871],[-70.8249309731628,-13.093043809263895]]]},"id":"63","properties":{"class":"historical_disturbance"}},{"type":"Feature","geometry":{"type":"Polygon","coordinates":[[[-70.82609505187526,-13.09228618863565],[-70.82618624698176,-13.092364563291431],[-70.82591802608027,-13.092636261905145],[-70.82573563586726,-13.092631036934632],[-70.8259394837524,-13.092479512741502],[-70.82609505187526,-13.09228618863565]]]},"id":"64","properties":{"class":"historical_disturbance"}},{"type":"Feature","geometry":{"type":"Polygon","coordinates":[[[-70.82618624698176,-13.092573562251658],[-70.82630962859645,-13.092730311355469],[-70.82619697581782,-13.09287138546363],[-70.82608968745723,-13.092871385463628],[-70.8260306788589,-13.092625811964021],[-70.82618624698176,-13.092573562251658]]]},"id":"65","properties":{"class":"historical_disturbance"}},{"type":"Feature","geometry":{"type":"Polygon","coordinates":[[[-70.82655639182582,-13.09228618863565],[-70.82655639182582,-13.092411588072949],[-70.82651347648158,-13.0924795127415],[-70.8263740016128,-13.092385463195438],[-70.82655639182582,-13.09228618863565]]]},"id":"66","properties":{"class":"historical_disturbance"}},{"type":"Feature","geometry":{"type":"Polygon","coordinates":[[[-70.82561225425258,-13.093811877453417],[-70.82568735610499,-13.093942501056905],[-70.82553178798213,-13.094062674710942],[-70.82550496589198,-13.093952950942189],[-70.82561225425258,-13.093811877453417]]]},"id":"67","properties":{"class":"historical_disturbance"}},{"type":"Feature","geometry":{"type":"Polygon","coordinates":[[[-70.77107937681888,-13.127431917234269],[-70.77139587748263,-13.12760431681387],[-70.77106864798282,-13.12771402557427],[-70.77096135962222,-13.127625213724393],[-70.77107937681888,-13.127431917234269]]]},"id":"68","properties":{"class":"historical_disturbance"}},{"type":"Feature","geometry":{"type":"Polygon","coordinates":[[[-70.76937885630343,-13.127144584332742],[-70.76955588209842,-13.127144584332743],[-70.76962025511477,-13.127249069063081],[-70.76962025511477,-13.127358777982115],[-70.76945395815585,-13.12731698411398],[-70.76937885630343,-13.127144584332742]]]},"id":"69","properties":{"class":"historical_disturbance"}},{"type":"Feature","geometry":{"type":"Polygon","coordinates":[[[-70.76943786490176,-13.127907321842443],[-70.76966317045901,-13.128069272652727],[-70.76956124651645,-13.128142411693355],[-70.76932521212314,-13.128037927342953],[-70.76943786490176,-13.127907321842443]]]},"id":"70","properties":{"class":"historical_disturbance"}},{"type":"Feature","geometry":{"type":"Polygon","coordinates":[[[-70.76855799403154,-13.12865428083342],[-70.76863309588396,-13.1287848859368],[-70.76861163821184,-13.128852800563134],[-70.76842924799882,-13.1288423521603],[-70.76855799403154,-13.12865428083342]]]},"id":"71","properties":{"class":"historical_disturbance"}},{"type":"Feature","geometry":{"type":"Polygon","coordinates":[[[-70.76874038424455,-13.1288423521603],[-70.76885840144121,-13.12924461534835],[-70.76862773146593,-13.129296857272488],[-70.76850434985124,-13.129035647540665],[-70.76874038424455,-13.1288423521603]]]},"id":"72","properties":{"class":"historical_disturbance"}},{"type":"Feature","geometry":{"type":"Polygon","coordinates":[[[-70.78058265062703,-13.160449864605448],[-70.78071407886875,-13.160648358609869],[-70.78064165922535,-13.160692758562531],[-70.78056655737294,-13.160585676310049],[-70.78050218435658,-13.160517770467163],[-70.78058265062703,-13.160449864605448]]]},"id":"73","properties":{"class":"historical_disturbance"}},{"type":"Feature","geometry":{"type":"Polygon","coordinates":[[[-70.77705431236156,-13.127334121064699],[-70.7768987442387,-13.127558763006693],[-70.77711332095988,-13.127793853191157],[-70.77736008418925,-13.128128203288231],[-70.77755856765636,-13.128274481312607],[-70.77755320323833,-13.128462552930257],[-70.77707577003368,-13.12834762029213],[-70.7766841675175,-13.128321499230525],[-70.7761799122227,-13.128321499230525],[-70.77582586063274,-13.128420759249886],[-70.77559519065746,-13.128133427504888],[-70.77624964965709,-13.128070736897678],[-70.77645886196025,-13.12795580407625],[-70.77614772571452,-13.127715489821332],[-70.77576685203441,-13.127339345298239],[-70.77555227531322,-13.127229636370526],[-70.77582586063274,-13.12695797595772],[-70.77591705573924,-13.127339345298239],[-70.77604580177196,-13.127475175331348],[-70.77625501407512,-13.12744382994576],[-70.7765554214848,-13.12744382994576],[-70.77705431236156,-13.127334121064699]]]},"id":"74","properties":{"class":"historical_disturbance"}},{"type":"Feature","geometry":{"type":"Polygon","coordinates":[[[-70.75221562372465,-13.162754696869106],[-70.75339579569122,-13.163219586095673],[-70.75348162637968,-13.164003105267735],[-70.75414681421537,-13.164593354722344],[-70.75378739820738,-13.16501645301379],[-70.75316512571592,-13.164953771831541],[-70.75272524343748,-13.164112797751836],[-70.7524945734622,-13.163606122533736],[-70.75221562372465,-13.162754696869106]]]},"id":"75","properties":{"class":"historical_disturbance"}},{"type":"Feature","geometry":{"type":"Polygon","coordinates":[[[-70.750477552283,-13.164496563566628],[-70.75063312040587,-13.164830863643921],[-70.75100862966795,-13.16511292897928],[-70.75097644315977,-13.165227844393147],[-70.75081014620085,-13.16544722821539],[-70.75065994249601,-13.165812867482487],[-70.7505311964633,-13.166110601911075],[-70.75039708601255,-13.1661837296101],[-70.750118136275,-13.166168059390717],[-70.75012886511107,-13.165875548444898],[-70.74996793257017,-13.165546473213285],[-70.74982309328337,-13.165300972355729],[-70.7498284577014,-13.164982343216252],[-70.75010204302092,-13.164663713662298],[-70.750477552283,-13.164496563566628]]]},"id":"76","properties":{"class":"historical_disturbance"}},{"type":"Feature","geometry":{"type":"Polygon","coordinates":[[[-73.90677154442936,-8.376962076232855],[-73.90748501202732,-8.376972690602717],[-73.90784979245335,-8.377174363575207],[-73.90788197896153,-8.377376036443145],[-73.90790880105168,-8.378092504997023],[-73.90782833478123,-8.378798357911654],[-73.90700221440464,-8.379116787378731],[-73.9064711370197,-8.379265387707486],[-73.90639067074925,-8.378877965302848],[-73.90753329178959,-8.378543614150315],[-73.90741527459294,-8.377752845995223],[-73.90728652856022,-8.377423801054453],[-73.90724361321598,-8.377365422084276],[-73.90690029046208,-8.377429108233118],[-73.90677154442936,-8.376962076232855]]]},"id":"77","properties":{"class":"historical_disturbance"}},{"type":"Feature","geometry":{"type":"Polygon","coordinates":[[[-73.89219992084317,-8.372538153603436],[-73.89259688777737,-8.372591226053144],[-73.89271490497403,-8.373047648821998],[-73.89253251476102,-8.373228094885327],[-73.89268271846586,-8.373652673527927],[-73.89289729518704,-8.373864962675547],[-73.89270417613797,-8.374172781733952],[-73.89265053195767,-8.374714118108209],[-73.89218919200711,-8.374714118108209],[-73.89187805576138,-8.373790661487057],[-73.89255397243313,-8.37411970949987],[-73.89246814174466,-8.37370574582569],[-73.89223210735135,-8.37353591444738],[-73.89222137851529,-8.373026419867868],[-73.89208190364651,-8.372771672328044],[-73.89170639438443,-8.372771672328044],[-73.89140598697476,-8.372973347477483],[-73.89140598697476,-8.372654912983247],[-73.89135234279446,-8.372102959242868],[-73.89176003856473,-8.37251692462152],[-73.89219992084317,-8.372538153603436]]]},"id":"78","properties":{"class":"historical_disturbance"}},{"type":"Feature","geometry":{"type":"Polygon","coordinates":[[[-73.88688042288058,-8.374257174022752],[-73.88701453333132,-8.374312899848652],[-73.88701721554034,-8.374427005086343],[-73.88689919834368,-8.374474770059635],[-73.88683482532733,-8.374562339162111],[-73.88675435905688,-8.374456194792947],[-73.88669803266757,-8.374323514290788],[-73.88688042288058,-8.374257174022752]]]},"id":"79","properties":{"class":"historical_disturbance"}},{"type":"Feature","geometry":{"type":"Polygon","coordinates":[[[-74.87686104504564,-9.346838942528686],[-74.87677521435717,-9.346838942528688],[-74.87676314441661,-9.346788657161754],[-74.87682215301493,-9.346763514475576],[-74.87686104504564,-9.346838942528686]]]},"id":"80","properties":{"class":"historical_disturbance"}},{"type":"Feature","geometry":{"type":"Polygon","coordinates":[[[-74.8767550863053,-9.34597180879133],[-74.87665182125822,-9.34602209427623],[-74.87660354149595,-9.345992981627958],[-74.87666925561682,-9.345900350458171],[-74.87674435746924,-9.345863297983351],[-74.8767550863053,-9.34597180879133]]]},"id":"81","properties":{"class":"historical_disturbance"}},{"type":"Feature","geometry":{"type":"Polygon","coordinates":[[[-74.87739915192925,-9.34595720662491],[-74.87732807339036,-9.346007492111937],[-74.87737501204812,-9.346085566932647],[-74.87739378751122,-9.346196724274296],[-74.87734550774896,-9.346196724274296],[-74.87736294210755,-9.346125265987318],[-74.87735087216699,-9.346093506743946],[-74.87726772368752,-9.346063070799666],[-74.87729454577767,-9.346006168809735],[-74.87733880222642,-9.345958529927305],[-74.8773723298391,-9.34595720662491],[-74.87739915192925,-9.34595720662491]]]},"id":"82","properties":{"class":"historical_disturbance"}},{"type":"Feature","geometry":{"type":"Polygon","coordinates":[[[-74.8771556243841,-9.34557964884242],[-74.87717171763819,-9.345706685986025],[-74.8770644292776,-9.345708009289377],[-74.8771194145624,-9.345678896614828],[-74.8771180734579,-9.345635227598452],[-74.87705906485957,-9.345627287776702],[-74.87712477898043,-9.345591558576608],[-74.8771556243841,-9.34557964884242]]]},"id":"83","properties":{"class":"historical_disturbance"}},{"type":"Feature","geometry":{"type":"Polygon","coordinates":[[[-74.8808864649957,-9.345157134946342],[-74.88094413248952,-9.345252412924019],[-74.88087573615964,-9.345281525634226],[-74.88081672756131,-9.34525241292402],[-74.88080197541173,-9.345211390464609],[-74.8808864649957,-9.345157134946342]]]},"id":"84","properties":{"class":"historical_disturbance"}},{"type":"Feature","geometry":{"type":"Polygon","coordinates":[[[-74.88094949690755,-9.345286818853998],[-74.88100179998334,-9.345380773491604],[-74.88093608586247,-9.345404592973173],[-74.88089719383176,-9.345305345122576],[-74.88094949690755,-9.345286818853998]]]},"id":"85","properties":{"class":"historical_disturbance"}},{"type":"Feature","geometry":{"type":"Polygon","coordinates":[[[-74.88060751525815,-9.345121405697993],[-74.88068529931958,-9.345134638753366],[-74.88068261711057,-9.34519948071742],[-74.88060215084012,-9.345188894275132],[-74.88060751525815,-9.345121405697993]]]},"id":"86","properties":{"class":"historical_disturbance"}},{"type":"Feature","geometry":{"type":"Polygon","coordinates":[[[-74.915437183948,-9.337295515309442],[-74.91552569684549,-9.337441082161451],[-74.91575904902979,-9.337488722208903],[-74.91564103183313,-9.337562828936436],[-74.9155283790545,-9.337528422243482],[-74.91550423917337,-9.337472842193813],[-74.91534867105051,-9.337554888930688],[-74.9153459888415,-9.337454315508634],[-74.915437183948,-9.337295515309442]]]},"id":"87","properties":{"class":"historical_disturbance"}},{"type":"Feature","geometry":{"type":"Polygon","coordinates":[[[-74.91571076926752,-9.337745449019165],[-74.91586097297235,-9.337758682354767],[-74.91578318891094,-9.337891015683214],[-74.91574295577571,-9.337943949000511],[-74.91575904902979,-9.338052462275847],[-74.91582073983713,-9.338084222252478],[-74.91577246007486,-9.338243022092213],[-74.91570004043146,-9.338272135388317],[-74.9154908281283,-9.338322421984937],[-74.91556861218973,-9.338237728765387],[-74.91558738765283,-9.338134508876236],[-74.91555251893564,-9.338134508876236],[-74.9156356674151,-9.338028642291482],[-74.91563298520609,-9.337933362337706],[-74.91560348090692,-9.33786454902154],[-74.91571076926752,-9.337745449019165]]]},"id":"88","properties":{"class":"historical_disturbance"}},{"type":"Feature","geometry":{"type":"Polygon","coordinates":[[[-74.91644642732686,-9.335058403592626],[-74.9165805377776,-9.3353627725313],[-74.916470567208,-9.335484520032342],[-74.91632036350316,-9.335420999602317],[-74.91631231687612,-9.335188091259857],[-74.91631231687612,-9.335034583403598],[-74.91614065549916,-9.335034583403598],[-74.9161647953803,-9.334836081765093],[-74.91635255001134,-9.334836081765092],[-74.91644642732686,-9.335058403592626]]]},"id":"89","properties":{"class":"historical_disturbance"}},{"type":"Feature","geometry":{"type":"Polygon","coordinates":[[[-74.9158128371098,-9.334480521805833],[-74.91584770582699,-9.334829884970386],[-74.91574578188443,-9.334885465441554],[-74.9155982603886,-9.334721370691607],[-74.91558753155255,-9.33448846188164],[-74.9158128371098,-9.334480521805833]]]},"id":"90","properties":{"class":"historical_disturbance"}},{"type":"Feature","geometry":{"type":"Polygon","coordinates":[[[-74.91569750212216,-9.3350257399246],[-74.91573237083935,-9.335240121572657],[-74.91565726898693,-9.335229534827693],[-74.91561167143368,-9.335078673677124],[-74.91569750212216,-9.3350257399246]]]},"id":"91","properties":{"class":"historical_disturbance"}},{"type":"Feature","geometry":{"type":"Polygon","coordinates":[[[-74.91071986743225,-9.347151931996216],[-74.91003322192444,-9.346855513152965],[-74.90987228938354,-9.347522455195328],[-74.91007613726867,-9.348581090733633],[-74.91019415446533,-9.349258615788283],[-74.91034435817018,-9.35024314203226],[-74.909775729859,-9.35061366194031],[-74.90957188197387,-9.349692654583237],[-74.90951823779358,-9.349089234648273],[-74.90918564387573,-9.348708126781855],[-74.90899252482666,-9.348041187011429],[-74.90951823779358,-9.347607146156877],[-74.90958261080993,-9.34708841369391],[-74.90876721926941,-9.347183691143027],[-74.90864920207275,-9.348464640982044],[-74.90734028407348,-9.348464640982044],[-74.90750121661438,-9.34776594165425],[-74.90835952349914,-9.346813167583335],[-74.9093787629248,-9.34629443393719],[-74.90992593356384,-9.346495575646836],[-74.91040873118652,-9.34670730363669],[-74.91132068225158,-9.346749649219209],[-74.91071986743225,-9.347151931996216]]]},"id":"92","properties":{"class":"historical_disturbance"}},{"type":"Feature","geometry":{"type":"MultiPolygon","coordinates":[[[[-74.91046237536682,-9.350401936326875],[-74.91046237536682,-9.350512277988368],[-74.91045164653076,-9.350486626587712],[-74.91046237536682,-9.350401936326875]]],[[[-74.90976500102295,-9.350835973695759],[-74.91046237536682,-9.35056073054904],[-74.91046237536682,-9.350512277988368],[-74.91073059626831,-9.351153561671424],[-74.91126703807129,-9.351831081717322],[-74.91191076823486,-9.352635635058137],[-74.91187858172668,-9.35291087656336],[-74.91126703807129,-9.353090842045182],[-74.91071986743225,-9.352677979919273],[-74.91015123912109,-9.351714633053328],[-74.90976500102295,-9.350835973695759]]]]},"id":"93","properties":{"class":"historical_disturbance"}},{"type":"Feature","geometry":{"type":"Polygon","coordinates":[[[-74.9155073872324,-9.351756978026557],[-74.91559321792087,-9.352222772391977],[-74.91527135283908,-9.352413324452623],[-74.91446669013462,-9.352720324775238],[-74.91402680785619,-9.35208515139438],[-74.91339380652866,-9.352053392694886],[-74.91308267028293,-9.351809909235849],[-74.91324360282383,-9.351449976853857],[-74.91367275626621,-9.351195906712958],[-74.91447741897068,-9.350984181453814],[-74.91502458960971,-9.350920663850948],[-74.91566831977329,-9.351005353985514],[-74.9155073872324,-9.351756978026557]]]},"id":"94","properties":{"class":"historical_disturbance"}},{"type":"Feature","geometry":{"type":"Polygon","coordinates":[[[-74.91571876503934,-9.348716286858988],[-74.91606208779325,-9.349002117791233],[-74.91656634308805,-9.349457329531997],[-74.91716715790739,-9.34985960917938],[-74.91776797272672,-9.350272474649707],[-74.91806838013639,-9.350653580802927],[-74.91757485367765,-9.351563999368157],[-74.91711351372709,-9.351002927743345],[-74.91649124123563,-9.350844133722996],[-74.91568657853117,-9.35012426658852],[-74.91526815392484,-9.349086808392732],[-74.91571876503934,-9.348716286858988]]]},"id":"95","properties":{"class":"historical_disturbance"}},{"type":"Feature","geometry":{"type":"Polygon","coordinates":[[[-74.90610825085069,-9.366832484760268],[-74.90623699688341,-9.367531145774093],[-74.90540014767076,-9.36737235930345],[-74.90531431698228,-9.36697009991959],[-74.90610825085069,-9.366832484760268]]]},"id":"96","properties":{"class":"historical_disturbance"}},{"type":"Feature","geometry":{"type":"Polygon","coordinates":[[[-74.90316854977037,-9.36698068569882],[-74.90447746776964,-9.36719240121562],[-74.90487443470384,-9.368208633899856],[-74.90460621380237,-9.368346248513914],[-74.90405904316331,-9.368145119444199],[-74.9035333301964,-9.368367419988159],[-74.90311490559007,-9.368346248513914],[-74.90316854977037,-9.36698068569882]]]},"id":"97","properties":{"class":"historical_disturbance"}},{"type":"Feature","geometry":{"type":"Polygon","coordinates":[[[-74.88635811413836,-9.36666139218035],[-74.88699111546588,-9.367031894590664],[-74.88793525303912,-9.367381225072693],[-74.88808545674395,-9.368270428350572],[-74.88823566044879,-9.36892674359532],[-74.88759193028521,-9.368926743595319],[-74.8872486075313,-9.36875737203799],[-74.88689455594134,-9.36819632816437],[-74.88664779271197,-9.367698797933283],[-74.8864546736629,-9.367751726715147],[-74.88635811413836,-9.36666139218035]]]},"id":"98","properties":{"class":"historical_disturbance"}},{"type":"Feature","geometry":{"type":"Polygon","coordinates":[[[-74.85875497684448,-9.364488925159353],[-74.85857258663147,-9.366076799780254],[-74.8573173128125,-9.365547509046367],[-74.85611568317383,-9.36574863962024],[-74.85487113819092,-9.365769811252827],[-74.85504279956787,-9.364764157280272],[-74.85643754825561,-9.364594783693203],[-74.85783229694336,-9.363874945026971],[-74.85875497684448,-9.364488925159353]]]},"id":"99","properties":{"class":"historical_disturbance"}},{"type":"Feature","geometry":{"type":"Polygon","coordinates":[[[-74.89226616370486,-9.471390924695699],[-74.89321566569613,-9.471851266590734],[-74.89397741305636,-9.472311607868717],[-74.8943636511545,-9.472644958064103],[-74.89370382773684,-9.47317937595605],[-74.8928669785242,-9.473110589541347],[-74.89179945933627,-9.472962434139799],[-74.89209986674594,-9.47253384136826],[-74.89196039187716,-9.471798353760624],[-74.89226616370486,-9.471390924695699]]]},"id":"100","properties":{"class":"historical_disturbance"}},{"type":"Feature","geometry":{"type":"Polygon","coordinates":[[[-74.89040471064853,-9.473580213179607],[-74.8908875082712,-9.473871232134218],[-74.89116645800875,-9.47449030799899],[-74.89128983962344,-9.475030014252345],[-74.89128983962344,-9.47546389513491],[-74.89050663459109,-9.47546389513491],[-74.88976634490298,-9.47545860390795],[-74.88912797915744,-9.474950645738886],[-74.8893371914606,-9.474553802896358],[-74.88992727744387,-9.474903024622003],[-74.89040471064853,-9.473580213179607]]]},"id":"101","properties":{"class":"historical_disturbance"}},{"type":"Feature","geometry":{"type":"Polygon","coordinates":[[[-74.84572901966553,-9.488256307688422],[-74.84540715458374,-9.489684882710746],[-74.84570756199341,-9.490436204963062],[-74.84455957653503,-9.490446786954852],[-74.84419479610901,-9.488901812695053],[-74.84405532124023,-9.48794942783276],[-74.84426989796142,-9.48727217476545],[-74.84492435696106,-9.486753651981553],[-74.84656586887817,-9.48647851712472],[-74.84572901966553,-9.488256307688422]]]},"id":"102","properties":{"class":"historical_disturbance"}},{"type":"Feature","geometry":{"type":"Polygon","coordinates":[[[-74.88406884774177,-9.595393488814935],[-74.88443899258583,-9.595388199448063],[-74.88463747605293,-9.59589068893202],[-74.88467502697914,-9.596133999361799],[-74.8841815005204,-9.596133999361799],[-74.88379526242225,-9.595927714443473],[-74.88368797406166,-9.595716140037823],[-74.88406884774177,-9.595393488814935]]]},"id":"103","properties":{"class":"historical_disturbance"}},{"type":"Feature","geometry":{"type":"Polygon","coordinates":[[[-74.87716767145956,-9.592117642715284],[-74.87741443468893,-9.592260456969687],[-74.87746807886923,-9.59272063582464],[-74.87744125677908,-9.593223129263144],[-74.87725350214804,-9.593471731004692],[-74.87683507754171,-9.59318610345625],[-74.87686726404989,-9.592747082866284],[-74.87716767145956,-9.592117642715284]]]},"id":"104","properties":{"class":"historical_disturbance"}},{"type":"Feature","geometry":{"type":"Polygon","coordinates":[[[-74.86596785135201,-9.5960734240348],[-74.86636481828621,-9.59590416459363],[-74.8665418440812,-9.595893585875752],[-74.8669388110154,-9.595808956120834],[-74.8671372944825,-9.596052266609282],[-74.86687980241707,-9.59596234753607],[-74.86646137781075,-9.595930611386882],[-74.86624143667153,-9.596015241111447],[-74.86606441087655,-9.596411942663543],[-74.86600540227823,-9.596956745371617],[-74.86524365491799,-9.596925009315557],[-74.86571035928658,-9.59651244031635],[-74.86583374090127,-9.596052266609282],[-74.86596785135201,-9.5960734240348]]]},"id":"105","properties":{"class":"historical_disturbance"}},{"type":"Feature","geometry":{"type":"Polygon","coordinates":[[[-70.72059969623878,-13.161946959388242],[-70.72072576006248,-13.162182016623955],[-70.72075258215264,-13.162393567943296],[-70.72061578949287,-13.16246669675194],[-70.72033683975532,-13.162239475025055],[-70.72053532322242,-13.162040982309591],[-70.72059701402976,-13.161967853373888],[-70.72059969623878,-13.161946959388242]]]},"id":"106","properties":{"class":"historical_disturbance"}},{"type":"Feature","geometry":{"type":"Polygon","coordinates":[[[-70.7264531982053,-13.16218543634196],[-70.72645051599629,-13.162069213627435],[-70.72635529757626,-13.161943849738737],[-70.72621448160298,-13.161818485785885],[-70.72626544357426,-13.161719239277735],[-70.72619570613988,-13.1616382749913],[-70.72623057485707,-13.161587345829673],[-70.72631372333653,-13.161686592391256],[-70.72656719208844,-13.161895532389506],[-70.72657389761098,-13.162040484408614],[-70.72657523871548,-13.162330388189547],[-70.72644112826474,-13.162445304908676],[-70.72635663868077,-13.162360423246339],[-70.72642101169713,-13.162262482830181],[-70.7264531982053,-13.16218543634196]]]},"id":"107","properties":{"class":"historical_disturbance"}},{"type":"Feature","geometry":{"type":"Polygon","coordinates":[[[-70.75095659887626,-13.164231093471805],[-70.7507473865731,-13.164507936055799],[-70.75061864054038,-13.164544500147286],[-70.75020021593406,-13.164293774838985],[-70.75096732771232,-13.16400126165496],[-70.75095659887626,-13.164231093471805]]]},"id":"108","properties":{"class":"historical_disturbance"}},{"type":"Feature","geometry":{"type":"Polygon","coordinates":[[[-70.75147694742515,-13.164993715682863],[-70.7515413204415,-13.165150418582868],[-70.75118726885154,-13.165385472744903],[-70.75119263326957,-13.16499893911448],[-70.75124627744987,-13.164664639266569],[-70.75167543089225,-13.16465941582783],[-70.75147694742515,-13.164993715682863]]]},"id":"109","properties":{"class":"historical_disturbance"}},{"type":"Feature","geometry":{"type":"Polygon","coordinates":[[[-70.75095659887626,-13.16545337723861],[-70.75091368353202,-13.165683207693018],[-70.75097269213035,-13.165866027218652],[-70.75120872652366,-13.16586080380553],[-70.75107998049094,-13.1660749636523],[-70.75134820139243,-13.166163761582634],[-70.7512516418679,-13.166289123311827],[-70.75088686144187,-13.166294346715814],[-70.75082785284354,-13.165855580392291],[-70.7508385816796,-13.165542175394283],[-70.7509995142205,-13.165281004256295],[-70.75095659887626,-13.16545337723861]]]},"id":"110","properties":{"class":"historical_disturbance"}},{"type":"Feature","geometry":{"type":"Polygon","coordinates":[[[-70.74976033365562,-13.16558396275053],[-70.74944919740989,-13.16598094227921],[-70.74891812002494,-13.165620526681387],[-70.74972814714744,-13.165019832839828],[-70.74976033365562,-13.16558396275053]]]},"id":"111","properties":{"class":"historical_disturbance"}},{"type":"Feature","geometry":{"type":"Polygon","coordinates":[[[-70.74991053736045,-13.163619949301385],[-70.74962622320487,-13.163839334563615],[-70.74919706976249,-13.163855004931982],[-70.74836558496787,-13.164314668624467],[-70.74812418615653,-13.164147518290628],[-70.74852115309073,-13.163875898754895],[-70.74910051023795,-13.163698301203299],[-70.74937409555747,-13.163458021957995],[-70.74991053736045,-13.163619949301385]]]},"id":"112","properties":{"class":"historical_disturbance"}},{"type":"Feature","geometry":{"type":"Polygon","coordinates":[[[-70.75124382414477,-13.163069052755432],[-70.7513940278496,-13.163434695572231],[-70.75122236647265,-13.163497377143184],[-70.75090050139086,-13.163335449718781],[-70.75079321303026,-13.163058605809793],[-70.75120090880053,-13.162839219848399],[-70.75124382414477,-13.163069052755432]]]},"id":"113","properties":{"class":"historical_disturbance"}},{"type":"Feature","geometry":{"type":"Polygon","coordinates":[[[-70.75397558631578,-13.168521674475068],[-70.75406141700425,-13.168939542632993],[-70.75355179729142,-13.168767172104246],[-70.75328357638993,-13.168521674475068],[-70.75263448180833,-13.168537344543864],[-70.7526291173903,-13.168401537247702],[-70.75309045734086,-13.16825528315222],[-70.75339622916856,-13.168391090529497],[-70.75355716170945,-13.168030678478384],[-70.75397558631578,-13.168521674475068]]]},"id":"114","properties":{"class":"historical_disturbance"}},{"type":"Feature","geometry":{"type":"Polygon","coordinates":[[[-70.76212751860254,-13.164029889076655],[-70.76236891741387,-13.163690364446904],[-70.76270151133171,-13.163878408915364],[-70.76295363897913,-13.164238827076476],[-70.7630233764135,-13.164776841605722],[-70.7628624438726,-13.165199939580258],[-70.76220262045494,-13.165283514402374],[-70.76151597494713,-13.165179045870268],[-70.76107072825066,-13.165027566419589],[-70.76170372957817,-13.1647350541118],[-70.76208996767632,-13.164285838101861],[-70.76212751860254,-13.164029889076655]]]},"id":"115","properties":{"class":"historical_disturbance"}},{"type":"Feature","geometry":{"type":"Polygon","coordinates":[[[-70.76897569482486,-13.159782169576653],[-70.76858945672672,-13.160252287975956],[-70.7685679990546,-13.16086344054668],[-70.76828904931705,-13.160278405638353],[-70.76796181981723,-13.159364285797913],[-70.76804765050571,-13.158930730624313],[-70.76884694879215,-13.158925507063335],[-70.76897569482486,-13.159782169576653]]]},"id":"116","properties":{"class":"historical_disturbance"}},{"type":"Feature","geometry":{"type":"Polygon","coordinates":[[[-70.77191175932141,-13.159491157303398],[-70.77285053247662,-13.160123205915317],[-70.7727915238783,-13.160326923715573],[-70.77198149675581,-13.16013365298612],[-70.77141823286267,-13.15967920499465],[-70.77154161447737,-13.159647863722803],[-70.77196003908368,-13.15952772214355],[-70.77191175932141,-13.159491157303398]]]},"id":"117","properties":{"class":"historical_disturbance"}},{"type":"Feature","geometry":{"type":"Polygon","coordinates":[[[-70.768402941163,-13.16253602468409],[-70.76834661477369,-13.162556918619494],[-70.76807034724516,-13.162413272777595],[-70.76795769446653,-13.162152098303851],[-70.7679684233026,-13.162000616981507],[-70.76818836444181,-13.162045016689135],[-70.768402941163,-13.16253602468409]]]},"id":"118","properties":{"class":"historical_disturbance"}}]}