{"type":"FeatureCollection","features":[{"type":"Feature","geometry":{"type":"Polygon","coordinates":[[[-74.91687484797998,-9.336983208039952],[-74.9169150811152,-9.337192295141168],[-74.91689094123409,-9.337570768942033],[-74.917057238193,-9.3377957356918],[-74.91700627622171,-9.3381953821479],[-74.9170035940127,-9.338383295223778],[-74.91658516940637,-9.338288015366981],[-74.91635986384912,-9.338015408966118],[-74.91631426629587,-9.337642228984166],[-74.91665490684076,-9.337454315508634],[-74.91654493627115,-9.337168475098004],[-74.91652347859903,-9.337004381422997],[-74.91687484797998,-9.336983208039952]]]},"id":"0","properties":{"class":"freshly_cleared"}},{"type":"Feature","geometry":{"type":"Polygon","coordinates":[[[-74.91836706428857,-9.336982044843497],[-74.91865137844415,-9.337000571553805],[-74.91873989134164,-9.337299645455188],[-74.91871575146051,-9.337474325668243],[-74.91865137844415,-9.337699292480272],[-74.91858432321878,-9.337932199144424],[-74.91848508148523,-9.338088352388883],[-74.91839120416971,-9.338125405690851],[-74.91828928022714,-9.337969252462994],[-74.91825172930093,-9.337630479117902],[-74.91814980535837,-9.337418745609952],[-74.91836706428857,-9.336982044843497]]]},"id":"1","properties":{"class":"freshly_cleared"}},{"type":"Feature","geometry":{"type":"Polygon","coordinates":[[[-74.91724343136964,-9.339024990599826],[-74.91721660927949,-9.339308182832141],[-74.91721660927949,-9.339567554955073],[-74.91701007918535,-9.339562261648373],[-74.91666943864045,-9.339427282300324],[-74.91651923493562,-9.339255249722088],[-74.91678209141908,-9.338993230708956],[-74.91724343136964,-9.339024990599826]]]},"id":"2","properties":{"class":"freshly_cleared"}},{"type":"Feature","geometry":{"type":"Polygon","coordinates":[[[-74.91696366897801,-9.33841391965491],[-74.91701731315831,-9.33859918595225],[-74.91694757572392,-9.3387738655138],[-74.91681346527318,-9.3388003321064],[-74.91665253273229,-9.338567426022554],[-74.91696366897801,-9.33841391965491]]]},"id":"3","properties":{"class":"freshly_cleared"}},{"type":"Feature","geometry":{"type":"Polygon","coordinates":[[[-74.90377588669824,-9.342078594928022],[-74.90395827691125,-9.342607921376025],[-74.90424795548486,-9.342872584298327],[-74.90452690522243,-9.342872584298325],[-74.90472002427148,-9.343666571858396],[-74.90500970284509,-9.343730090784996],[-74.90433378617334,-9.34462994100036],[-74.9041835824685,-9.34458759516001],[-74.90414066712427,-9.343751263757957],[-74.90364714066553,-9.343878301568664],[-74.90362568299341,-9.344280587663501],[-74.9033360044198,-9.344407625281097],[-74.90260644356775,-9.344090031150193],[-74.90304632584619,-9.343444255524055],[-74.9032823602395,-9.343793609700008],[-74.90342183510828,-9.343793609700008],[-74.90363641182947,-9.34355012046287],[-74.90365786950159,-9.342565575289782],[-74.9033896486001,-9.342226806414553],[-74.90370078484582,-9.342195046815608],[-74.90377588669824,-9.342078594928022]]]},"id":"4","properties":{"class":"freshly_cleared"}},{"type":"Feature","geometry":{"type":"Polygon","coordinates":[[[-74.9088841187433,-9.34991765690924],[-74.90864808434999,-9.350139969109357],[-74.90807945603883,-9.350319936024476],[-74.90853006715334,-9.35057400680501],[-74.90868027085817,-9.350881008750635],[-74.9087768303827,-9.351547943078394],[-74.90917379731691,-9.352172531210204],[-74.90953857774294,-9.352733600948806],[-74.90992481584108,-9.353030014785011],[-74.91012866372621,-9.35349580744591],[-74.9099999176935,-9.353548738390629],[-74.90919525498903,-9.35329466978249],[-74.90886266107118,-9.352828876852275],[-74.90831549043214,-9.35220428989881],[-74.90817601556337,-9.351696150533177],[-74.90796143884218,-9.350997457693627],[-74.90732843751466,-9.350298763451057],[-74.9069743859247,-9.34948361839491],[-74.90698511476076,-9.349091924636795],[-74.90769321794069,-9.348954302400909],[-74.90875537271059,-9.348880198097504],[-74.9088841187433,-9.34991765690924]]]},"id":"5","properties":{"class":"freshly_cleared"}},{"type":"Feature","geometry":{"type":"MultiPolygon","coordinates":[[[[-74.91257313650344,-9.347895667997767],[-74.91250733287185,-9.347918252337172],[-74.91261605184766,-9.347810977106418],[-74.91257313650344,-9.347895667997767]]],[[[-74.91250733287185,-9.347918252337172],[-74.91249803465101,-9.347927427076714],[-74.91261605184766,-9.347969772510805],[-74.9127662555525,-9.34813915419563],[-74.9127126113722,-9.348604953403854],[-74.9122620002577,-9.348922543415672],[-74.91177920263502,-9.3486684714294],[-74.91183284681532,-9.34814974054819],[-74.91250733287185,-9.347918252337172]]]]},"id":"6","properties":{"class":"freshly_cleared"}},{"type":"Feature","geometry":{"type":"Polygon","coordinates":[[[-74.90553715290281,-9.36012590665448],[-74.90581610264036,-9.360284696436766],[-74.90613796772215,-9.360909268876583],[-74.90661003650877,-9.361364465032441],[-74.90614869655822,-9.36163969962816],[-74.90576245846006,-9.36159735585839],[-74.90512945713255,-9.361565598027681],[-74.90470030369016,-9.361184503832776],[-74.90443208278867,-9.360581103836266],[-74.90553715290281,-9.36012590665448]]]},"id":"7","properties":{"class":"freshly_cleared"}},{"type":"Feature","geometry":{"type":"Polygon","coordinates":[[[-74.90100132488634,-9.364588291391318],[-74.90144120716478,-9.364704735743468],[-74.90167724155809,-9.364863523433524],[-74.90166651272203,-9.365488087643568],[-74.90193473362352,-9.365784490604591],[-74.90265356563951,-9.366006792659386],[-74.90216003918077,-9.36643022475117],[-74.9018596317711,-9.366663112181635],[-74.90094768070604,-9.36627143777725],[-74.90119444393541,-9.365583360051467],[-74.90100132488634,-9.364588291391318]]]},"id":"8","properties":{"class":"freshly_cleared"}},{"type":"Feature","geometry":{"type":"Polygon","coordinates":[[[-74.90515338444139,-9.366027964276237],[-74.90567909740831,-9.366218508769808],[-74.90587221645738,-9.366313780977384],[-74.9053894188347,-9.366853656326787],[-74.90511046909715,-9.366461982137247],[-74.90515338444139,-9.366027964276237]]]},"id":"9","properties":{"class":"freshly_cleared"}},{"type":"Feature","geometry":{"type":"Polygon","coordinates":[[[-74.9068485405388,-9.366271437777248],[-74.90753518604662,-9.366811313192452],[-74.90732060932542,-9.367001857256303],[-74.90680562519456,-9.36697009991959],[-74.90636574291612,-9.366917171018603],[-74.90626918339159,-9.366440810546852],[-74.9068485405388,-9.366271437777248]]]},"id":"10","properties":{"class":"freshly_cleared"}},{"type":"Feature","geometry":{"type":"Polygon","coordinates":[[[-74.89361591087871,-9.369196282899045],[-74.89554710136943,-9.369196282899047],[-74.89598698364787,-9.369312725706388],[-74.896190831533,-9.36974673946253],[-74.89538616882854,-9.37004313878912],[-74.89464587914043,-9.369937281915815],[-74.89380902992778,-9.369714982376822],[-74.89361591087871,-9.369196282899045]]]},"id":"11","properties":{"class":"freshly_cleared"}},{"type":"Feature","geometry":{"type":"Polygon","coordinates":[[[-74.87698656477711,-9.363847655440985],[-74.87853151716969,-9.36424991844048],[-74.87893921293995,-9.364313433608347],[-74.8788748399236,-9.364810968688309],[-74.87859589018605,-9.365414361339889],[-74.87801653303883,-9.365414361339889],[-74.87738353171132,-9.365382603858038],[-74.8772547856786,-9.364980342170002],[-74.87700802244923,-9.364821554533343],[-74.87698656477711,-9.363847655440985]]]},"id":"12","properties":{"class":"freshly_cleared"}},{"type":"Feature","geometry":{"type":"Polygon","coordinates":[[[-74.86280107947655,-9.358911862375338],[-74.86354136916466,-9.358880104299272],[-74.86375594588586,-9.35888010429927],[-74.86377740355798,-9.359970463250958],[-74.86304784270592,-9.359970463250958],[-74.86272597762414,-9.359547023287556],[-74.86280107947655,-9.358911862375338]]]},"id":"13","properties":{"class":"freshly_cleared"}},{"type":"Feature","geometry":{"type":"Polygon","coordinates":[[[-74.8527546856631,-9.362836779499332],[-74.85337695815456,-9.362688576793094],[-74.85339841582667,-9.363260215454648],[-74.85314092376125,-9.36349310501012],[-74.85248646476161,-9.363493105010118],[-74.85234698989284,-9.36324962956205],[-74.8527546856631,-9.362836779499332]]]},"id":"14","properties":{"class":"freshly_cleared"}},{"type":"Feature","geometry":{"type":"Polygon","coordinates":[[[-74.90111849833195,-9.466145244138774],[-74.90131966400807,-9.466251071532335],[-74.90169517327016,-9.46656590783548],[-74.90139476586049,-9.466743168484266],[-74.90102462101643,-9.466891326568318],[-74.90087709952061,-9.466864869772282],[-74.90070812035268,-9.466531513967656],[-74.90111849833195,-9.466145244138774]]]},"id":"15","properties":{"class":"freshly_cleared"}},{"type":"Feature","geometry":{"type":"Polygon","coordinates":[[[-74.89932874789955,-9.466711587353103],[-74.89970693937065,-9.466994675091286],[-74.90007976642372,-9.467380943965292],[-74.90005026212455,-9.467563495542306],[-74.89916513314964,-9.467907433032574],[-74.89886472573997,-9.468172000098502],[-74.89833364835502,-9.467894204673938],[-74.898870090158,-9.467076691121392],[-74.89932874789955,-9.466711587353103]]]},"id":"16","properties":{"class":"freshly_cleared"}},{"type":"Feature","geometry":{"type":"Polygon","coordinates":[[[-74.89349808682242,-9.466095613262492],[-74.89598181237021,-9.466635332706872],[-74.89662017811575,-9.467005727913472],[-74.89747312058249,-9.46730733514391],[-74.89684011925497,-9.468153950516461],[-74.89667918671408,-9.468730706044262],[-74.89452269066611,-9.468635462078906],[-74.89335324753561,-9.468148659176865],[-74.89268269528189,-9.46798991895098],[-74.89333179098733,-9.467085097192825],[-74.89349808682242,-9.466095613262492]]]},"id":"17","properties":{"class":"freshly_cleared"}},{"type":"Feature","geometry":{"type":"Polygon","coordinates":[[[-74.89776105977867,-9.468407061420997],[-74.89819557763909,-9.468531407786514],[-74.89784420825814,-9.469108162680634],[-74.89753575422142,-9.468997044840568],[-74.89752502538536,-9.46874570673637],[-74.89776105977867,-9.468407061420997]]]},"id":"18","properties":{"class":"freshly_cleared"}},{"type":"Feature","geometry":{"type":"Polygon","coordinates":[[[-74.88080015043936,-9.47689374305135],[-74.88019933562003,-9.477147720792159],[-74.87940540175161,-9.477211215197991],[-74.87923374037466,-9.476766754110463],[-74.8796736226531,-9.476396369431217],[-74.8802315221282,-9.475888412649779],[-74.88100399832449,-9.475898995090395],[-74.88080015043936,-9.47689374305135]]]},"id":"19","properties":{"class":"freshly_cleared"}},{"type":"Feature","geometry":{"type":"Polygon","coordinates":[[[-74.86988144821734,-9.487587928472289],[-74.86852961487384,-9.488550896389185],[-74.86836868233294,-9.48919640084112],[-74.86781078285784,-9.489535025641278],[-74.86781078285784,-9.487852480367293],[-74.86966687149615,-9.48691067469088],[-74.86988144821734,-9.487587928472289]]]},"id":"20","properties":{"class":"freshly_cleared"}},{"type":"Feature","geometry":{"type":"Polygon","coordinates":[[[-74.84661951305847,-9.487790696765142],[-74.84716668369751,-9.488192815327036],[-74.8472203278778,-9.489081707316393],[-74.84728470089416,-9.489854194911354],[-74.84752073528747,-9.490340967022236],[-74.84769239666443,-9.49098646810302],[-74.84768166782837,-9.49142032880199],[-74.84623327496033,-9.491610804057315],[-74.84445228817444,-9.491579058188774],[-74.84445228817444,-9.490975886127902],[-74.84565391781311,-9.490700754659853],[-74.84595432522278,-9.490076417047742],[-74.84657659771423,-9.487896517485046],[-74.84659805538635,-9.48771662224177],[-74.84661951305847,-9.487790696765142]]]},"id":"21","properties":{"class":"freshly_cleared"}},{"type":"Feature","geometry":{"type":"Polygon","coordinates":[[[-74.85020294430237,-9.487229846404318],[-74.85047116520386,-9.487547308985397],[-74.85083594562988,-9.48778011469136],[-74.850857403302,-9.488362128264614],[-74.85047116520386,-9.488415038540447],[-74.8502458596466,-9.48806583056897],[-74.85020294430237,-9.487229846404318]]]},"id":"22","properties":{"class":"freshly_cleared"}},{"type":"Feature","geometry":{"type":"Polygon","coordinates":[[[-74.88165547678909,-9.591953617666048],[-74.8834042770668,-9.592683556909641],[-74.8835652096077,-9.593667385577355],[-74.88233139346084,-9.593752015867011],[-74.88155891726456,-9.592821081518736],[-74.88165547678909,-9.591953617666048]]]},"id":"23","properties":{"class":"freshly_cleared"}},{"type":"Feature","geometry":{"type":"Polygon","coordinates":[[[-69.38536460076523,-13.983855581329061],[-69.38558722411346,-13.984287632224158],[-69.38550139342499,-13.984555711588506],[-69.38542092715454,-13.9845739305631],[-69.38511783753586,-13.984266810512882],[-69.38536460076523,-13.983855581329061]]]},"id":"24","properties":{"class":"freshly_cleared"}},{"type":"Feature","geometry":{"type":"Polygon","coordinates":[[[-70.54294206758344,-13.220746287855048],[-70.5433122124275,-13.221461733730449],[-70.54319419523084,-13.22148262262958],[-70.54240026136243,-13.22122151126181],[-70.54207839628064,-13.220667954237555],[-70.54294206758344,-13.220704509928858],[-70.54294206758344,-13.220746287855048]]]},"id":"25","properties":{"class":"freshly_cleared"}},{"type":"Feature","geometry":{"type":"Polygon","coordinates":[[[-70.53969123025739,-13.220636620783525],[-70.53895630498731,-13.220135284971418],[-70.53960539956891,-13.219571280951003],[-70.5402866806587,-13.220030839880854],[-70.53969123025739,-13.220636620783525]]]},"id":"26","properties":{"class":"freshly_cleared"}},{"type":"Feature","geometry":{"type":"Polygon","coordinates":[[[-70.53276819480749,-13.222158519191547],[-70.5325536180863,-13.222205519077791],[-70.53234977020117,-13.221312519690196],[-70.5327521015534,-13.22091040778711],[-70.53276819480749,-13.222158519191547]]]},"id":"27","properties":{"class":"freshly_cleared"}},{"type":"Feature","geometry":{"type":"Polygon","coordinates":[[[-70.51248753926606,-13.224133461400431],[-70.51296497247071,-13.224237904733844],[-70.51282549760194,-13.224843675185381],[-70.51247144601197,-13.224760120729819],[-70.51248753926606,-13.224133461400431]]]},"id":"28","properties":{"class":"freshly_cleared"}},{"type":"Feature","geometry":{"type":"Polygon","coordinates":[[[-70.51103914639802,-13.224425902621247],[-70.5112698163733,-13.22449379071163],[-70.51170433423371,-13.225475554828401],[-70.5114307489142,-13.225553886901467],[-70.51086212060304,-13.225078671938112],[-70.51103914639802,-13.224425902621247]]]},"id":"29","properties":{"class":"freshly_cleared"}},{"type":"Feature","geometry":{"type":"Polygon","coordinates":[[[-70.50824885938637,-13.223389882659808],[-70.50869947050087,-13.223812879173812],[-70.50844734285347,-13.224256763615484],[-70.50808256242745,-13.224110542947486],[-70.50807719800942,-13.223901656126799],[-70.50824885938637,-13.223389882659808]]]},"id":"30","properties":{"class":"freshly_cleared"}},{"type":"Feature","geometry":{"type":"Polygon","coordinates":[[[-70.51528767482846,-13.22088819932846],[-70.51592067615597,-13.221324255752219],[-70.51588044302075,-13.221543589227522],[-70.51557735340207,-13.221684589214618],[-70.51497922079174,-13.222029255506552],[-70.51490680114834,-13.222044922144613],[-70.51460907594769,-13.22146525586613],[-70.51528767482846,-13.22088819932846]]]},"id":"31","properties":{"class":"freshly_cleared"}},{"type":"Feature","geometry":{"type":"Polygon","coordinates":[[[-70.51592950194046,-13.218066586348773],[-70.51639888851807,-13.2180691974976],[-70.51643643944428,-13.218588815559876],[-70.51654372780487,-13.21893087508715],[-70.51654104559586,-13.219361712740447],[-70.51621649830506,-13.219570603449933],[-70.51593218414948,-13.219432213374901],[-70.51588658659622,-13.219095376826408],[-70.51562909453081,-13.219064043170336],[-70.51529918282196,-13.218706316978293],[-70.51552717058823,-13.218562704125869],[-70.51598046391175,-13.21853398154525],[-70.51592950194046,-13.218066586348773]]]},"id":"32","properties":{"class":"freshly_cleared"}}]}