{"type":"FeatureCollection","features":[{"type":"Feature","geometry":{"type":"Polygon","coordinates":[[[-73.91669623597008,-8.384210891896723],[-73.91644410832268,-8.384354183194736],[-73.91598813279015,-8.384587694826491],[-73.91553215725762,-8.384683222271772],[-73.9150439952169,-8.384561159420846],[-73.91452901108605,-8.384757521379658],[-73.91421251042229,-8.384428482365509],[-73.91387991650444,-8.384375411530696],[-73.91359023793083,-8.384598308988227],[-73.91330055935722,-8.384858355860494],[-73.91294650776726,-8.385288228880087],[-73.91262464268547,-8.385176780365093],[-73.91236715062004,-8.384210891896723],[-73.91214184506279,-8.384115364335361],[-73.91190044625145,-8.38343605655544],[-73.91183070881706,-8.383038024101648],[-73.91188971741539,-8.382852275483762],[-73.9122866843496,-8.382793897328378],[-73.9127372954641,-8.38296903176823],[-73.91322545750481,-8.383032716999521],[-73.91357414467674,-8.383245001028474],[-73.91398720486504,-8.38363772617649],[-73.91452364666802,-8.383919002052195],[-73.91501180870873,-8.383876545329288],[-73.91562871678215,-8.383627111988517],[-73.91632609112602,-8.383520970092844],[-73.91685716851097,-8.38371202548419],[-73.91669623597008,-8.384210891896723]]]},"id":"0","properties":{"class":"active_disturbance"}},{"type":"Feature","geometry":{"type":"Polygon","coordinates":[[[-74.93766318242773,-9.329727261821995],[-74.93728767316564,-9.330542453108432],[-74.93681560437902,-9.33158525996298],[-74.93667612951025,-9.331998147094295],[-74.93610750119909,-9.331728182486849],[-74.93567834775672,-9.331415870229215],[-74.9353886691831,-9.33126765414466],[-74.93609677236303,-9.330701256384023],[-74.936450823953,-9.330267193926108],[-74.93666003625616,-9.330193085647585],[-74.93716429155096,-9.330230139788812],[-74.93725548665746,-9.330092510101545],[-74.9369389859937,-9.329827837473374],[-74.93733595292791,-9.32972196836586],[-74.93761490266546,-9.32963727305671],[-74.93766318242773,-9.329727261821995]]]},"id":"1","properties":{"class":"active_disturbance"}},{"type":"Feature","geometry":{"type":"Polygon","coordinates":[[[-74.88894412321932,-9.344391217964672],[-74.88938400549776,-9.344216541220293],[-74.88946983618624,-9.343872480709933],[-74.88989362521059,-9.343639578017664],[-74.89007065100557,-9.343247877683917],[-74.89069828791506,-9.343046734098078],[-74.89115962786562,-9.342845590396053],[-74.89135274691469,-9.342459182431993],[-74.89142248434908,-9.342062187501856],[-74.89164778990633,-9.341866336502969],[-74.89199111266024,-9.341564619883762],[-74.89213058752902,-9.341453461063434],[-74.89254901213533,-9.341808110509087],[-74.89265630049593,-9.342083360576225],[-74.89212522311098,-9.342326850838889],[-74.8917336205948,-9.342739725243062],[-74.89143321318514,-9.34297792179203],[-74.89109525484926,-9.343210824926828],[-74.89078411860353,-9.34332727643583],[-74.89027986330873,-9.343496660379381],[-74.89004382891542,-9.343713683436652],[-74.88967368407137,-9.344068330580589],[-74.88950202269442,-9.34434357886126],[-74.88929281039125,-9.344433563828902],[-74.8892284373749,-9.344523548773275],[-74.88894412321932,-9.344391217964672]]]},"id":"2","properties":{"class":"active_disturbance"}},{"type":"Feature","geometry":{"type":"Polygon","coordinates":[[[-74.9139920579199,-9.446799011914242],[-74.9140993462805,-9.447211761777924],[-74.91334832775632,-9.447582177901024],[-74.91319812405149,-9.448005510125181],[-74.91335905659238,-9.448608757645278],[-74.91304792034666,-9.449317836712217],[-74.91274751293699,-9.449010922071468],[-74.9125329362158,-9.448407675256018],[-74.91223252880613,-9.448174842869104],[-74.91144932377378,-9.448174842869104],[-74.9114171372656,-9.448502924823474],[-74.91104162800352,-9.448799256642562],[-74.91044081318418,-9.448862756284901],[-74.91039789783994,-9.448492341539499],[-74.9106232033972,-9.447688011005853],[-74.91000093090574,-9.447730344238673],[-74.90923918354551,-9.447910260420132],[-74.90882075893919,-9.446545011752214],[-74.90928209888975,-9.446513261718787],[-74.9094537602667,-9.447063595217118],[-74.91024769413511,-9.447307011676205],[-74.91111672985593,-9.447275261713035],[-74.91209305393735,-9.447275261713035],[-74.91308010685484,-9.447381094912215],[-74.9139920579199,-9.446883678593275],[-74.9139920579199,-9.446799011914242]]]},"id":"3","properties":{"class":"active_disturbance"}},{"type":"Feature","geometry":{"type":"Polygon","coordinates":[[[-74.91795547440404,-9.453246301949859],[-74.9182183308875,-9.453505588732238],[-74.91815395787116,-9.45400299548211],[-74.91782672837132,-9.454272864800828],[-74.91822905972356,-9.45460094094244],[-74.91811640694493,-9.454886684423796],[-74.91779990628118,-9.455267675363087],[-74.91786427929753,-9.45538938071313],[-74.91822369530553,-9.455257092287136],[-74.9183631701743,-9.455431712998692],[-74.9180198474204,-9.455897367796169],[-74.91772480442876,-9.455992615290734],[-74.91716690495367,-9.455717455790047],[-74.91693623497838,-9.455272966900957],[-74.9167967601096,-9.454897267511136],[-74.9172098202979,-9.454421028258363],[-74.91752095654363,-9.45411940972399],[-74.91744585469121,-9.453706668143225],[-74.91795547440404,-9.453246301949859]]]},"id":"4","properties":{"class":"active_disturbance"}},{"type":"Feature","geometry":{"type":"Polygon","coordinates":[[[-74.91898857143285,-9.616723519051389],[-74.91807662036778,-9.616786987448291],[-74.91711102512242,-9.616543691862123],[-74.91652093913915,-9.61651195764234],[-74.91649948146703,-9.615993631630777],[-74.91745434787633,-9.615528195351565],[-74.91718612697484,-9.615464726718415],[-74.9160810568607,-9.615200273952055],[-74.91571627643468,-9.61563397638036],[-74.91448246028783,-9.616046522076513],[-74.91380654361608,-9.61549646103648],[-74.91402112033727,-9.614533852063717],[-74.91516910579564,-9.613962632257177],[-74.91607032802465,-9.614068413775614],[-74.91899930026891,-9.61445980510617],[-74.91898857143285,-9.616723519051389]]]},"id":"5","properties":{"class":"active_disturbance"}},{"type":"Feature","geometry":{"type":"Polygon","coordinates":[[[-74.90913946991098,-9.615287550787178],[-74.91046984558236,-9.615615472102073],[-74.91022308235299,-9.61732912025242],[-74.90879614715706,-9.61718102754519],[-74.908785418321,-9.617900334372658],[-74.90877468948494,-9.618725419731538],[-74.90741212730538,-9.618471547527879],[-74.90754087333809,-9.6177416638805],[-74.90720827942025,-9.617392588535646],[-74.90740139846932,-9.616800217428818],[-74.9082811630262,-9.616652124489969],[-74.90864594345223,-9.616207845284276],[-74.90880687599312,-9.615425066216007],[-74.90913946991098,-9.615287550787178]]]},"id":"6","properties":{"class":"active_disturbance"}},{"type":"Feature","geometry":{"type":"Polygon","coordinates":[[[-74.90587790374887,-9.620343799694833],[-74.9064250743879,-9.620936164592697],[-74.90697224502694,-9.621316970050257],[-74.9072190082563,-9.621962222762816],[-74.90669329528939,-9.62203626807726],[-74.90613539581429,-9.622692097297056],[-74.9054702079786,-9.622660363654427],[-74.90482647781502,-9.621782398360182],[-74.90418274765145,-9.62212089127391],[-74.90390379791391,-9.621718930901118],[-74.90415056114327,-9.62067171610585],[-74.90477283363472,-9.62058709254636],[-74.90468700294625,-9.619941837208652],[-74.90540583496224,-9.61984663549718],[-74.90587790374887,-9.620343799694833]]]},"id":"7","properties":{"class":"active_disturbance"}},{"type":"Feature","geometry":{"type":"Polygon","coordinates":[[[-74.90276281514845,-9.623341485622271],[-74.90245167890272,-9.6242194468659],[-74.90150754132948,-9.625287806265996],[-74.9004132000514,-9.62509740582822],[-74.90025226751051,-9.624494470400688],[-74.90081016698561,-9.624314647345582],[-74.90065996328077,-9.623870378210885],[-74.90099255719862,-9.623077039017534],[-74.90088526883802,-9.622833747958392],[-74.900520488412,-9.623172239819088],[-74.89988748708448,-9.6236482434245],[-74.89955489316664,-9.6232462848684],[-74.8995119778224,-9.623087616885698],[-74.89921157041273,-9.622939526701288],[-74.89919011274061,-9.622452944209856],[-74.89949052015028,-9.622283697961663],[-74.89931885877333,-9.62182884824966],[-74.89950124898634,-9.621511510878754],[-74.89931885877333,-9.620749899972955],[-74.8996729103633,-9.620496029289667],[-74.90040247121534,-9.62080278967463],[-74.90115348973951,-9.621490355043438],[-74.9010247437068,-9.621003770465563],[-74.90081016698561,-9.62059123081824],[-74.9010783878871,-9.62059123081824],[-74.90122859159193,-9.6210460821958],[-74.90144316831312,-9.62090856905319],[-74.90176503339491,-9.620453717490577],[-74.90193669477186,-9.620496029289667],[-74.90157191434584,-9.621194173209892],[-74.90157191434584,-9.621543244629255],[-74.90276281514845,-9.623341485622271]]]},"id":"8","properties":{"class":"active_disturbance"}},{"type":"Feature","geometry":{"type":"Polygon","coordinates":[[[-74.89981830928944,-9.613313562995693],[-74.8999363264861,-9.614159815840743],[-74.90022600505971,-9.615196472690524],[-74.9003332934203,-9.616370641407144],[-74.90050495479726,-9.617682320557757],[-74.90022600505971,-9.619332490326018],[-74.8992711386504,-9.619057462590634],[-74.89959300373219,-9.61758711821001],[-74.89941061351918,-9.616603359047081],[-74.89922822330617,-9.615101269642942],[-74.8988205275359,-9.615185894575449],[-74.89810169551991,-9.61335587568821],[-74.89784420345448,-9.61335587568821],[-74.8978656611266,-9.613747267843257],[-74.89733994815968,-9.61387420574222],[-74.89711464260243,-9.61351454823808],[-74.89828408573293,-9.61294332671025],[-74.89900291774892,-9.612499042632866],[-74.89981830928944,-9.613313562995693]]]},"id":"9","properties":{"class":"active_disturbance"}},{"type":"Feature","geometry":{"type":"Polygon","coordinates":[[[-74.8985573968206,-9.6116502399814],[-74.89755961506707,-9.61157619239267],[-74.89704463093621,-9.610105815489177],[-74.89663693516594,-9.608995094887138],[-74.8962506970678,-9.608360395763524],[-74.89583227246148,-9.608191142462868],[-74.89598247616631,-9.607693960402734],[-74.89654037564141,-9.607662225352826],[-74.8965940198217,-9.607239091069689],[-74.89691588490349,-9.606942896756777],[-74.8970982751165,-9.606636123802335],[-74.89767763226372,-9.606403399306606],[-74.89824626057488,-9.60651976157447],[-74.89848229496819,-9.606657280566727],[-74.89794585316521,-9.608286347454902],[-74.8981067857061,-9.609439383565412],[-74.89827844708306,-9.610391428769018],[-74.8985573968206,-9.6116502399814]]]},"id":"10","properties":{"class":"active_disturbance"}},{"type":"Feature","geometry":{"type":"Polygon","coordinates":[[[-74.89728977763704,-9.604878513879791],[-74.89581992709688,-9.60544974902033],[-74.89354541385225,-9.605851728726646],[-74.89293387019686,-9.606655686707358],[-74.89001562678867,-9.604815043249125],[-74.8884384878879,-9.6045611606075],[-74.88851358974031,-9.603566785094838],[-74.88905003154329,-9.603122488709205],[-74.89011218631319,-9.602223315668933],[-74.89068081462436,-9.602307943821565],[-74.8909061201816,-9.603249430593147],[-74.89268710696749,-9.604180336288103],[-74.8944895514255,-9.60190595990826],[-74.8956804522281,-9.602657034727583],[-74.8969035395389,-9.602783976786029],[-74.89728977763704,-9.604878513879791]]]},"id":"11","properties":{"class":"active_disturbance"}},{"type":"Feature","geometry":{"type":"Polygon","coordinates":[[[-74.88956046783862,-9.602117557520904],[-74.88850904190478,-9.60340813495356],[-74.88684607231555,-9.60355623368861],[-74.88580537521777,-9.601810780194576],[-74.88546205246386,-9.600879867986228],[-74.88458228790698,-9.60072118951367],[-74.88487196648059,-9.59976911711735],[-74.8839385577434,-9.599398866018376],[-74.8846573897594,-9.598182323844156],[-74.88664222443042,-9.59875357027868],[-74.88743615829883,-9.599927796035898],[-74.88801551544604,-9.601038546384446],[-74.88862705910144,-9.601080860611415],[-74.88935661995349,-9.60152515967546],[-74.88956046783862,-9.602117557520904]]]},"id":"12","properties":{"class":"active_disturbance"}},{"type":"Feature","geometry":{"type":"Polygon","coordinates":[[[-74.88254380905566,-9.59802364410808],[-74.88238287651477,-9.598192902490585],[-74.88211465561328,-9.597949593539155],[-74.88083792412219,-9.59741008176275],[-74.88037658417163,-9.597611076446523],[-74.87984014236865,-9.597378345749146],[-74.87999034607348,-9.596775360926022],[-74.88288713180957,-9.597674548427142],[-74.88254380905566,-9.59802364410808]]]},"id":"13","properties":{"class":"active_disturbance"}},{"type":"Feature","geometry":{"type":"Polygon","coordinates":[[[-74.87448526062839,-9.594098457999934],[-74.87441015877597,-9.59472260509569],[-74.87422776856296,-9.596298835865031],[-74.87369132675998,-9.597748115405016],[-74.87228584923618,-9.598245312067306],[-74.87139535584323,-9.597748115405016],[-74.8701615396964,-9.593622412832307],[-74.87118077912204,-9.592987684902202],[-74.87203908600681,-9.59303000013451],[-74.87240386643283,-9.594077300451113],[-74.872253662728,-9.59602378941315],[-74.873154884957,-9.59602378941315],[-74.87321925797336,-9.594246560804622],[-74.87263990082614,-9.594087879225683],[-74.8725969854819,-9.593442573372766],[-74.87448526062839,-9.594098457999934]]]},"id":"14","properties":{"class":"active_disturbance"}},{"type":"Feature","geometry":{"type":"Polygon","coordinates":[[[-74.86937032099482,-9.585516722373516],[-74.87255678530451,-9.585865830572747],[-74.87193451281306,-9.587748892846216],[-74.87202034350153,-9.588775051594746],[-74.87183795328852,-9.591007200624022],[-74.86806140299555,-9.589504997680754],[-74.86882315035578,-9.588256683130426],[-74.86903772707697,-9.587251680789647],[-74.87008915301081,-9.587452681496018],[-74.87014279719111,-9.586913153014967],[-74.8691879307818,-9.586193780372053],[-74.86825452204462,-9.585569617578303],[-74.86937032099482,-9.585516722373516]]]},"id":"15","properties":{"class":"active_disturbance"}},{"type":"Feature","geometry":{"type":"Polygon","coordinates":[[[-74.86948699132813,-9.581586991794696],[-74.86895054952515,-9.582697802227685],[-74.86951917783631,-9.583057492445809],[-74.86995906011475,-9.583364286742356],[-74.86942261831177,-9.584591461154833],[-74.86814588682068,-9.583850925402446],[-74.86788839475525,-9.582793014381352],[-74.86727685109986,-9.582740118743729],[-74.86696571485413,-9.582888226508302],[-74.8666545786084,-9.584792463437317],[-74.86640781537903,-9.586760163703355],[-74.86574262754334,-9.58634758233512],[-74.86557096616639,-9.5855329971348],[-74.86372560636414,-9.585374311478544],[-74.8648521341504,-9.584570303012901],[-74.8655924238385,-9.584147139897334],[-74.86533493177308,-9.583195020957872],[-74.86571044103516,-9.582549694380026],[-74.86577481405152,-9.581661045936666],[-74.8663649000348,-9.581735100062481],[-74.86607522146119,-9.584527986725096],[-74.86563533918275,-9.584771305307934],[-74.86590356008423,-9.585226204799088],[-74.86635417119874,-9.584633777434727],[-74.86666530744446,-9.583131546266923],[-74.86664384977234,-9.582338111628358],[-74.86683696882142,-9.581470620967526],[-74.86704081670655,-9.580645444866738],[-74.86734122411622,-9.581301354238597],[-74.8677703775586,-9.58102629562406],[-74.8681673444928,-9.581290775065236],[-74.86948699132813,-9.581586991794696]]]},"id":"16","properties":{"class":"active_disturbance"}},{"type":"Feature","geometry":{"type":"Polygon","coordinates":[[[-74.8543772175344,-9.581449256392343],[-74.8539266064199,-9.582147480800844],[-74.85385150456749,-9.582835124647684],[-74.85370130086265,-9.583797823692459],[-74.85289663815819,-9.584210408161313],[-74.85253185773216,-9.585141366145365],[-74.85131949925743,-9.585046154650623],[-74.84903425717674,-9.585723213588254],[-74.85120148206077,-9.58133288551795],[-74.85197395825706,-9.580370179481372],[-74.85283226514183,-9.58119535625133],[-74.85394806409202,-9.580423075488335],[-74.8543772175344,-9.581449256392343]]]},"id":"17","properties":{"class":"active_disturbance"}},{"type":"Feature","geometry":{"type":"Polygon","coordinates":[[[-74.83267783202825,-9.586677811723309],[-74.83289240874944,-9.587915553117659],[-74.83314990081487,-9.588486816853253],[-74.8316585926026,-9.588328132578768],[-74.83102559127508,-9.589089816419202],[-74.83016728439031,-9.5881377113514],[-74.83011364021002,-9.587069234703831],[-74.83087538757025,-9.58608538689372],[-74.8325061706513,-9.585937280524675],[-74.83267783202825,-9.586677811723309]]]},"id":"18","properties":{"class":"active_disturbance"}},{"type":"Feature","geometry":{"type":"Polygon","coordinates":[[[-74.83542925980277,-9.588185828097359],[-74.83419544365591,-9.588175249138649],[-74.83281142380423,-9.585593973351706],[-74.83302600052542,-9.583594529018635],[-74.83344442513174,-9.582198084719245],[-74.83400232460686,-9.581891289368466],[-74.83578331139273,-9.581997080900065],[-74.83585841324515,-9.582504879792687],[-74.83465678360648,-9.583203102029467],[-74.834570952918,-9.584525488692424],[-74.8352361407537,-9.585022704744535],[-74.83583695557303,-9.58587960729458],[-74.8369312968511,-9.585509341026148],[-74.83726389076895,-9.58461012126338],[-74.8378861632604,-9.584261011772105],[-74.83863718178458,-9.583985955556289],[-74.83835823204703,-9.585805554073227],[-74.83763940003104,-9.586091187837967],[-74.83708150055594,-9.586979824679194],[-74.83612663414664,-9.587455879172275],[-74.83542925980277,-9.588185828097359]]]},"id":"19","properties":{"class":"active_disturbance"}},{"type":"Feature","geometry":{"type":"Polygon","coordinates":[[[-74.83864513841748,-9.575308244103843],[-74.83970729318737,-9.57579489431195],[-74.8396590134251,-9.576720585717831],[-74.83945516553997,-9.57745584737927],[-74.83832327333569,-9.577471716318446],[-74.83802823034405,-9.576963909897145],[-74.83806578127026,-9.576080536500655],[-74.83785120454907,-9.57557801767491],[-74.83864513841748,-9.575308244103843]]]},"id":"20","properties":{"class":"active_disturbance"}},{"type":"Feature","geometry":{"type":"Polygon","coordinates":[[[-74.8357513463392,-9.57614401250997],[-74.83639507650277,-9.577350054432516],[-74.83631997465035,-9.579021579137406],[-74.83511834501168,-9.580841204270635],[-74.83395963071725,-9.581327846548504],[-74.83343391775033,-9.580121818755812],[-74.83303695081612,-9.578630146874763],[-74.83231811880013,-9.579021579137406],[-74.83304767965218,-9.579836179966803],[-74.83135252355477,-9.580058343490148],[-74.8309984719648,-9.579243743193814],[-74.83228593229195,-9.578122342185923],[-74.83373432516,-9.577551061003179],[-74.83338027357003,-9.576672978792791],[-74.83338027357003,-9.575689100847772],[-74.83475356458565,-9.575551569295072],[-74.8357513463392,-9.57614401250997]]]},"id":"21","properties":{"class":"active_disturbance"}},{"type":"Feature","geometry":{"type":"Polygon","coordinates":[[[-74.83431200592658,-9.575339982182149],[-74.83263830750128,-9.574758116941974],[-74.83113627045294,-9.574631164393475],[-74.83041743843695,-9.573181786101745],[-74.82998828499457,-9.571774719508916],[-74.83157615273139,-9.571732401626381],[-74.83244518845221,-9.572705711591047],[-74.83431200592658,-9.575265926661483],[-74.83431200592658,-9.575339982182149]]]},"id":"22","properties":{"class":"active_disturbance"}},{"type":"Feature","geometry":{"type":"Polygon","coordinates":[[[-74.82890467255255,-9.573803375506504],[-74.8293981990113,-9.574205392727045],[-74.82933382599494,-9.576215471692455],[-74.83063201515814,-9.576860810311139],[-74.82985953896186,-9.578162063140498],[-74.82766012756964,-9.577379196182193],[-74.82730607597968,-9.575972146976884],[-74.82850770561835,-9.573940907767083],[-74.82890467255255,-9.573803375506504]]]},"id":"23","properties":{"class":"active_disturbance"}},{"type":"Feature","geometry":{"type":"Polygon","coordinates":[[[-74.82684803437064,-9.576289527006065],[-74.82611847351859,-9.577262823912681],[-74.8250026745684,-9.576956024101888],[-74.82486319969962,-9.576183733695961],[-74.8245520634539,-9.576289527006065],[-74.82438040207694,-9.576807913749198],[-74.8237259430773,-9.576469375557618],[-74.82375812958549,-9.57615199569651],[-74.82283544968436,-9.576046202343559],[-74.82276034783195,-9.575654766651098],[-74.8222668213732,-9.575654766651096],[-74.82127976845572,-9.576046202343559],[-74.82129049729178,-9.57558071119908],[-74.82206297348807,-9.575485497022747],[-74.82243848275016,-9.575157536877745],[-74.82297492455315,-9.575115219416606],[-74.82374740074943,-9.575929829617243],[-74.82395124863456,-9.575845194882165],[-74.82453060578177,-9.576109678359286],[-74.82483101319144,-9.576014464331244],[-74.825109962929,-9.576088519688694],[-74.82576442192862,-9.575686504697025],[-74.82684803437064,-9.576289527006065]]]},"id":"24","properties":{"class":"active_disturbance"}},{"type":"Feature","geometry":{"type":"Polygon","coordinates":[[[-74.81909382145317,-9.577201655759465],[-74.81666910450369,-9.576916014513758],[-74.81641161243826,-9.576344731301539],[-74.81558549206167,-9.576270675999975],[-74.81548893253714,-9.575836923195029],[-74.81463062565237,-9.575657074308564],[-74.81457698147207,-9.575413749192919],[-74.81487738888174,-9.575149265173868],[-74.81606828968435,-9.57536085240559],[-74.81807458202749,-9.57521274135721],[-74.81943714420706,-9.576429365912146],[-74.81909382145317,-9.577201655759465]]]},"id":"25","properties":{"class":"active_disturbance"}},{"type":"Feature","geometry":{"type":"Polygon","coordinates":[[[-70.24348094380426,-13.226462071191369],[-70.242354416018,-13.226524736598247],[-70.24219348347711,-13.225950303098967],[-70.24161412632989,-13.225710085052436],[-70.24152829564142,-13.226336740329296],[-70.24069144642877,-13.226305407603718],[-70.2401013604455,-13.226817174950648],[-70.23955418980646,-13.22729760862512],[-70.23852422154474,-13.227986924851937],[-70.23706509984063,-13.22801825736138],[-70.23584201252984,-13.227872038949505],[-70.23600294507074,-13.227245387619416],[-70.23688270962762,-13.22734982961964],[-70.23845984852838,-13.22723494341693],[-70.23950054562616,-13.226984282423077],[-70.23998334324884,-13.226430738481897],[-70.24071290410089,-13.225804083446663],[-70.24175360119867,-13.225407201091192],[-70.24254753506709,-13.226054745654062],[-70.24385645306634,-13.225856304761123],[-70.24348094380426,-13.226462071191369]]]},"id":"26","properties":{"class":"active_disturbance"}},{"type":"Feature","geometry":{"type":"Polygon","coordinates":[[[-70.72708139223478,-13.164433418360751],[-70.72719940943144,-13.164584898178862],[-70.72706529898069,-13.16504978393229],[-70.72595486444852,-13.165133358805639],[-70.72559544844053,-13.16474682477738],[-70.72555789751432,-13.16446475902047],[-70.72547743124387,-13.16403121287196],[-70.7257510165634,-13.164052106679852],[-70.72619089884184,-13.163994648703873],[-70.72664687437437,-13.163958084530327],[-70.72708139223478,-13.164433418360751]]]},"id":"27","properties":{"class":"active_disturbance"}},{"type":"Feature","geometry":{"type":"Polygon","coordinates":[[[-70.72800711343453,-13.165993090222939],[-70.72848454663918,-13.16663556885449],[-70.72823241899178,-13.16707433378073],[-70.72755650232003,-13.166839281239433],[-70.72750285813973,-13.167137014420302],[-70.72767451951668,-13.167863063992996],[-70.7269395942466,-13.16769591608065],[-70.726832305886,-13.16697508940191],[-70.72674647519753,-13.166437079701064],[-70.7263977880256,-13.16624381379186],[-70.72592035482094,-13.16587295175522],[-70.72585061738656,-13.165590887295048],[-70.72600618550942,-13.165157343139658],[-70.72700933168099,-13.165068544844473],[-70.72800711343453,-13.165993090222939]]]},"id":"28","properties":{"class":"active_disturbance"}},{"type":"Feature","geometry":{"type":"Polygon","coordinates":[[[-70.76058336630389,-13.161571666644729],[-70.75932809248492,-13.161947758689692],[-70.75922080412433,-13.162334297134342],[-70.75810500517413,-13.162313403179938],[-70.75732180014178,-13.161979099667386],[-70.75706430807635,-13.161059762655919],[-70.75747200384662,-13.160965739358046],[-70.75905987158343,-13.160965739358046],[-70.7604760779433,-13.160537410544515],[-70.76058336630389,-13.161571666644729]]]},"id":"29","properties":{"class":"active_disturbance"}},{"type":"Feature","geometry":{"type":"Polygon","coordinates":[[[-70.7774168484447,-13.157435133659293],[-70.7774168484447,-13.157753772613274],[-70.77722909381366,-13.158025398935498],[-70.77679994037129,-13.158098529047734],[-70.77631177833057,-13.158135094095666],[-70.77588798930621,-13.15799405745213],[-70.77558221747852,-13.157638853694024],[-70.7759577267406,-13.157226189858026],[-70.77684822013354,-13.156844866961587],[-70.7774168484447,-13.157435133659293]]]},"id":"30","properties":{"class":"active_disturbance"}},{"type":"Feature","geometry":{"type":"Polygon","coordinates":[[[-70.78651936146623,-13.158118781414],[-70.78511924836046,-13.157915061778187],[-70.7845506200493,-13.158124004992182],[-70.7837942371071,-13.15815012288141],[-70.7830003032387,-13.157695671211783],[-70.78304858300096,-13.157549410725077],[-70.78373522850877,-13.15772701273329],[-70.78437895867235,-13.157977744761086],[-70.7844433316887,-13.157387479370133],[-70.78474373909837,-13.157141970337605],[-70.78540356251604,-13.15710540514151],[-70.78575224968797,-13.157058392738511],[-70.78619213196642,-13.15731957264105],[-70.78650863263017,-13.157157641134258],[-70.78654081913835,-13.156959144302572],[-70.78632087799913,-13.156624833485848],[-70.7852533588112,-13.156515137649745],[-70.78509242627031,-13.15638977091982],[-70.78624577614671,-13.156499466812019],[-70.78665347191698,-13.156405441764573],[-70.78685731980211,-13.156833777799728],[-70.78706653210527,-13.156969591508245],[-70.78684659096605,-13.157397926557543],[-70.78651936146623,-13.158118781414]]]},"id":"31","properties":{"class":"active_disturbance"}},{"type":"Feature","geometry":{"type":"Polygon","coordinates":[[[-70.79053805680408,-13.157530830711595],[-70.78933642716541,-13.158324815221883],[-70.78900383324756,-13.157990506267907],[-70.78869269700184,-13.157875587459646],[-70.78867123932972,-13.157353228561224],[-70.7884888491167,-13.157384570126537],[-70.78770564408435,-13.157771115769034],[-70.78755544037952,-13.157536054302309],[-70.7871370157732,-13.157118166693735],[-70.78721211762561,-13.156851762971392],[-70.78738377900257,-13.156924893433812],[-70.78757689805164,-13.157368899344373],[-70.78804896683826,-13.157186073478615],[-70.7881455263628,-13.157055483491007],[-70.7886497816576,-13.157133837491925],[-70.78884290070667,-13.157280098226611],[-70.78881071419849,-13.15770320914625],[-70.78916476578846,-13.15803751849211],[-70.78961001248493,-13.15791215254085],[-70.7896582922472,-13.157452476837596],[-70.79002307267322,-13.157264427437774],[-70.79053805680408,-13.157530830711595]]]},"id":"32","properties":{"class":"active_disturbance"}},{"type":"Feature","geometry":{"type":"MultiPolygon","coordinates":[[[[-70.81537762133809,-13.109857106462579],[-70.81534212747275,-13.109852625305761],[-70.81539040723501,-13.109847400700621],[-70.81537762133809,-13.109857106462579]]],[[[-70.81537762133809,-13.109857106462579],[-70.81563180604635,-13.109889197538621],[-70.81524020353018,-13.110610191876448],[-70.8145589224404,-13.11078260325287],[-70.81373816648184,-13.11066766234867],[-70.81243997731863,-13.11033328850387],[-70.81222540059744,-13.109941443576142],[-70.81211274781882,-13.109565271858365],[-70.81231123128592,-13.109293591926711],[-70.81253117242514,-13.10923612113349],[-70.81269746938406,-13.109753357789145],[-70.81303542771994,-13.109601844133941],[-70.81367915788351,-13.109612293354534],[-70.8145052782601,-13.109930994369536],[-70.81502562680899,-13.110124304620085],[-70.81537762133809,-13.109857106462579]]]]},"id":"33","properties":{"class":"active_disturbance"}},{"type":"Feature","geometry":{"type":"Polygon","coordinates":[[[-70.8155901996794,-13.10519326791962],[-70.81482308790115,-13.105773209381832],[-70.81449585840133,-13.105882927883103],[-70.81435638353256,-13.10542315478885],[-70.81443148538497,-13.104686471108497],[-70.81443148538497,-13.104085628176325],[-70.8146514265242,-13.10362062698722],[-70.81502157136826,-13.103667649619293],[-70.81531661435989,-13.103902762644964],[-70.81556337758926,-13.103902762644966],[-70.81586914941695,-13.103312367287774],[-70.8161105482283,-13.103390738434399],[-70.81628757402328,-13.10386618952239],[-70.81598716661361,-13.104404336349099],[-70.81553655549911,-13.104435684671675],[-70.81514495298293,-13.10442523523126],[-70.81476944372085,-13.10483276307865],[-70.81460314676193,-13.105308211381072],[-70.81489282533553,-13.105344784289379],[-70.815155681819,-13.104921583160953],[-70.81545608922866,-13.104676021678744],[-70.8155901996794,-13.10519326791962]]]},"id":"34","properties":{"class":"active_disturbance"}},{"type":"Feature","geometry":{"type":"Polygon","coordinates":[[[-70.82165409450958,-13.099273311956575],[-70.82146097546051,-13.099466630578107],[-70.82095135574768,-13.100004787022419],[-70.82081724529694,-13.100642213522116],[-70.81994820957611,-13.100720585518804],[-70.81951905613373,-13.100391422965053],[-70.81901480083893,-13.099304660932553],[-70.81908453827332,-13.098938922631303],[-70.8192615640683,-13.098604532851912],[-70.81959415798615,-13.098291042021323],[-70.8200179470105,-13.098055923636469],[-70.82055438881348,-13.098489586260362],[-70.8208118808789,-13.098244018362312],[-70.82102109318207,-13.098311941422443],[-70.82164873009155,-13.09834851537014],[-70.82165409450958,-13.099273311956575]]]},"id":"35","properties":{"class":"active_disturbance"}},{"type":"Feature","geometry":{"type":"Polygon","coordinates":[[[-70.82356210151937,-13.097458517412889],[-70.8233689824703,-13.098169098458293],[-70.82177575031545,-13.099229741351234],[-70.82166309753683,-13.098430340974202],[-70.82156117359426,-13.097813808191901],[-70.82189913193015,-13.09723384797926],[-70.82251067558553,-13.097082326617599],[-70.822955922282,-13.096784508497112],[-70.82312221924093,-13.0963456179789],[-70.82371230522422,-13.096392642000403],[-70.82356210151937,-13.097458517412889]]]},"id":"36","properties":{"class":"active_disturbance"}},{"type":"Feature","geometry":{"type":"Polygon","coordinates":[[[-70.85516725021947,-13.091405226449472],[-70.85628841358769,-13.091697826083488],[-70.85670683819401,-13.091854575744481],[-70.85718427139867,-13.091603776239015],[-70.8574954076444,-13.09210537499464],[-70.85838590103734,-13.092126274920616],[-70.85854683357823,-13.092382298870099],[-70.85813377338994,-13.092622647641756],[-70.857785086218,-13.092737596971395],[-70.8573344751035,-13.092622647641756],[-70.85681412655461,-13.092606972729012],[-70.85638497311223,-13.092523373177535],[-70.85615966755498,-13.092251674439323],[-70.85570369202244,-13.092215099586289],[-70.85577879387486,-13.092533823123013],[-70.85562859017003,-13.093014520136192],[-70.85530136067021,-13.092768946779252],[-70.85513506371129,-13.09219419966784],[-70.85495267349827,-13.092162849786833],[-70.85405145126927,-13.092361398965824],[-70.85413191753972,-13.091880700678288],[-70.85457716423619,-13.091143976482604],[-70.85516725021947,-13.091405226449472]]]},"id":"37","properties":{"class":"active_disturbance"}},{"type":"Feature","geometry":{"type":"Polygon","coordinates":[[[-69.34773048834211,-14.046064902052024],[-69.34740862326032,-14.046658160341018],[-69.34622845129377,-14.047615696793349],[-69.34493026213056,-14.046793464647841],[-69.3450804658354,-14.046158574515617],[-69.34602460340864,-14.044597361787126],[-69.34694728330976,-14.044410015544555],[-69.34773048834211,-14.046064902052024]]]},"id":"38","properties":{"class":"active_disturbance"}},{"type":"Feature","geometry":{"type":"Polygon","coordinates":[[[-69.35277389798718,-14.039372383610598],[-69.35241984639721,-14.040017700880565],[-69.35176538739758,-14.04094404023609],[-69.34968399320202,-14.040798324181221],[-69.34938358579235,-14.040069742516684],[-69.34935139928417,-14.039257891647058],[-69.34946941648083,-14.03875828968214],[-69.35161518369274,-14.037571730649802],[-69.35277389798718,-14.039372383610598]]]},"id":"39","properties":{"class":"active_disturbance"}},{"type":"Feature","geometry":{"type":"Polygon","coordinates":[[[-69.47320534356834,-13.949281477155457],[-69.47353793748619,-13.949510550661943],[-69.4737203276992,-13.949802098432103],[-69.4734682000518,-13.950202976014355],[-69.47337700494529,-13.950255037986905],[-69.47278155454399,-13.950161326427853],[-69.47296930917503,-13.949567819003011],[-69.47270645269157,-13.949031578525284],[-69.4724060452819,-13.948563017864034],[-69.47295321592094,-13.948490130564522],[-69.47298540242912,-13.949208590082952],[-69.47320534356834,-13.949281477155457]]]},"id":"40","properties":{"class":"active_disturbance"}},{"type":"Feature","geometry":{"type":"Polygon","coordinates":[[[-69.40391945937553,-13.998175699214851],[-69.40420913794914,-13.998821132346176],[-69.40422523120323,-13.999716407559639],[-69.40387654403129,-13.999971456255384],[-69.40361368754783,-13.999940225818058],[-69.40308261016288,-13.999622716130931],[-69.40250325301567,-13.999461358580836],[-69.40165567496696,-13.9993104110927],[-69.40102267363945,-13.99895125977406],[-69.40060424903314,-13.998576492582286],[-69.40082419017234,-13.997722853919745],[-69.40092074969688,-13.997457392469855],[-69.40136599639335,-13.997504238630349],[-69.40148401359001,-13.998399518973738],[-69.40166640380302,-13.998800311950871],[-69.40228331187645,-13.998935644486606],[-69.40301823714653,-13.998550467060166],[-69.40391945937553,-13.998175699214851]]]},"id":"41","properties":{"class":"active_disturbance"}},{"type":"Feature","geometry":{"type":"Polygon","coordinates":[[[-69.38001143054268,-13.96117036554557],[-69.38045131282112,-13.96116515959531],[-69.38060688094399,-13.961758637167165],[-69.38040303305885,-13.962513496782757],[-69.38040303305885,-13.962747763057248],[-69.38067661837837,-13.963231912603158],[-69.38045667723915,-13.963533854815696],[-69.38032256678841,-13.963487001739681],[-69.38031720237036,-13.962992440911885],[-69.37983976916573,-13.96295079363583],[-69.37923895434639,-13.962685292074005],[-69.37896000460884,-13.96246664349928],[-69.37912093714974,-13.962352113210683],[-69.37983976916573,-13.96239376059494],[-69.38005971030495,-13.962008522003343],[-69.38012408332132,-13.961701371854048],[-69.38001143054268,-13.96117036554557]]]},"id":"42","properties":{"class":"active_disturbance"}},{"type":"Feature","geometry":{"type":"Polygon","coordinates":[[[-73.90650449290496,-8.380938096321183],[-73.90630600943786,-8.381070774567563],[-73.90620408549529,-8.38130428817126],[-73.90591977133971,-8.381373280800062],[-73.90581784739715,-8.381612101343709],[-73.90576420321685,-8.381819079029563],[-73.9060807038806,-8.381750086479856],[-73.90612361922484,-8.381877457331301],[-73.90612361922484,-8.382057899299411],[-73.90601096644622,-8.382217112731173],[-73.90583930506926,-8.382222419844434],[-73.90574810996276,-8.382355097652633],[-73.90566764369231,-8.38253553939911],[-73.90540478720885,-8.38246654697652],[-73.90537260070067,-8.382238341183822],[-73.9052331258319,-8.3820207494893],[-73.90506146445495,-8.381967678325818],[-73.90478787913543,-8.381856228858947],[-73.90439091220122,-8.381845614622339],[-73.904170971062,-8.381797850554028],[-73.90423534407836,-8.381580258613027],[-73.90409586920958,-8.381442273416626],[-73.90398321643096,-8.381559030124464],[-73.90380619063598,-8.38172355088055],[-73.90370963111144,-8.381553723002147],[-73.90374718203765,-8.381256524036452],[-73.90394030108672,-8.381182224259542],[-73.90409050479155,-8.38120875989579],[-73.90423534407836,-8.38118222425954],[-73.90449820056182,-8.381118538725183],[-73.90465376868468,-8.381012396144733],[-73.90495954051238,-8.381160995749251],[-73.90521166815978,-8.381405123547689],[-73.90535114302857,-8.381283059667634],[-73.90558181300383,-8.381160995749251],[-73.9056300927661,-8.381033624663141],[-73.90564082160216,-8.380853182219745],[-73.90586076274138,-8.380842567955757],[-73.9065313149951,-8.380837260823652],[-73.90650449290496,-8.380938096321183]]]},"id":"43","properties":{"class":"active_disturbance"}},{"type":"Feature","geometry":{"type":"Polygon","coordinates":[[[-74.89727763606143,-9.340672810301625],[-74.89748953057361,-9.340847488823414],[-74.89746002627444,-9.340990407548825],[-74.89749757720065,-9.341061866889529],[-74.89735542012286,-9.341151852705135],[-74.89722130967212,-9.341151852705135],[-74.89708988143039,-9.341308004506438],[-74.89693431330753,-9.341400636897863],[-74.8967680163486,-9.341260364981256],[-74.89657757950854,-9.341366230583928],[-74.89647297335696,-9.341464156237741],[-74.89630399418903,-9.341464156237741],[-74.89623693896365,-9.341546202034607],[-74.89603577328754,-9.341546202034609],[-74.89591775609088,-9.341511795735052],[-74.89590970946385,-9.341440336486642],[-74.89595262480807,-9.341397990258455],[-74.89619670582843,-9.34135829066484],[-74.89627985430789,-9.341268304902584],[-74.89650247765613,-9.341178319117066],[-74.89659099055362,-9.34108568666651],[-74.8966768212421,-9.340977174335972],[-74.89678947402072,-9.341030107184356],[-74.89688603354526,-9.340977174335972],[-74.89691017342639,-9.3408607220412],[-74.89695845318866,-9.34081837574253],[-74.89703355504108,-9.340895128405071],[-74.89718912316394,-9.340823669030147],[-74.89726690722537,-9.340691336815652],[-74.89727763606143,-9.340672810301625]]]},"id":"44","properties":{"class":"active_disturbance"}},{"type":"Feature","geometry":{"type":"Polygon","coordinates":[[[-74.90649654943209,-9.336021717002756],[-74.90663065988284,-9.336138170914895],[-74.90657165128451,-9.336318145066219],[-74.9064268119977,-9.336453125618705],[-74.90630343038302,-9.33671514654195],[-74.90623905736666,-9.336887180374305],[-74.90611299354296,-9.337053920776937],[-74.90571602660876,-9.337120087581258],[-74.90554704744082,-9.337207427743733],[-74.90568384010058,-9.337019514033711],[-74.90569725114567,-9.336850126940673],[-74.90577771741611,-9.336664859713364],[-74.90589037019473,-9.336527232566471],[-74.90601375180941,-9.336381665332723],[-74.90618273097735,-9.336310205032085],[-74.90622028190356,-9.336222864644746],[-74.90600570518237,-9.336116997479229],[-74.9060298450635,-9.336061417204455],[-74.90630343038302,-9.336175224424245],[-74.90634634572726,-9.336098470721947],[-74.90634634572726,-9.336005836920812],[-74.90649654943209,-9.336021717002756]]]},"id":"45","properties":{"class":"active_disturbance"}},{"type":"Feature","geometry":{"type":"Polygon","coordinates":[[[-74.88332660707623,-9.594673254778185],[-74.88308520826489,-9.594821357331725],[-74.88268287691265,-9.595181034692311],[-74.88209279092938,-9.595318558288144],[-74.88158853563458,-9.595382030698163],[-74.8814115098396,-9.594757884816707],[-74.88159926447064,-9.594742016686093],[-74.8818996718803,-9.594477547733188],[-74.88218935045391,-9.5943188662624],[-74.88255413087994,-9.59399621370937],[-74.88289745363384,-9.593863978967741],[-74.88355727705151,-9.593885136529874],[-74.88332660707623,-9.594673254778185]]]},"id":"46","properties":{"class":"active_disturbance"}},{"type":"Feature","geometry":{"type":"Polygon","coordinates":[[[-74.88098235639721,-9.594466968970783],[-74.88127203497082,-9.594826646707437],[-74.88128812822492,-9.595313268920103],[-74.88089652570874,-9.595371451963986],[-74.88048346552044,-9.595170455951862],[-74.88051028761059,-9.594805489204086],[-74.88005431207806,-9.594720859177462],[-74.87963588747174,-9.594810778580046],[-74.87946422609478,-9.594958881073493],[-74.87958760770947,-9.595477239290894],[-74.8791262677589,-9.59509640475946],[-74.87902434381634,-9.59472614855474],[-74.87911017450482,-9.594419364535858],[-74.87997384580761,-9.593943319818901],[-74.88023133787304,-9.593541325981736],[-74.88073022874981,-9.593789927489919],[-74.88086970361859,-9.594265972422289],[-74.88098235639721,-9.594466968970783]]]},"id":"47","properties":{"class":"active_disturbance"}},{"type":"Feature","geometry":{"type":"Polygon","coordinates":[[[-74.8801238770239,-9.345048307463438],[-74.88040819117948,-9.345117119360335],[-74.88043769547865,-9.345140938859933],[-74.88037868688032,-9.345686140294172],[-74.88029017398283,-9.345686140294172],[-74.88025530526564,-9.345455885423661],[-74.8799066180937,-9.34539501342095],[-74.87976446101591,-9.345209750738514],[-74.8801238770239,-9.345048307463438]]]},"id":"48","properties":{"class":"active_disturbance"}},{"type":"Feature","geometry":{"type":"Polygon","coordinates":[[[-74.87749368059177,-9.345676621052249],[-74.87749636280078,-9.345798364948566],[-74.87738907444019,-9.345840710641642],[-74.87722277748126,-9.345928048617358],[-74.87712621795673,-9.345975687503962],[-74.8769599209978,-9.346171536191537],[-74.87694650995273,-9.346298573119157],[-74.87693578111667,-9.346383264378483],[-74.8768338571741,-9.3464653090163],[-74.87676948415775,-9.3465870526368],[-74.87672120439548,-9.34670614961564],[-74.87662732707996,-9.346849065936473],[-74.87662732707996,-9.346883471708658],[-74.87669706451435,-9.34685700573036],[-74.8767426620676,-9.346965516228593],[-74.87660855161685,-9.347029034553316],[-74.87653076755544,-9.34701580156995],[-74.876455665703,-9.346933757061873],[-74.87656563627262,-9.346841126142422],[-74.8766890178873,-9.34653412063312],[-74.87663269149799,-9.346438843006224],[-74.87666756021518,-9.34632503913992],[-74.87680167066593,-9.346115957521123],[-74.87693846332569,-9.345983627317768],[-74.87709939586658,-9.345935988432236],[-74.87729519712467,-9.345830124218857],[-74.87740248548526,-9.345732199792797],[-74.87749368059177,-9.345676621052249]]]},"id":"49","properties":{"class":"active_disturbance"}},{"type":"Feature","geometry":{"type":"Polygon","coordinates":[[[-74.87588392972175,-9.347330746437502],[-74.87601267575447,-9.347568939845544],[-74.87615751504127,-9.347743614907841],[-74.87622993468467,-9.347860064900683],[-74.87606900214378,-9.348000334158511],[-74.87602072238151,-9.348212061233065],[-74.87598048924629,-9.348389382558906],[-74.8759456205291,-9.348267639568807],[-74.8759643959922,-9.348114137477097],[-74.87599658250038,-9.347942109190422],[-74.8759107518119,-9.347701269446247],[-74.87575250148002,-9.347500128433296],[-74.87571763276283,-9.347341332814654],[-74.87588392972175,-9.347330746437502]]]},"id":"50","properties":{"class":"active_disturbance"}},{"type":"Feature","geometry":{"type":"Polygon","coordinates":[[[-74.88250587671183,-9.343166544739098],[-74.8826078006544,-9.343235357007858],[-74.88248978345774,-9.343351808508636],[-74.88241468160533,-9.343224770505852],[-74.88250587671183,-9.343166544739098]]]},"id":"51","properties":{"class":"active_disturbance"}},{"type":"Feature","geometry":{"type":"Polygon","coordinates":[[[-74.88303158967875,-9.341732070501836],[-74.88291893690013,-9.34211318600469],[-74.88294039457223,-9.342393729094466],[-74.88291893690013,-9.34266897869878],[-74.88304231851481,-9.342764257357272],[-74.88276873319529,-9.342917761807794],[-74.88252196996592,-9.34303421341479],[-74.8822483846464,-9.342944228085534],[-74.88236103742503,-9.342541940446894],[-74.88262925832652,-9.342224344614468],[-74.8826453515806,-9.342044373514197],[-74.88263998716258,-9.341922628305394],[-74.88283847062968,-9.34192792157623],[-74.88284919946574,-9.341753243596267],[-74.88303158967875,-9.341732070501836]]]},"id":"52","properties":{"class":"active_disturbance"}},{"type":"Feature","geometry":{"type":"Polygon","coordinates":[[[-74.88396499841593,-9.34190674849241],[-74.88408301561259,-9.34192792157623],[-74.88405619352244,-9.342044373514195],[-74.88395426957987,-9.342033786975986],[-74.88388453214549,-9.342081426395378],[-74.8837075063505,-9.342060253320897],[-74.88374505727671,-9.34192792157623],[-74.88394354074381,-9.341954387929182],[-74.88396499841593,-9.34190674849241]]]},"id":"53","properties":{"class":"active_disturbance"}},{"type":"Feature","geometry":{"type":"Polygon","coordinates":[[[-74.90381525631398,-9.340372808653598],[-74.9040727483794,-9.340378101947982],[-74.90412371035069,-9.340423094947008],[-74.90407006617039,-9.340558073909206],[-74.90407811279744,-9.340732752488552],[-74.90413443918675,-9.340714225976708],[-74.90424440975636,-9.340600420239525],[-74.90434365148991,-9.340621593402746],[-74.9042685496375,-9.340753925643728],[-74.90418271894902,-9.340939190696645],[-74.90409957046955,-9.340928604124846],[-74.90400837536305,-9.341005356763095],[-74.90388499374836,-9.341002710120673],[-74.90379916305989,-9.340859791400316],[-74.90377502317875,-9.340695699463888],[-74.90381525631398,-9.340372808653598]]]},"id":"54","properties":{"class":"active_disturbance"}},{"type":"Feature","geometry":{"type":"Polygon","coordinates":[[[-74.90451263065785,-9.341344126826387],[-74.9046467411086,-9.341322953707072],[-74.9048452245757,-9.341701423020504],[-74.90439461346119,-9.341891980840813],[-74.90418003674,-9.341836401487335],[-74.90410493488758,-9.341558504586827],[-74.90413443918675,-9.341455285681599],[-74.90451263065785,-9.341344126826387]]]},"id":"55","properties":{"class":"active_disturbance"}},{"type":"Feature","geometry":{"type":"Polygon","coordinates":[[[-74.90453526719723,-9.340240476267823],[-74.90464523776684,-9.340264296100983],[-74.90468815311108,-9.340383395242293],[-74.90466669543896,-9.340473381233158],[-74.90463182672177,-9.340679819594966],[-74.90444675429974,-9.340682466239844],[-74.9043314193121,-9.34079362530622],[-74.90428313954983,-9.340748632355055],[-74.90443066104565,-9.34063217998387],[-74.90448430522595,-9.340499847696645],[-74.90448430522595,-9.340354282122608],[-74.90453526719723,-9.340240476267823]]]},"id":"56","properties":{"class":"active_disturbance"}},{"type":"Feature","geometry":{"type":"Polygon","coordinates":[[[-74.90647979998842,-9.337837188957188],[-74.90647443557039,-9.337927175605715],[-74.90639933371797,-9.337995988909503],[-74.90639665150896,-9.338117735490599],[-74.90630545640245,-9.338112442161878],[-74.90618207478776,-9.337913942276508],[-74.906045282128,-9.338014515565892],[-74.90601846003786,-9.338078035523184],[-74.90611770177141,-9.338265948662341],[-74.90632959628358,-9.338353288537599],[-74.90636714720979,-9.338414161771047],[-74.90625717664018,-9.338430041743232],[-74.90617402816072,-9.338358581862671],[-74.90598895573869,-9.338437981729061],[-74.90589239621416,-9.338289768630498],[-74.90579315448062,-9.338318881922694],[-74.90564026856676,-9.33839298847367],[-74.90551956916109,-9.338358581862671],[-74.90544446730867,-9.338281828641298],[-74.90550615811601,-9.338173315437395],[-74.90559198880449,-9.338189195420563],[-74.90569659495607,-9.338223602048277],[-74.90569927716508,-9.33807009552915],[-74.90582534098878,-9.338001282239993],[-74.90604796433702,-9.337913942276508],[-74.90605601096406,-9.337794842291013],[-74.90612306618944,-9.337792195624203],[-74.90647979998842,-9.337837188957188]]]},"id":"57","properties":{"class":"active_disturbance"}},{"type":"Feature","geometry":{"type":"Polygon","coordinates":[[[-74.90663268590227,-9.33769691560577],[-74.90682848716035,-9.337686328935447],[-74.9068177583243,-9.3378424822901],[-74.9068177583243,-9.337958935593766],[-74.90664341473833,-9.338064802199701],[-74.90657099509492,-9.338152142125375],[-74.90655490184083,-9.338255362009308],[-74.9064583423163,-9.338416808433136],[-74.90641810918108,-9.338347995212464],[-74.90647175336137,-9.338218308721158],[-74.90654149079576,-9.338115088826244],[-74.90652003312364,-9.338014515565892],[-74.90658172393098,-9.337953642262628],[-74.90670778775468,-9.337847775622917],[-74.90663268590227,-9.33769691560577]]]},"id":"58","properties":{"class":"active_disturbance"}},{"type":"Feature","geometry":{"type":"Polygon","coordinates":[[[-74.90719058537736,-9.337792195624203],[-74.90733810687318,-9.33786365562093],[-74.90746417069688,-9.33783718895719],[-74.90755536580339,-9.33788482895047],[-74.90754195475832,-9.33799069557892],[-74.90722813630357,-9.337982755582901],[-74.90714498782411,-9.338093915510692],[-74.90699746632829,-9.338093915510694],[-74.90697600865617,-9.33796687559032],[-74.90719058537736,-9.337792195624203]]]},"id":"59","properties":{"class":"active_disturbance"}},{"type":"Feature","geometry":{"type":"Polygon","coordinates":[[[-74.90862120078937,-9.334962662618194],[-74.90881700204747,-9.335060590071759],[-74.90891892599002,-9.335195571111301],[-74.90911740945712,-9.334960015929884],[-74.90925151990787,-9.334967955994781],[-74.90917373584644,-9.335155870810981],[-74.90906108306781,-9.33524585815189],[-74.90914691375629,-9.335351725582019],[-74.90917373584644,-9.335476119771334],[-74.90899134563342,-9.33560580728315],[-74.90891087936298,-9.33572490801679],[-74.90895647691623,-9.335780488345225],[-74.90888673948184,-9.33590488238152],[-74.90882773088352,-9.335857242117557],[-74.90865606950658,-9.335978989445872],[-74.9085353701009,-9.335881062250353],[-74.9085353701009,-9.335754021523268],[-74.90866411613361,-9.335632274116369],[-74.9088250486745,-9.335574047080641],[-74.90885187076465,-9.335542286875228],[-74.90869362043277,-9.33550258661441],[-74.908733853568,-9.335354372267366],[-74.90865338729755,-9.33522468466199],[-74.90862120078937,-9.334962662618194]]]},"id":"60","properties":{"class":"active_disturbance"}},{"type":"Feature","geometry":{"type":"Polygon","coordinates":[[[-74.91023281105058,-9.33126105860601],[-74.91040044911401,-9.331253118456692],[-74.91059088595406,-9.331304729424003],[-74.91062843688027,-9.331583957858285],[-74.91038435585992,-9.331679239547729],[-74.91004907973306,-9.331615718424333],[-74.90989619381921,-9.331429125057417],[-74.91023281105058,-9.33126105860601]]]},"id":"61","properties":{"class":"active_disturbance"}},{"type":"Feature","geometry":{"type":"Polygon","coordinates":[[[-74.91820517844465,-9.3356011599131],[-74.91829100913314,-9.335778487659642],[-74.91816494530943,-9.335855241432398],[-74.9181247121742,-9.335667326993256],[-74.91820517844465,-9.3356011599131]]]},"id":"62","properties":{"class":"active_disturbance"}},{"type":"Feature","geometry":{"type":"Polygon","coordinates":[[[-74.91697940892485,-9.335042709256205],[-74.91702232426908,-9.335180336989339],[-74.91696063346174,-9.335180336989339],[-74.91692844695356,-9.335092996318842],[-74.91697940892485,-9.335042709256205]]]},"id":"63","properties":{"class":"active_disturbance"}},{"type":"Feature","geometry":{"type":"Polygon","coordinates":[[[-74.91790477103498,-9.334764806937129],[-74.91805497473982,-9.334838914243882],[-74.91812202996519,-9.334981835433835],[-74.91790477103498,-9.335111523129568],[-74.91785112685469,-9.334947428486055],[-74.91790477103498,-9.334764806937129]]]},"id":"64","properties":{"class":"active_disturbance"}},{"type":"Feature","geometry":{"type":"Polygon","coordinates":[[[-74.9178001648834,-9.336188723145359],[-74.91799060172346,-9.336262830149346],[-74.91796646184233,-9.336408397432724],[-74.91772506303099,-9.336278710219572],[-74.9178001648834,-9.336188723145359]]]},"id":"65","properties":{"class":"active_disturbance"}},{"type":"Feature","geometry":{"type":"Polygon","coordinates":[[[-74.9170974261215,-9.335362958320538],[-74.9170786506584,-9.335489999190163],[-74.91702768868711,-9.335489999190163],[-74.91702232426908,-9.3353894251722],[-74.9170974261215,-9.335362958320538]]]},"id":"66","properties":{"class":"active_disturbance"}},{"type":"Feature","geometry":{"type":"Polygon","coordinates":[[[-74.92074273762476,-9.33243012277013],[-74.9209304922558,-9.332575691654101],[-74.92109947142376,-9.332700086834075],[-74.9213435524441,-9.332766254464898],[-74.92141328987849,-9.332919763320065],[-74.92141865429652,-9.333033571565624],[-74.92139183220637,-9.333144733071908],[-74.92126845059168,-9.333115619347499],[-74.9211638444401,-9.333041511674386],[-74.9210377806164,-9.332967403985528],[-74.92104314503443,-9.33283242208319],[-74.92092512783778,-9.332795368218491],[-74.92090098795664,-9.332927703431436],[-74.92082856831324,-9.33285888912697],[-74.92069714007152,-9.332832422083188],[-74.92052816090357,-9.332782134694444],[-74.92049329218638,-9.332551871295427],[-74.92074273762476,-9.33243012277013]]]},"id":"67","properties":{"class":"active_disturbance"}},{"type":"Feature","geometry":{"type":"Polygon","coordinates":[[[-74.92059253391993,-9.332348074826927],[-74.92066495356333,-9.332411595816906],[-74.92050133881342,-9.33254393117552],[-74.92050133881342,-9.332440709600107],[-74.92059253391993,-9.332348074826927]]]},"id":"68","properties":{"class":"active_disturbance"}},{"type":"Feature","geometry":{"type":"Polygon","coordinates":[[[-74.92546833733192,-9.332356030551768],[-74.92567218521705,-9.33241425812502],[-74.92571510056129,-9.332271335882389],[-74.92551661709419,-9.332049012277414],[-74.92550588825813,-9.331837275378954],[-74.92581702450386,-9.331493202644733],[-74.92621935585609,-9.331524963219039],[-74.92632664421669,-9.331974904377578],[-74.92623008469215,-9.33241425812502],[-74.92584921101204,-9.332472485688555],[-74.92557562569252,-9.332562473722165],[-74.92546833733192,-9.332356030551768]]]},"id":"69","properties":{"class":"active_disturbance"}},{"type":"Feature","geometry":{"type":"Polygon","coordinates":[[[-74.92824710587135,-9.334069261323659],[-74.92906517962089,-9.33390251949314],[-74.92911077717415,-9.334233356380578],[-74.92874599674812,-9.334204242747084],[-74.92847777584663,-9.334183069193926],[-74.92842413166633,-9.334384217897028],[-74.92811031321159,-9.334402744745423],[-74.9279869315969,-9.334087788188784],[-74.92824710587135,-9.334069261323659]]]},"id":"70","properties":{"class":"active_disturbance"}},{"type":"Feature","geometry":{"type":"Polygon","coordinates":[[[-74.92975450733772,-9.333627262963486],[-74.92986179569832,-9.333756951163194],[-74.92983765581718,-9.333823118593424],[-74.92954529503456,-9.333820471896464],[-74.92975450733772,-9.333627262963486]]]},"id":"71","properties":{"class":"active_disturbance"}},{"type":"Feature","geometry":{"type":"Polygon","coordinates":[[[-74.93008666918344,-9.333420828297637],[-74.93059092447824,-9.33337054099376],[-74.93062311098642,-9.333730492061587],[-74.9301161734826,-9.333735785456875],[-74.93008666918344,-9.333420828297637]]]},"id":"72","properties":{"class":"active_disturbance"}},{"type":"Feature","geometry":{"type":"Polygon","coordinates":[[[-74.93071698830194,-9.333502875988382],[-74.93129098103113,-9.333463175495268],[-74.93120783255166,-9.333754312339721],[-74.93091815397806,-9.33400839520528],[-74.93055069134302,-9.334228070866848],[-74.930548009134,-9.333833713255107],[-74.93071698830194,-9.333502875988382]]]},"id":"73","properties":{"class":"active_disturbance"}},{"type":"Feature","geometry":{"type":"Polygon","coordinates":[[[-74.93109786198205,-9.332571236558328],[-74.93145727799005,-9.332915308228678],[-74.93147605345315,-9.333116457663305],[-74.9312292902238,-9.332925895043921],[-74.93098520920343,-9.33271415867801],[-74.93109786198205,-9.332571236558328]]]},"id":"74","properties":{"class":"active_disturbance"}},{"type":"Feature","geometry":{"type":"Polygon","coordinates":[[[-74.9300973980195,-9.332597703621946],[-74.93030661032266,-9.332401847303567],[-74.93063652203149,-9.33256594314536],[-74.9308350054986,-9.332708865267216],[-74.93077063248224,-9.33289148789322],[-74.93061506435937,-9.332994709335155],[-74.9300973980195,-9.332597703621946]]]},"id":"75","properties":{"class":"active_disturbance"}},{"type":"Feature","geometry":{"type":"Polygon","coordinates":[[[-74.92918544695443,-9.331880445487226],[-74.92937320158548,-9.33192014616056],[-74.92946439669198,-9.332039248153453],[-74.9293785660035,-9.332121296169342],[-74.92925786659784,-9.332261571764665],[-74.92915057823724,-9.332092182359464],[-74.9290352432496,-9.331912206026264],[-74.92902987883157,-9.33172693617445],[-74.92915057823724,-9.331713702609843],[-74.92918544695443,-9.331880445487226]]]},"id":"76","properties":{"class":"active_disturbance"}},{"type":"Feature","geometry":{"type":"Polygon","coordinates":[[[-74.92922299788064,-9.332401847303567],[-74.92936515495843,-9.332589763503067],[-74.92920422241754,-9.332677104800757],[-74.92913716719217,-9.332539476079322],[-74.92907279417581,-9.332248338220351],[-74.92922299788064,-9.332401847303567]]]},"id":"77","properties":{"class":"active_disturbance"}},{"type":"Feature","geometry":{"type":"Polygon","coordinates":[[[-74.93152294291347,-9.329764676538204],[-74.93182603253216,-9.32975938308264],[-74.93201110495419,-9.329849371816415],[-74.93249390257687,-9.330124631328541],[-74.93238393200726,-9.330283434794397],[-74.93201915158123,-9.330505759525112],[-74.93132445944637,-9.330429004574576],[-74.93152294291347,-9.329764676538204]]]},"id":"78","properties":{"class":"active_disturbance"}},{"type":"Feature","geometry":{"type":"Polygon","coordinates":[[[-74.93116352690548,-9.329476183092455],[-74.931437112225,-9.329838784907768],[-74.93127081526607,-9.329992295051749],[-74.9308255685696,-9.32968262796782],[-74.93116352690548,-9.329476183092455]]]},"id":"79","properties":{"class":"active_disturbance"}},{"type":"Feature","geometry":{"type":"Polygon","coordinates":[[[-74.93042591942638,-9.329621753209578],[-74.93083093298763,-9.32970644852251],[-74.93067536486477,-9.330206679794932],[-74.93029717339367,-9.330084930450784],[-74.93042591942638,-9.329621753209578]]]},"id":"80","properties":{"class":"active_disturbance"}},{"type":"Feature","geometry":{"type":"Polygon","coordinates":[[[-74.93087384833187,-9.32900241810875],[-74.93108574284405,-9.329137401493684],[-74.93094090355726,-9.329269738094876],[-74.93073973788114,-9.329063292975093],[-74.93087384833187,-9.32900241810875]]]},"id":"81","properties":{"class":"active_disturbance"}},{"type":"Feature","geometry":{"type":"Polygon","coordinates":[[[-74.93288554745347,-9.329520505366363],[-74.93300892906815,-9.32972165675936],[-74.93303843336732,-9.329962508932558],[-74.93267901735932,-9.329946628574618],[-74.93254222469956,-9.329806352048015],[-74.93267901735932,-9.329499331528778],[-74.93288554745347,-9.329520505366363]]]},"id":"82","properties":{"class":"active_disturbance"}},{"type":"Feature","geometry":{"type":"Polygon","coordinates":[[[-74.93214525776536,-9.329576086683925],[-74.93237324553162,-9.329647548364923],[-74.93243493633896,-9.329803705320561],[-74.93238933878571,-9.329933394942444],[-74.93209697800309,-9.329888400589292],[-74.93214525776536,-9.329576086683925]]]},"id":"83","properties":{"class":"active_disturbance"}},{"type":"Feature","geometry":{"type":"Polygon","coordinates":[[[-74.93311353521973,-9.32978782495538],[-74.93324764567048,-9.330078964868736],[-74.93292578058869,-9.33009219849539],[-74.93311353521973,-9.329806352048015],[-74.93310548859269,-9.329761357678477],[-74.93311353521973,-9.32978782495538]]]},"id":"84","properties":{"class":"active_disturbance"}},{"type":"Feature","geometry":{"type":"Polygon","coordinates":[[[-74.93324496346146,-9.330166306795338],[-74.93346222239167,-9.33041509883003],[-74.93334956961304,-9.330708884940302],[-74.93324764567048,-9.330780346389156],[-74.9330893953386,-9.330679771012488],[-74.93315913277299,-9.330245708527825],[-74.93324496346146,-9.330166306795338]]]},"id":"85","properties":{"class":"active_disturbance"}},{"type":"Feature","geometry":{"type":"Polygon","coordinates":[[[-74.93333855753808,-9.329320701921867],[-74.93352631216912,-9.329299528072145],[-74.93374625330834,-9.329265120563607],[-74.9338106263247,-9.329344522501275],[-74.93395010119347,-9.329413337499279],[-74.93385354166894,-9.32955890764265],[-74.93372747784524,-9.329588021664037],[-74.93346998577981,-9.329574788018249],[-74.9333063710299,-9.329490092673362],[-74.93319640046029,-9.329410690768846],[-74.93333855753808,-9.329320701921867]]]},"id":"86","properties":{"class":"active_disturbance"}},{"type":"Feature","geometry":{"type":"Polygon","coordinates":[[[-74.93331868866882,-9.329524011315923],[-74.93356545189819,-9.32962988048354],[-74.9336030028244,-9.32977015708112],[-74.93348498562774,-9.329807211267278],[-74.9331175229927,-9.329653701041813],[-74.93331868866882,-9.329524011315923]]]},"id":"87","properties":{"class":"active_disturbance"}},{"type":"Feature","geometry":{"type":"Polygon","coordinates":[[[-70.78100046050396,-13.159034284280361],[-70.78118553292599,-13.15910480231296],[-70.7812767280325,-13.1592223323222],[-70.78134646546688,-13.159384262464823],[-70.78130355012264,-13.159554027822029],[-70.7810246003851,-13.159499180565636],[-70.78076979052868,-13.159258897202456],[-70.78100046050396,-13.159034284280361]]]},"id":"88","properties":{"class":"active_disturbance"}},{"type":"Feature","geometry":{"type":"Polygon","coordinates":[[[-70.7739074186219,-13.162966276908778],[-70.77417027510536,-13.16316476887459],[-70.77435266531837,-13.163373707612246],[-70.77436339415443,-13.163692338844086],[-70.77449214018715,-13.164010969661495],[-70.77456724203957,-13.16414677939213],[-70.7744116739167,-13.16426169525924],[-70.77420782603157,-13.164434068958839],[-70.77402007140053,-13.164533314367214],[-70.77381085909737,-13.16446018617547],[-70.77378403700722,-13.164183343537509],[-70.77373575724495,-13.163911724041496],[-70.773564095868,-13.163765467265044],[-70.77339243449104,-13.163739349974357],[-70.77326368845833,-13.163927394405222],[-70.77321540869606,-13.16404753382715],[-70.77301692522896,-13.16415722629137],[-70.77277552641762,-13.164146779392132],[-70.77273797549141,-13.163864712944303],[-70.77268433131111,-13.163687115384603],[-70.77277016199959,-13.163457283057408],[-70.77287208594215,-13.163347590279777],[-70.77331733263863,-13.163572199247957],[-70.7733656124009,-13.163431165733858],[-70.77321540869606,-13.163295355606506],[-70.77327978171242,-13.163159545403865],[-70.77347826517952,-13.163290132138565],[-70.77374648608101,-13.163211780106106],[-70.7739074186219,-13.162966276908778]]]},"id":"89","properties":{"class":"active_disturbance"}},{"type":"Feature","geometry":{"type":"Polygon","coordinates":[[[-70.77290540148546,-13.155888322989409],[-70.77353840281297,-13.156050255334751],[-70.77352230955889,-13.156431579467363],[-70.77340965678026,-13.156489039216753],[-70.77319508005907,-13.156306212694703],[-70.77315752913287,-13.156650971165254],[-70.7729483168297,-13.156687536429146],[-70.77272837569048,-13.156583064232125],[-70.77270155360033,-13.156384566935143],[-70.77261572291185,-13.156358448857773],[-70.77265327383806,-13.156159951378887],[-70.77285712172319,-13.156154727758855],[-70.77290540148546,-13.155888322989409]]]},"id":"90","properties":{"class":"active_disturbance"}},{"type":"Feature","geometry":{"type":"Polygon","coordinates":[[[-70.77119951655199,-13.15751808881122],[-70.77160721232227,-13.157727032363635],[-70.77143018652727,-13.158045670938124],[-70.77131753374864,-13.158113577466041],[-70.77130144049455,-13.158390426961976],[-70.7712907116585,-13.15848445124796],[-70.77114050795366,-13.158379979816877],[-70.77140872885515,-13.15788373991106],[-70.77147846628954,-13.157737479536571],[-70.77132289816667,-13.157695690842129],[-70.77122633864214,-13.157805386149864],[-70.77135508467485,-13.157909857825885],[-70.77109222819139,-13.158369532671317],[-70.7708240072899,-13.158244166889887],[-70.77095811774065,-13.1579829879726],[-70.77119951655199,-13.15751808881122]]]},"id":"91","properties":{"class":"active_disturbance"}},{"type":"Feature","geometry":{"type":"Polygon","coordinates":[[[-70.7725352566414,-13.15818670755197],[-70.77243869711687,-13.158468780536138],[-70.77196662833025,-13.158453109823304],[-70.77157502581407,-13.158437439109477],[-70.771381906765,-13.1583590855253],[-70.77133899142076,-13.15810313030911],[-70.77169840742876,-13.15816581324392],[-70.77186470438768,-13.15813447177853],[-70.77207928110887,-13.158139695356367],[-70.77232604433824,-13.158082235993959],[-70.7725352566414,-13.15818670755197]]]},"id":"92","properties":{"class":"active_disturbance"}},{"type":"Feature","geometry":{"type":"Polygon","coordinates":[[[-70.2678665360076,-13.247029871193236],[-70.2681562145812,-13.247395388306932],[-70.26742665372915,-13.24829351374036],[-70.26655761800832,-13.248742575214132],[-70.26663271986074,-13.248283070440413],[-70.26764123045034,-13.247134304710313],[-70.2678665360076,-13.247029871193236]]]},"id":"93","properties":{"class":"active_disturbance"}},{"type":"Feature","geometry":{"type":"Polygon","coordinates":[[[-70.26397196851796,-13.247750461548863],[-70.264519139157,-13.248262183839175],[-70.26368228994436,-13.249118533020003],[-70.26314584814138,-13.248815678166316],[-70.26290981374807,-13.248136864194096],[-70.26338188253467,-13.24793844129075],[-70.26362864576406,-13.24808464765627],[-70.26397196851796,-13.247750461548863]]]},"id":"94","properties":{"class":"active_disturbance"}},{"type":"Feature","geometry":{"type":"Polygon","coordinates":[[[-70.26237337194509,-13.248554596093385],[-70.26284544073171,-13.249922663043812],[-70.26181547246999,-13.250027095319473],[-70.26150433622426,-13.249525819987548],[-70.26171891294545,-13.249181192597838],[-70.26237337194509,-13.248554596093385]]]},"id":"95","properties":{"class":"active_disturbance"}},{"type":"Feature","geometry":{"type":"Polygon","coordinates":[[[-70.26679365240163,-13.247259624871637],[-70.26529161535329,-13.248711245370766],[-70.26480881773062,-13.248178637416299],[-70.26528088651723,-13.247311841586495],[-70.26576368413991,-13.247019427839078],[-70.26679365240163,-13.247259624871637]]]},"id":"96","properties":{"class":"active_disturbance"}},{"type":"Feature","geometry":{"type":"Polygon","coordinates":[[[-70.27214230269944,-13.232058288349164],[-70.27263582915818,-13.232068732344942],[-70.2727109310106,-13.23272670317691],[-70.27242125243698,-13.23358310699523],[-70.27231396407639,-13.234397732223925],[-70.27229250640427,-13.23475282441989],[-70.27192772597824,-13.234502171158823],[-70.27128399581467,-13.234136634690826],[-70.27085484237229,-13.23368754627934],[-70.2709299442247,-13.233416004047546],[-70.27106941909348,-13.233520443403284],[-70.27138055533919,-13.233478667666358],[-70.27180970878159,-13.23289380659735],[-70.27214230269944,-13.232058288349164]]]},"id":"97","properties":{"class":"active_disturbance"}},{"type":"Feature","geometry":{"type":"Polygon","coordinates":[[[-70.27375162810837,-13.233677102352935],[-70.27420223922289,-13.23384420512154],[-70.2746743080095,-13.233760653751565],[-70.27489961356675,-13.233509999469716],[-70.27570427627121,-13.233781541596754],[-70.27635873527085,-13.234314181043787],[-70.27713121146714,-13.234481283375422],[-70.27786077231919,-13.23505569676627],[-70.27842940063034,-13.235755434885192],[-70.27872980804001,-13.236726709838315],[-70.27859033317124,-13.236883366726119],[-70.27832211226975,-13.236350732896524],[-70.27801097602402,-13.235671884170689],[-70.27715266913926,-13.235181023144282],[-70.27640165061509,-13.234627497821595],[-70.2754145976976,-13.234376844431585],[-70.27509273261582,-13.234366400534736],[-70.27455629081284,-13.234366400534736],[-70.27412713737046,-13.234470839483052],[-70.27423442573105,-13.235410788003184],[-70.27452410430466,-13.23590164856662],[-70.27427734107529,-13.236026974509413],[-70.27381600112473,-13.235494338807236],[-70.2736121532396,-13.234846819326297],[-70.27386964530503,-13.23456483449826],[-70.27347267837082,-13.23418885421984],[-70.27375162810837,-13.233677102352935]]]},"id":"98","properties":{"class":"active_disturbance"}},{"type":"Feature","geometry":{"type":"Polygon","coordinates":[[[-70.27972144139665,-13.235615025979424],[-70.2798931027736,-13.235291266614496],[-70.28006476415055,-13.235270378898758],[-70.28021496785539,-13.234936175203366],[-70.28019351018327,-13.234685522130944],[-70.28017205251115,-13.234288654238854],[-70.27987164510148,-13.2339231174505],[-70.27991456044572,-13.233682907262393],[-70.27991456044572,-13.233160710384237],[-70.27990383160966,-13.232607180471462],[-70.2798394585933,-13.231813437270024],[-70.27975362790482,-13.231155463971993],[-70.28022569669145,-13.230998803401096],[-70.28030079854386,-13.230487044834264],[-70.2804510022487,-13.22986040022758],[-70.28098744405168,-13.230006617446591],[-70.28082651151078,-13.230455712642192],[-70.28070849431413,-13.230695926011743],[-70.28136295331376,-13.230842142729465],[-70.28138441098588,-13.230988359359444],[-70.28112691892045,-13.231771661240433],[-70.28031152737992,-13.231834325282136],[-70.28031152737992,-13.23218942121406],[-70.2802900697078,-13.232701176205666],[-70.28072995198625,-13.232732508109008],[-70.28134149564164,-13.23236696898598],[-70.28154534352677,-13.232784727938965],[-70.28132003796952,-13.234455756588005],[-70.28083724034684,-13.235051057775374],[-70.28013986600297,-13.236022335537019],[-70.27952832234757,-13.235771683582177],[-70.27972144139665,-13.235615025979424]]]},"id":"99","properties":{"class":"active_disturbance"}},{"type":"Feature","geometry":{"type":"Polygon","coordinates":[[[-70.30215884975712,-13.23022917131897],[-70.30297960571568,-13.230725264348132],[-70.3035589628629,-13.231059473819462],[-70.30404176048557,-13.23173311339209],[-70.30385937027256,-13.231905439495272],[-70.30369843773167,-13.231492901044948],[-70.3033068352155,-13.23135190673089],[-70.30322100452702,-13.23151378908453],[-70.3029635124616,-13.231414570880546],[-70.30273284248631,-13.231242244430236],[-70.30247535042088,-13.231242244430236],[-70.3025880031995,-13.231941993501476],[-70.30281867317478,-13.232239647347992],[-70.30329610637943,-13.232479858958992],[-70.3038486414365,-13.232432861053736],[-70.30399884514134,-13.232171761415007],[-70.30393983654301,-13.231957659502475],[-70.30407931141178,-13.231973325502452],[-70.30411686233799,-13.232683516443688],[-70.30402030281346,-13.233116940780388],[-70.30380572609226,-13.23330493181923],[-70.30311908058445,-13.233101274853945],[-70.30264701179783,-13.232678294459028],[-70.30215884975712,-13.232239647347994],[-70.30158485702793,-13.231769667424158],[-70.3010913305692,-13.231284020550602],[-70.30110742382328,-13.231111694007952],[-70.30179943374912,-13.230636489880258],[-70.30215884975712,-13.23022917131897]]]},"id":"100","properties":{"class":"active_disturbance"}},{"type":"Feature","geometry":{"type":"Polygon","coordinates":[[[-70.30061311972716,-13.231394439826396],[-70.30123539221862,-13.231984526493997],[-70.30179865611174,-13.232480615949568],[-70.30263014090636,-13.233164695542152],[-70.30274815810301,-13.233295244864488],[-70.30241556418517,-13.23384877321408],[-70.30192740214446,-13.233598119022892],[-70.30208297026732,-13.233253469088947],[-70.30169136775115,-13.233065478010397],[-70.30164845240691,-13.232746937240647],[-70.30136950266936,-13.232511947881282],[-70.30117101920226,-13.232511947881283],[-70.30095644248107,-13.23265294152409],[-70.30066676390746,-13.23259027769291],[-70.30052728903868,-13.232517169869503],[-70.30030734789946,-13.232271736301897],[-70.3001517797766,-13.232141186431184],[-70.29985673678496,-13.23197930449435],[-70.29949732077696,-13.231953194494473],[-70.29937393916228,-13.231869642476042],[-70.29957778704741,-13.231733870384984],[-70.29991574538329,-13.231932306492546],[-70.3002054239569,-13.23196886049473],[-70.30028052580931,-13.231592876210374],[-70.30001766932585,-13.23123255739347],[-70.29954560053923,-13.23102889869609],[-70.29919154894927,-13.231196003280834],[-70.29927737963774,-13.23145710396511],[-70.29913254035094,-13.23172864837998],[-70.29893405688384,-13.231618986248865],[-70.29875166667082,-13.231733870384984],[-70.29862828505614,-13.231598098218292],[-70.29868192923644,-13.231336997685085],[-70.29898770106414,-13.231044564755777],[-70.29949732077696,-13.230746909449476],[-70.3002429748831,-13.231039342735992],[-70.30061311972716,-13.231394439826396]]]},"id":"101","properties":{"class":"active_disturbance"}},{"type":"Feature","geometry":{"type":"Polygon","coordinates":[[[-70.29584313519089,-13.229678210842879],[-70.29596115238755,-13.229991533581872],[-70.2945127595195,-13.230816614867464],[-70.29441619999497,-13.230649510022552],[-70.29538179524033,-13.230137750722209],[-70.2953388798961,-13.22988709271363],[-70.29584313519089,-13.229678210842879]]]},"id":"102","properties":{"class":"active_disturbance"}},{"type":"Feature","geometry":{"type":"Polygon","coordinates":[[[-70.29616500027268,-13.230273523702554],[-70.29678727276413,-13.231714801445621],[-70.29667998440354,-13.231881905560007],[-70.29619718678086,-13.231850573547295],[-70.2955212701091,-13.232289221358755],[-70.29509211666672,-13.2320281215661],[-70.29480243809311,-13.232143005509348],[-70.29444838650315,-13.232216113445018],[-70.29431964047043,-13.231453701037468],[-70.29493118412583,-13.230889723201084],[-70.2960791695842,-13.230325744059463],[-70.29616500027268,-13.230273523702554]]]},"id":"103","properties":{"class":"active_disturbance"}},{"type":"Feature","geometry":{"type":"Polygon","coordinates":[[[-69.48488719378399,-14.018559693323041],[-69.48446876917767,-14.019090567134585],[-69.48357291136669,-14.018715832806857],[-69.48400206480908,-14.018117297541965],[-69.48426492129254,-14.01774256162495],[-69.48498375330853,-14.017794608316677],[-69.48534853373455,-14.017872678332141],[-69.48564894114422,-14.017284550228766],[-69.48594934855389,-14.01695145045743],[-69.48645360384869,-14.016738058162366],[-69.48693103705334,-14.017097181666875],[-69.48700077448773,-14.01752917006545],[-69.48692030821728,-14.018044432272681],[-69.48624439154553,-14.018200572107082],[-69.48555774603771,-14.018512851457185],[-69.4853217116444,-14.018783493216862],[-69.48488719378399,-14.018559693323041]]]},"id":"104","properties":{"class":"active_disturbance"}},{"type":"Feature","geometry":{"type":"Polygon","coordinates":[[[-69.48660521336994,-14.000719302383681],[-69.48731331654987,-14.001260627527982],[-69.48787121602497,-14.001656210480805],[-69.48808579274618,-14.002187123373403],[-69.48885826894245,-14.002749265099018],[-69.4899847967287,-14.00246819440813],[-69.49041395017109,-14.003186485490271],[-69.48971657582722,-14.004768799951531],[-69.4886329633852,-14.00345714531551],[-69.48783902951679,-14.003894364359608],[-69.48715238400898,-14.004352402465738],[-69.48704509564838,-14.0050082281641],[-69.48660521336994,-14.004394042248277],[-69.4861653310915,-14.004248302976354],[-69.48631553479633,-14.003759034744403],[-69.48704509564838,-14.003415505363144],[-69.4871201975008,-14.002520244562009],[-69.48655156918964,-14.002384914137387],[-69.486615942206,-14.00128144770037],[-69.4865944845339,-14.000646431593795],[-69.48660521336994,-14.000719302383681]]]},"id":"105","properties":{"class":"active_disturbance"}},{"type":"Feature","geometry":{"type":"Polygon","coordinates":[[[-69.45853677424839,-13.976183577857581],[-69.45869234237125,-13.976071657196263],[-69.45894983443668,-13.97618878346841],[-69.45914295348575,-13.97637097977331],[-69.45932266148975,-13.97647769468493],[-69.45902761849811,-13.976615643155913],[-69.4589364233916,-13.976693727159464],[-69.45885059270313,-13.976709343956987],[-69.45896056327274,-13.976831675500982],[-69.45901152524402,-13.976925376214124],[-69.45891228351047,-13.976972226556374],[-69.45888546142032,-13.977065927212303],[-69.45903834733417,-13.977047707643314],[-69.45912149581363,-13.977016474093103],[-69.4591670933669,-13.977099763550905],[-69.45901420745304,-13.977167436213177],[-69.45885595712116,-13.977089352370331],[-69.45878353747776,-13.976907156634002],[-69.45869502458027,-13.97675619434322],[-69.45860651168277,-13.976678110360861],[-69.45848044785907,-13.97652454511831],[-69.45852336320331,-13.976399610608112],[-69.45856896075657,-13.976243442375031],[-69.45853677424839,-13.976183577857581]]]},"id":"106","properties":{"class":"active_disturbance"}},{"type":"Feature","geometry":{"type":"Polygon","coordinates":[[[-69.46080020113754,-13.973842641791585],[-69.46095576926041,-13.973840038959661],[-69.4610979263382,-13.973855655950764],[-69.46112206621933,-13.974084705031952],[-69.46117839260864,-13.974183612519298],[-69.46119985028076,-13.974334576496995],[-69.46120253248978,-13.97449855449856],[-69.46116229935456,-13.974641709801272],[-69.46113011284638,-13.974730205762075],[-69.46104964657593,-13.97478486501498],[-69.4608994428711,-13.974714588830281],[-69.46063390417862,-13.974503760147496],[-69.46046492501068,-13.974329370844242],[-69.46040591641236,-13.974121144637488],[-69.4603951875763,-13.97373592565855],[-69.46036568327713,-13.973579755618623],[-69.46054807349014,-13.973595372627388],[-69.46070900603104,-13.9736474293156],[-69.46080020113754,-13.973842641791585]]]},"id":"107","properties":{"class":"active_disturbance"}},{"type":"Feature","geometry":{"type":"Polygon","coordinates":[[[-69.45957835622137,-13.966617482809085],[-69.4597822041065,-13.967132859118546],[-69.459691009,-13.967460825260597],[-69.45910628743475,-13.967460825260597],[-69.4587736935169,-13.967658645882437],[-69.45786710686987,-13.96772111551719],[-69.4574594110996,-13.967528500755604],[-69.4573682159931,-13.96720053470991],[-69.45753987737005,-13.96717450563866],[-69.45770080991095,-13.96692983222519],[-69.45775981850927,-13.966607071154595],[-69.45778664059942,-13.966351985472421],[-69.45799585290258,-13.966206222098663],[-69.45852693028753,-13.966081281990595],[-69.45912774510687,-13.965997988547585],[-69.45957835622137,-13.966617482809085]]]},"id":"108","properties":{"class":"active_disturbance"}},{"type":"Feature","geometry":{"type":"Polygon","coordinates":[[[-69.46166979846339,-13.965073569193713],[-69.46180659112316,-13.964992878318307],[-69.46194606599192,-13.965070966262683],[-69.4621043163238,-13.965068363331628],[-69.46216332492213,-13.965112613155533],[-69.46200239238124,-13.965326053363206],[-69.46177708682399,-13.965646213303984],[-69.46165638741832,-13.965849241328575],[-69.46154105243068,-13.965672242547901],[-69.4614739972053,-13.965367700209953],[-69.46166979846339,-13.965073569193713]]]},"id":"109","properties":{"class":"active_disturbance"}},{"type":"Feature","geometry":{"type":"Polygon","coordinates":[[[-69.46487054616057,-13.963135290236492],[-69.46470424920165,-13.96334612932533],[-69.46446016818129,-13.963434629626128],[-69.46421876936995,-13.963353938176779],[-69.46434751540266,-13.963114466612318],[-69.4648946860417,-13.96275265584179],[-69.46487054616057,-13.963135290236492]]]},"id":"110","properties":{"class":"active_disturbance"}},{"type":"Feature","geometry":{"type":"Polygon","coordinates":[[[-69.46564034014784,-13.961768735909443],[-69.46570203095519,-13.961937928789496],[-69.46580127268874,-13.96209410672235],[-69.4657047131642,-13.962258093437935],[-69.46551427632414,-13.962432491880449],[-69.46538284808241,-13.962541816209939],[-69.46517095357025,-13.962783891326389],[-69.46499929219328,-13.962760464713334],[-69.4650019744023,-13.962515786612382],[-69.46521655112349,-13.962172195649083],[-69.46564034014784,-13.961768735909443]]]},"id":"111","properties":{"class":"active_disturbance"}},{"type":"Feature","geometry":{"type":"Polygon","coordinates":[[[-69.46995577801162,-13.960384813950176],[-69.47026423204832,-13.960619082388517],[-69.47033396948271,-13.960866365481774],[-69.47008988846235,-13.961022544140816],[-69.46986994732313,-13.961121457236786],[-69.46982166756086,-13.960892395265633],[-69.46995577801162,-13.960384813950176]]]},"id":"112","properties":{"class":"active_disturbance"}},{"type":"Feature","geometry":{"type":"Polygon","coordinates":[[[-69.46962318409376,-13.95992668831595],[-69.46992895592146,-13.960064646699342],[-69.46975997675352,-13.960304121432948],[-69.46914038647108,-13.960676347970569],[-69.46871659744673,-13.960936645891444],[-69.46844301212721,-13.960905410156457],[-69.46846715200834,-13.960483727319854],[-69.46895263184004,-13.960028204870243],[-69.46962318409376,-13.95992668831595]]]},"id":"113","properties":{"class":"active_disturbance"}},{"type":"Feature","geometry":{"type":"Polygon","coordinates":[[[-69.46808748108522,-13.956797484845731],[-69.46854345661775,-13.957029153908088],[-69.4690745340027,-13.957289455947604],[-69.46919791561739,-13.957325898209689],[-69.46923278433458,-13.957492491334406],[-69.4691094027199,-13.957601818007067],[-69.46874462229387,-13.957456049098656],[-69.46838788849489,-13.957299868023082],[-69.46815990072862,-13.957357134429746],[-69.46777902704851,-13.957141083821105],[-69.46771465403215,-13.956880781614048],[-69.46808748108522,-13.956797484845731]]]},"id":"114","properties":{"class":"active_disturbance"}},{"type":"Feature","geometry":{"type":"Polygon","coordinates":[[[-69.46751080614702,-13.956287291483],[-69.46777634483949,-13.956427855073175],[-69.46751617056505,-13.95680269089463],[-69.4673820601143,-13.957130671738465],[-69.4673820601143,-13.95725301367977],[-69.46708433491365,-13.956891193707987],[-69.46703337294237,-13.956482518668427],[-69.46739278895036,-13.956305512693968],[-69.46749471289293,-13.956305512693968],[-69.46751080614702,-13.956287291483]]]},"id":"115","properties":{"class":"active_disturbance"}},{"type":"Feature","geometry":{"type":"Polygon","coordinates":[[[-69.47254100751691,-13.954683609923983],[-69.47254100751691,-13.955118318588049],[-69.47244176578336,-13.955428080549188],[-69.47227278661542,-13.955472332223954],[-69.4721440405827,-13.95553220212335],[-69.47198847245986,-13.955659750987605],[-69.4718194932919,-13.95576647549328],[-69.47164246749692,-13.955860184774592],[-69.47136351775939,-13.955841963528432],[-69.4714413018208,-13.955550423393985],[-69.4716934294682,-13.955297928515371],[-69.47189995956235,-13.955120921631481],[-69.47254100751691,-13.954683609923983]]]},"id":"116","properties":{"class":"active_disturbance"}},{"type":"Feature","geometry":{"type":"Polygon","coordinates":[[[-69.47266015912601,-13.952988883325853],[-69.47246435786792,-13.953056563070332],[-69.47194937373706,-13.952908188219928],[-69.47222295905658,-13.952483887682297],[-69.47279158736774,-13.952692133442492],[-69.47266015912601,-13.952988883325853]]]},"id":"117","properties":{"class":"active_disturbance"}},{"type":"Feature","geometry":{"type":"Polygon","coordinates":[[[-69.47155240680286,-13.951952860142676],[-69.47165164853641,-13.952374558582926],[-69.47124663497516,-13.952588010585906],[-69.47110447789737,-13.952483887682297],[-69.47115543986865,-13.952200152531393],[-69.4712546816022,-13.951919020110955],[-69.47155240680286,-13.951952860142676]]]},"id":"118","properties":{"class":"active_disturbance"}},{"type":"Feature","geometry":{"type":"Polygon","coordinates":[[[-69.47193596269199,-13.951317707950201],[-69.47233024741718,-13.951489511584683],[-69.47259578610965,-13.951692552078603],[-69.47245362903186,-13.951916417031395],[-69.47196814920017,-13.95190340163311],[-69.47176966573306,-13.951718582898245],[-69.47193596269199,-13.951317707950201]]]},"id":"119","properties":{"class":"active_disturbance"}},{"type":"Feature","geometry":{"type":"Polygon","coordinates":[[[-69.47277309816111,-13.950209850823757],[-69.47310569207896,-13.950392067670863],[-69.4730225435995,-13.950569078184467],[-69.47289916198481,-13.950813768964911],[-69.47278114478816,-13.950993382244919],[-69.47238686006297,-13.950990779154887],[-69.4722661606573,-13.950610727697342],[-69.47277309816111,-13.950209850823757]]]},"id":"120","properties":{"class":"active_disturbance"}},{"type":"Feature","geometry":{"type":"Polygon","coordinates":[[[-69.41392023727373,-13.910797077735374],[-69.41411067411379,-13.910903822974932],[-69.41405166551546,-13.911119916845683],[-69.41398192808107,-13.911122520385064],[-69.41384781763033,-13.911026189408453],[-69.41383977100328,-13.910791870649259],[-69.41392023727373,-13.910797077735374]]]},"id":"121","properties":{"class":"active_disturbance"}},{"type":"Feature","geometry":{"type":"Polygon","coordinates":[[[-69.41433329746204,-13.91019305496413],[-69.4144379036136,-13.910312818225156],[-69.41454787418321,-13.910427374329858],[-69.4144191281505,-13.910554948106968],[-69.41420455142931,-13.910497670093296],[-69.41433329746204,-13.91019305496413]]]},"id":"122","properties":{"class":"active_disturbance"}},{"type":"Feature","geometry":{"type":"Polygon","coordinates":[[[-69.43537115645475,-13.896977432322489],[-69.43603097987241,-13.897430475415819],[-69.4361919124133,-13.897675222465303],[-69.4358271319873,-13.897883517622807],[-69.43506002020902,-13.897492964048789],[-69.43493663859434,-13.897138861572321],[-69.43537115645475,-13.896977432322489]]]},"id":"123","properties":{"class":"active_disturbance"}},{"type":"Feature","geometry":{"type":"Polygon","coordinates":[[[-69.43328439784116,-13.897888724999346],[-69.43385302615233,-13.898086605220971],[-69.43358480525083,-13.89831052210993],[-69.43341850829191,-13.898341766309773],[-69.43315565180845,-13.898248033697575],[-69.43329512667722,-13.898508401971089],[-69.43333804202146,-13.89860734183826],[-69.43308591437406,-13.898695866946731],[-69.43298935484952,-13.898503194608496],[-69.43296253275938,-13.898242826329122],[-69.43304299902982,-13.898060568359359],[-69.43328439784116,-13.897888724999346]]]},"id":"124","properties":{"class":"active_disturbance"}},{"type":"Feature","geometry":{"type":"Polygon","coordinates":[[[-69.43106352877683,-13.897081580238483],[-69.43219005656309,-13.897394023705465],[-69.4325172860629,-13.897628356029037],[-69.43242072653837,-13.897919969256105],[-69.43222224307127,-13.897841858606299],[-69.43220614981718,-13.897711674131386],[-69.43196475100584,-13.897612733881516],[-69.43184136939115,-13.897612733881516],[-69.43175017428464,-13.89774291841205],[-69.43148195338316,-13.897633563411325],[-69.43153559756345,-13.897482549277793],[-69.43114935946531,-13.897222179850798],[-69.43106352877683,-13.897081580238483]]]},"id":"125","properties":{"class":"active_disturbance"}},{"type":"Feature","geometry":{"type":"Polygon","coordinates":[[[-70.77046406090125,-13.142251124328002],[-70.77073764622077,-13.142251124328],[-70.77092003643378,-13.142392170025508],[-70.77112924873694,-13.142277243907737],[-70.77141356289252,-13.14232948305885],[-70.77145111381873,-13.142642917732003],[-70.77131700336798,-13.142935456399075],[-70.77105951130255,-13.142925008595535],[-70.77091467201575,-13.142658589455149],[-70.77069473087653,-13.142538439552105],[-70.77056062042578,-13.142601126465385],[-70.7703835946308,-13.142606350374098],[-70.77046406090125,-13.142251124328002]]]},"id":"126","properties":{"class":"active_disturbance"}},{"type":"Feature","geometry":{"type":"Polygon","coordinates":[[[-70.77053379833563,-13.142794411013849],[-70.77080738365515,-13.142789187109141],[-70.77095222294196,-13.143060830006771],[-70.77092540085181,-13.143285457560356],[-70.77067327320441,-13.143285457560355],[-70.77041041672095,-13.143013814911393],[-70.77053379833563,-13.142794411013849]]]},"id":"127","properties":{"class":"active_disturbance"}},{"type":"Feature","geometry":{"type":"Polygon","coordinates":[[[-70.76817881882056,-13.140349611455775],[-70.76866698086127,-13.140459314521951],[-70.7687796336399,-13.140824991055059],[-70.7687635403858,-13.14120633885923],[-70.76874208271369,-13.141545894624477],[-70.76901030361518,-13.14161902965087],[-70.7690156680332,-13.141885449919899],[-70.76870453178748,-13.142078735032074],[-70.76840948879584,-13.14172350822222],[-70.76835048019751,-13.141289921860421],[-70.76821636974677,-13.140861558678404],[-70.76817881882056,-13.140349611455775]]]},"id":"128","properties":{"class":"active_disturbance"}},{"type":"Feature","geometry":{"type":"Polygon","coordinates":[[[-70.82688704034896,-13.122738052887659],[-70.82705870172592,-13.12275372588109],[-70.82708552381607,-13.123030615267028],[-70.82725718519302,-13.122926128742943],[-70.82745566866012,-13.122926128742943],[-70.82740738889785,-13.123203017934628],[-70.8275200416765,-13.123448560919092],[-70.827793626996,-13.123558271534991],[-70.82751467725845,-13.123918748928105],[-70.82727327844711,-13.1236732064134],[-70.82715526125045,-13.123558271534991],[-70.82701042196365,-13.123307504340984],[-70.82677438757035,-13.123114204454295],[-70.82640424272628,-13.123046288241795],[-70.82640960714431,-13.122894782777054],[-70.82667246362777,-13.122894782777053],[-70.82679584524246,-13.122764174542834],[-70.82688704034896,-13.122738052887659]]]},"id":"129","properties":{"class":"active_disturbance"}},{"type":"Feature","geometry":{"type":"Polygon","coordinates":[[[-70.82554593584153,-13.122920904415574],[-70.82551374933334,-13.123082858512404],[-70.82522407075975,-13.123082858512404],[-70.82518651983352,-13.123004493640158],[-70.82526698610397,-13.122758950212022],[-70.82554593584153,-13.122920904415574]]]},"id":"130","properties":{"class":"active_disturbance"}},{"type":"Feature","geometry":{"type":"Polygon","coordinates":[[[-70.8278472711763,-13.123699327969172],[-70.8284963657579,-13.124075478064524],[-70.82906499406906,-13.12441505751719],[-70.82901134988876,-13.124712842189526],[-70.82897916338058,-13.124958383665422],[-70.82837834856124,-13.124712842189524],[-70.82795455953689,-13.124383711741222],[-70.8276326944551,-13.12396054337425],[-70.8278472711763,-13.123699327969172]]]},"id":"131","properties":{"class":"active_disturbance"}},{"type":"Feature","geometry":{"type":"Polygon","coordinates":[[[-70.86831145793649,-13.118429204044638],[-70.86797349960061,-13.118711322718823],[-70.867683821027,-13.118434428467474],[-70.86745851546975,-13.118115738471415],[-70.86753361732217,-13.117938107802507],[-70.86790912658425,-13.117959005534924],[-70.86825244933816,-13.117880639029206],[-70.86831145793649,-13.118429204044638]]]},"id":"132","properties":{"class":"active_disturbance"}},{"type":"Feature","geometry":{"type":"Polygon","coordinates":[[[-70.85884020044301,-13.108842033256577],[-70.85928008272145,-13.108549453996167],[-70.85954830362294,-13.108586026422744],[-70.85966095640157,-13.108998772002966],[-70.85949465944265,-13.10911893830757],[-70.85934445573781,-13.109322698429086],[-70.859017226238,-13.109463763029737],[-70.85865244581197,-13.109249553789498],[-70.85884020044301,-13.108842033256577]]]},"id":"133","properties":{"class":"active_disturbance"}},{"type":"Feature","geometry":{"type":"Polygon","coordinates":[[[-70.86026713563894,-13.108084461241464],[-70.86077675535176,-13.108131483020637],[-70.86096987440084,-13.108465859857866],[-70.86110398485158,-13.108763663845938],[-70.86050317003225,-13.108852482509446],[-70.86005792333577,-13.108868156387915],[-70.8600632877538,-13.108591251054682],[-70.86026713563894,-13.108084461241464]]]},"id":"134","properties":{"class":"active_disturbance"}},{"type":"Feature","geometry":{"type":"Polygon","coordinates":[[[-70.87280780033011,-13.119896702461004],[-70.87346762374777,-13.119847070734817],[-70.87340593294043,-13.120223226725638],[-70.87307333902258,-13.120191880415057],[-70.87280780033011,-13.119896702461004]]]},"id":"135","properties":{"class":"active_disturbance"}},{"type":"Feature","geometry":{"type":"Polygon","coordinates":[[[-70.87595128274668,-13.119959372105193],[-70.87621950364817,-13.119946311128906],[-70.87641798711527,-13.12008214524828],[-70.87651454663981,-13.120181408595723],[-70.87627314782847,-13.120492259345557],[-70.87573670602549,-13.120322466967895],[-70.87595128274668,-13.119959372105193]]]},"id":"136","properties":{"class":"active_disturbance"}},{"type":"Feature","geometry":{"type":"Polygon","coordinates":[[[-70.87737315330793,-13.120169283362479],[-70.87786399755765,-13.120464460989215],[-70.87819390926649,-13.120696945773139],[-70.87842726145078,-13.120796208872337],[-70.87830924425413,-13.121070488280123],[-70.87810003195096,-13.12130297249086],[-70.87743752632429,-13.120877186634091],[-70.87712102566053,-13.120574172937117],[-70.87737315330793,-13.120169283362479]]]},"id":"137","properties":{"class":"active_disturbance"}},{"type":"Feature","geometry":{"type":"MultiPolygon","coordinates":[[[[-74.90734049231436,-9.464904472818196],[-74.90733242655622,-9.464899558837429],[-74.90734315539228,-9.464851936327074],[-74.90734049231436,-9.464904472818196]]],[[[-74.90734049231436,-9.464904472818196],[-74.90787959719526,-9.465232916225158],[-74.90812636042463,-9.465407531870639],[-74.90801907206404,-9.465783219776775],[-74.90775621558058,-9.465957835142646],[-74.90716076517927,-9.465767345648207],[-74.90698373938429,-9.465322869750574],[-74.90733779097425,-9.464957764118902],[-74.90734049231436,-9.464904472818196]]]]},"id":"138","properties":{"class":"active_disturbance"}},{"type":"Feature","geometry":{"type":"Polygon","coordinates":[[[-74.90612811470854,-9.465402240488746],[-74.90649021292555,-9.465351972356693],[-74.9065867724501,-9.465402240488746],[-74.90646875525343,-9.46552129656162],[-74.90634000922071,-9.465587438806516],[-74.9063748779379,-9.465830842158091],[-74.9064258399092,-9.466055725536208],[-74.90642315770017,-9.466235632132742],[-74.90635878468382,-9.466235632132744],[-74.90632659817564,-9.466029268675824],[-74.9062649073683,-9.465809676656102],[-74.90614420796263,-9.46564828966057],[-74.9057982029997,-9.465706494815242],[-74.90597522879469,-9.465513359491393],[-74.90612811470854,-9.465402240488746]]]},"id":"139","properties":{"class":"active_disturbance"}}]}