{"type":"FeatureCollection","features":[{"type":"Feature","geometry":{"type":"Polygon","coordinates":[[[-74.10177958532115,-8.18010138055654],[-74.09497750325939,-8.18010138055654],[-74.09497750325939,-8.174770266694898],[-74.10177958532115,-8.174770266694898],[-74.10177958532115,-8.18010138055654]]]},"id":"0","properties":{"class":"intact_forest"}},{"type":"Feature","geometry":{"type":"Polygon","coordinates":[[[-74.09647954030773,-8.171690507088025],[-74.08954871221324,-8.171690507088025],[-74.08954871221324,-8.166083159596235],[-74.09647954030773,-8.166083159596235],[-74.09647954030773,-8.171690507088025]]]},"id":"1","properties":{"class":"intact_forest"}},{"type":"Feature","geometry":{"type":"Polygon","coordinates":[[[-74.08379805608531,-8.167888564167153],[-74.07596600576183,-8.167888564167152],[-74.07596600576183,-8.162344884182442],[-74.08379805608531,-8.162344884182442],[-74.08379805608531,-8.167888564167153]]]},"id":"2","properties":{"class":"intact_forest"}},{"type":"Feature","geometry":{"type":"Polygon","coordinates":[[[-74.07332177281774,-8.176417176999998],[-74.0662407410184,-8.176417176999998],[-74.0662407410184,-8.171192213052604],[-74.07332177281774,-8.171192213052604],[-74.07332177281774,-8.176417176999998]]]},"id":"3","properties":{"class":"intact_forest"}},{"type":"Feature","geometry":{"type":"Polygon","coordinates":[[[-74.07422532490939,-8.257039950211936],[-74.06930078915805,-8.257039950211936],[-74.06930078915805,-8.253844034187013],[-74.07422532490939,-8.253844034187013],[-74.07422532490939,-8.257039950211936]]]},"id":"4","properties":{"class":"intact_forest"}},{"type":"Feature","geometry":{"type":"Polygon","coordinates":[[[-74.06833519391269,-8.257369096240353],[-74.06412949017734,-8.257369096240353],[-74.06412949017734,-8.252729173675394],[-74.06833519391269,-8.252729173675394],[-74.06833519391269,-8.257369096240353]]]},"id":"5","properties":{"class":"intact_forest"}},{"type":"Feature","geometry":{"type":"Polygon","coordinates":[[[-74.07290833366915,-8.276172539698841],[-74.0680910862784,-8.276172539698841],[-74.0680910862784,-8.27230789520221],[-74.07290833366915,-8.27230789520221],[-74.07290833366915,-8.276172539698841]]]},"id":"6","properties":{"class":"intact_forest"}},{"type":"Feature","geometry":{"type":"Polygon","coordinates":[[[-73.92946140183396,-8.29066426432105],[-73.92298118485398,-8.290664264321052],[-73.92298118485398,-8.282659181874662],[-73.92946140183396,-8.282659181874662],[-73.92946140183396,-8.29066426432105]]]},"id":"7","properties":{"class":"intact_forest"}},{"type":"Feature","geometry":{"type":"Polygon","coordinates":[[[-73.93673214775855,-8.302261677011778],[-73.93128189904029,-8.302261677011778],[-73.93128189904029,-8.297165772514715],[-73.93673214775855,-8.297165772514715],[-73.93673214775855,-8.302261677011778]]]},"id":"8","properties":{"class":"intact_forest"}},{"type":"Feature","geometry":{"type":"Polygon","coordinates":[[[-73.93211020552198,-8.279736812776441],[-73.92479313932935,-8.279736812776441],[-73.92479313932935,-8.273217916500375],[-73.93211020552198,-8.273217916500375],[-73.93211020552198,-8.279736812776441]]]},"id":"9","properties":{"class":"intact_forest"}},{"type":"Feature","geometry":{"type":"Polygon","coordinates":[[[-73.92389191710035,-8.273430260098351],[-73.91805543028394,-8.273430260098351],[-73.91805543028394,-8.266592738777211],[-73.92389191710035,-8.266592738777211],[-73.92389191710035,-8.273430260098351]]]},"id":"10","properties":{"class":"intact_forest"}},{"type":"Feature","geometry":{"type":"Polygon","coordinates":[[[-73.92007245146314,-8.263598631553633],[-73.9117254170088,-8.263598631553633],[-73.9117254170088,-8.257121938906216],[-73.92007245146314,-8.257121938906216],[-73.92007245146314,-8.263598631553633]]]},"id":"11","properties":{"class":"intact_forest"}},{"type":"Feature","geometry":{"type":"Polygon","coordinates":[[[-73.91076762091106,-8.258076563364623],[-73.90445906530803,-8.258076563364623],[-73.90445906530803,-8.250877771479379],[-73.91076762091106,-8.25087777147938],[-73.91076762091106,-8.258076563364623]]]},"id":"12","properties":{"class":"intact_forest"}},{"type":"Feature","geometry":{"type":"Polygon","coordinates":[[[-73.91973233500764,-8.252314187839207],[-73.91190028468415,-8.252314187839207],[-73.91190028468415,-8.245667423383352],[-73.91973233500764,-8.24566742338335],[-73.91973233500764,-8.252314187839207]]]},"id":"13","properties":{"class":"intact_forest"}},{"type":"Feature","geometry":{"type":"Polygon","coordinates":[[[-73.92688049433967,-8.244839224454157],[-73.91919864772102,-8.244839224454157],[-73.91919864772102,-8.23836222429387],[-73.92688049433967,-8.23836222429387],[-73.92688049433967,-8.244839224454157]]]},"id":"14","properties":{"class":"intact_forest"}},{"type":"Feature","geometry":{"type":"Polygon","coordinates":[[[-73.91889740698802,-8.244600217505647],[-73.91130139105785,-8.244600217505646],[-73.91130139105785,-8.237125108293538],[-73.91889740698802,-8.237125108293538],[-73.91889740698802,-8.244600217505647]]]},"id":"15","properties":{"class":"intact_forest"}},{"type":"Feature","geometry":{"type":"Polygon","coordinates":[[[-73.91024996512401,-8.24173335993198],[-73.90411307089794,-8.241733359931978],[-73.90411307089794,-8.235256308925907],[-73.91024996512401,-8.235256308925907],[-73.91024996512401,-8.24173335993198]]]},"id":"16","properties":{"class":"intact_forest"}},{"type":"Feature","geometry":{"type":"Polygon","coordinates":[[[-73.92065023547082,-8.236563414034055],[-73.91363357668786,-8.236563414034055],[-73.91363357668786,-8.23057472186055],[-73.92065023547082,-8.23057472186055],[-73.92065023547082,-8.236563414034055]]]},"id":"17","properties":{"class":"intact_forest"}},{"type":"Feature","geometry":{"type":"Polygon","coordinates":[[[-73.92862913673787,-8.236648359370758],[-73.92247078483967,-8.236648359370758],[-73.92247078483967,-8.23004380506363],[-73.92862913673787,-8.23004380506363],[-73.92862913673787,-8.236648359370758]]]},"id":"18","properties":{"class":"intact_forest"}},{"type":"Feature","geometry":{"type":"Polygon","coordinates":[[[-73.91653595323706,-8.222440998501533],[-73.90838203783179,-8.222440998501533],[-73.90838203783179,-8.217110452207761],[-73.91653595323706,-8.217110452207761],[-73.91653595323706,-8.222440998501533]]]},"id":"19","properties":{"class":"intact_forest"}},{"type":"Feature","geometry":{"type":"Polygon","coordinates":[[[-73.9090686833396,-8.217070599505044],[-73.90033541078711,-8.217070599505044],[-73.90033541078711,-8.212568249180569],[-73.9090686833396,-8.212568249180569],[-73.9090686833396,-8.217070599505044]]]},"id":"20","properties":{"class":"intact_forest"}},{"type":"Feature","geometry":{"type":"Polygon","coordinates":[[[-73.90466986055517,-8.211952357665313],[-73.89793215150976,-8.211952357665313],[-73.89793215150976,-8.207280046092976],[-73.90466986055517,-8.207280046092976],[-73.90466986055517,-8.211952357665313]]]},"id":"21","properties":{"class":"intact_forest"}},{"type":"Feature","geometry":{"type":"Polygon","coordinates":[[[-73.89658031816626,-8.213375277995617],[-73.88666687364721,-8.213375277995617],[-73.88666687364721,-8.207704803961786],[-73.89658031816626,-8.207704803961786],[-73.89658031816626,-8.213375277995617]]]},"id":"22","properties":{"class":"intact_forest"}},{"type":"Feature","geometry":{"type":"Polygon","coordinates":[[[-73.90223093076115,-8.207163203352481],[-73.89532156033879,-8.207163203352481],[-73.89532156033879,-8.203127979763492],[-73.90223093076115,-8.203127979763492],[-73.90223093076115,-8.207163203352481]]]},"id":"23","properties":{"class":"intact_forest"}},{"type":"Feature","geometry":{"type":"Polygon","coordinates":[[[-74.43548924585144,-8.13478137128097],[-74.42055470605654,-8.13478137128097],[-74.42055470605654,-8.123140715794927],[-74.43548924585144,-8.123140715794927],[-74.43548924585144,-8.13478137128097]]]},"id":"24","properties":{"class":"intact_forest"}},{"type":"Feature","geometry":{"type":"Polygon","coordinates":[[[-74.41643483300965,-8.135631040930907],[-74.39952618737976,-8.135631040930905],[-74.39952618737976,-8.122715867966033],[-74.41643483300965,-8.122715867966033],[-74.41643483300965,-8.135631040930907]]]},"id":"25","properties":{"class":"intact_forest"}},{"type":"Feature","geometry":{"type":"Polygon","coordinates":[[[-74.44778828654934,-8.120714068449114],[-74.43521409068752,-8.120714068449114],[-74.43521409068752,-8.10983775681405],[-74.44778828654934,-8.109837756814052],[-74.44778828654934,-8.120714068449114]]]},"id":"26","properties":{"class":"intact_forest"}},{"type":"Feature","geometry":{"type":"Polygon","coordinates":[[[-74.43302540813137,-8.11952448620557],[-74.41753296886135,-8.11952448620557],[-74.41753296886135,-8.105886523853538],[-74.43302540813137,-8.105886523853538],[-74.43302540813137,-8.11952448620557]]]},"id":"27","properties":{"class":"intact_forest"}},{"type":"Feature","geometry":{"type":"Polygon","coordinates":[[[-74.50737414771329,-8.044899411930219],[-74.49861941748868,-8.044899411930219],[-74.49861941748868,-8.037718031072625],[-74.50737414771329,-8.037718031072625],[-74.50737414771329,-8.044899411930219]]]},"id":"28","properties":{"class":"intact_forest"}},{"type":"Feature","geometry":{"type":"Polygon","coordinates":[[[-74.49578700476896,-8.04370960614003],[-74.48660312110196,-8.04370960614003],[-74.48660312110196,-8.033596115998831],[-74.49578700476896,-8.033596115998831],[-74.49578700476896,-8.04370960614003]]]},"id":"29","properties":{"class":"intact_forest"}},{"type":"Feature","geometry":{"type":"Polygon","coordinates":[[[-74.48355613166105,-8.046089214228235],[-74.47454390937101,-8.046089214228235],[-74.47454390937101,-8.036825661256833],[-74.48355613166105,-8.036825661256833],[-74.48355613166105,-8.046089214228235]]]},"id":"30","properties":{"class":"intact_forest"}},{"type":"Feature","geometry":{"type":"Polygon","coordinates":[[[-74.50891910010587,-8.036145759127624],[-74.4996493857504,-8.036145759127624],[-74.4996493857504,-8.031258929063261],[-74.50891910010587,-8.031258929063261],[-74.50891910010587,-8.036145759127624]]]},"id":"31","properties":{"class":"intact_forest"}},{"type":"Feature","geometry":{"type":"Polygon","coordinates":[[[-74.08704272142604,-6.301203988419809],[-74.07373896471218,-6.301203988419808],[-74.07373896471218,-6.296127890363594],[-74.08704272142604,-6.296127890363594],[-74.08704272142604,-6.301203988419809]]]},"id":"32","properties":{"class":"intact_forest"}},{"type":"Feature","geometry":{"type":"Polygon","coordinates":[[[-74.06339636675075,-6.301673205061189],[-74.0536974989529,-6.3016732050611886],[-74.0536974989529,-6.294890850543297],[-74.06339636675075,-6.294890850543297],[-74.06339636675075,-6.301673205061189]]]},"id":"33","properties":{"class":"intact_forest"}},{"type":"Feature","geometry":{"type":"Polygon","coordinates":[[[-74.14136485503477,-6.276983631022806],[-74.1361291830377,-6.276983631022806],[-74.1361291830377,-6.272568502599336],[-74.14136485503477,-6.272568502599336],[-74.14136485503477,-6.276983631022806]]]},"id":"34","properties":{"class":"intact_forest"}},{"type":"Feature","geometry":{"type":"Polygon","coordinates":[[[-74.13460568831724,-6.277111605201764],[-74.12913398192686,-6.277111605201764],[-74.12913398192686,-6.272653819445027],[-74.13460568831724,-6.272653819445027],[-74.13460568831724,-6.277111605201764]]]},"id":"35","properties":{"class":"intact_forest"}},{"type":"Feature","geometry":{"type":"Polygon","coordinates":[[[-74.14748029158872,-6.2769409729561705],[-74.14233045028013,-6.2769409729561705],[-74.14233045028013,-6.272824453094531],[-74.14748029158872,-6.272824453094531],[-74.14748029158872,-6.2769409729561705]]]},"id":"36","properties":{"class":"intact_forest"}},{"type":"Feature","geometry":{"type":"Polygon","coordinates":[[[-74.14683656142515,-6.28150536627101],[-74.14211587355894,-6.28150536627101],[-74.14211587355894,-6.277474198538088],[-74.14683656142515,-6.277474198538088],[-74.14683656142515,-6.28150536627101]]]},"id":"37","properties":{"class":"intact_forest"}},{"type":"Feature","geometry":{"type":"Polygon","coordinates":[[[-74.14125756667417,-6.282187888934895],[-74.1364725057916,-6.282187888934895],[-74.1364725057916,-6.277708817621209],[-74.14125756667417,-6.277708817621209],[-74.14125756667417,-6.282187888934895]]]},"id":"38","properties":{"class":"intact_forest"}},{"type":"Feature","geometry":{"type":"Polygon","coordinates":[[[-74.13458423064512,-6.2817399835376655],[-74.12947730468076,-6.281739983537666],[-74.12947730468076,-6.277772804625525],[-74.13458423064512,-6.277772804625524],[-74.13458423064512,-6.2817399835376655]]]},"id":"39","properties":{"class":"intact_forest"}},{"type":"Feature","geometry":{"type":"Polygon","coordinates":[[[-74.15232972548765,-6.276514392097622],[-74.14820985244077,-6.276514392097622],[-74.14820985244077,-6.273144391036775],[-74.15232972548765,-6.273144391036775],[-74.15232972548765,-6.276514392097622]]]},"id":"40","properties":{"class":"intact_forest"}},{"type":"Feature","geometry":{"type":"Polygon","coordinates":[[[-74.15232972548765,-6.2809721448171345],[-74.14765195296567,-6.2809721448171345],[-74.14765195296567,-6.277452869525297],[-74.15232972548765,-6.277452869525297],[-74.15232972548765,-6.2809721448171345]]]},"id":"41","properties":{"class":"intact_forest"}},{"type":"Feature","geometry":{"type":"Polygon","coordinates":[[[-74.12855462477964,-6.277324895430181],[-74.12385539458555,-6.277324895430181],[-74.12385539458555,-6.273037745077849],[-74.12855462477964,-6.27303774507785],[-74.12855462477964,-6.277324895430181]]]},"id":"42","properties":{"class":"intact_forest"}},{"type":"Feature","geometry":{"type":"Polygon","coordinates":[[[-74.12842587874692,-6.281654668180206],[-74.12327603743833,-6.281654668180205],[-74.12327603743833,-6.278306029355842],[-74.12842587874692,-6.278306029355843],[-74.12842587874692,-6.281654668180206]]]},"id":"43","properties":{"class":"intact_forest"}},{"type":"Feature","geometry":{"type":"Polygon","coordinates":[[[-71.11606535221964,-11.657116038405551],[-71.10707458760172,-11.65711603840555],[-71.10707458760172,-11.652849941774585],[-71.11606535221964,-11.652849941774585],[-71.11606535221964,-11.657116038405551]]]},"id":"44","properties":{"class":"intact_forest"}},{"type":"Feature","geometry":{"type":"Polygon","coordinates":[[[-71.12445530201822,-11.657494309821024],[-71.11769613530069,-11.657494309821026],[-71.11769613530069,-11.65341735741934],[-71.12445530201822,-11.65341735741934],[-71.12445530201822,-11.657494309821024]]]},"id":"45","properties":{"class":"intact_forest"}},{"type":"Feature","geometry":{"type":"Polygon","coordinates":[[[-71.12428364064127,-11.661739320366252],[-71.11778196598915,-11.661739320366252],[-71.11778196598915,-11.657956640851332],[-71.12428364064127,-11.657956640851332],[-71.12428364064127,-11.661739320366252]]]},"id":"46","properties":{"class":"intact_forest"}},{"type":"Feature","geometry":{"type":"Polygon","coordinates":[[[-71.11600097920326,-11.6614871433353],[-71.10761102940468,-11.6614871433353],[-71.10761102940468,-11.658019685932208],[-71.11600097920326,-11.658019685932206],[-71.11600097920326,-11.6614871433353]]]},"id":"47","properties":{"class":"intact_forest"}},{"type":"Feature","geometry":{"type":"Polygon","coordinates":[[[-71.10591587330727,-11.657473294755919],[-71.09840568806557,-11.657473294755919],[-71.09840568806557,-11.652744864676166],[-71.10591587330727,-11.652744864676166],[-71.10591587330727,-11.657473294755919]]]},"id":"48","properties":{"class":"intact_forest"}},{"type":"Feature","geometry":{"type":"Polygon","coordinates":[[[-71.10638794209389,-11.661592217126033],[-71.0991137912455,-11.661592217126033],[-71.0991137912455,-11.657977655879879],[-71.10638794209389,-11.657977655879879],[-71.10638794209389,-11.661592217126033]]]},"id":"49","properties":{"class":"intact_forest"}},{"type":"Feature","geometry":{"type":"Polygon","coordinates":[[[-70.29789379908595,-11.53969248631116],[-70.2912204630569,-11.539692486311163],[-70.2912204630569,-11.536580926779841],[-70.29789379908595,-11.536580926779841],[-70.29789379908595,-11.53969248631116]]]},"id":"50","properties":{"class":"intact_forest"}},{"type":"Feature","geometry":{"type":"Polygon","coordinates":[[[-70.29767922236476,-11.545389914670332],[-70.2912204630569,-11.545389914670332],[-70.2912204630569,-11.540112964682951],[-70.29767922236476,-11.540112964682951],[-70.29767922236476,-11.545389914670332]]]},"id":"51","properties":{"class":"intact_forest"}},{"type":"Feature","geometry":{"type":"Polygon","coordinates":[[[-70.30222824885402,-11.545116608941091],[-70.29832295252834,-11.545116608941093],[-70.29832295252834,-11.537085506344503],[-70.30222824885402,-11.537085506344503],[-70.30222824885402,-11.545116608941091]]]},"id":"52","properties":{"class":"intact_forest"}},{"type":"Feature","geometry":{"type":"Polygon","coordinates":[[[-70.29094151331937,-11.54431771374407],[-70.28755120112453,-11.54431771374407],[-70.28755120112453,-11.537001409813383],[-70.29094151331937,-11.537001409813385],[-70.29094151331937,-11.54431771374407]]]},"id":"53","properties":{"class":"intact_forest"}},{"type":"Feature","geometry":{"type":"Polygon","coordinates":[[[-70.28338841273343,-11.544254642973717],[-70.27770212962184,-11.544254642973717],[-70.27770212962184,-11.53796851840003],[-70.28338841273343,-11.53796851840003],[-70.28338841273343,-11.544254642973717]]]},"id":"54","properties":{"class":"intact_forest"}},{"type":"Feature","geometry":{"type":"Polygon","coordinates":[[[-70.27671507670436,-11.54484330294554],[-70.27068547083888,-11.54484330294554],[-70.27068547083888,-11.538599239595998],[-70.27671507670436,-11.538599239595996],[-70.27671507670436,-11.54484330294554]]]},"id":"55","properties":{"class":"intact_forest"}},{"type":"Feature","geometry":{"type":"Polygon","coordinates":[[[-74.0168416213679,-2.6993047742564524],[-74.00782939907786,-2.6993047742564524],[-74.00782939907786,-2.6949536921437245],[-74.0168416213679,-2.6949536921437245],[-74.0168416213679,-2.6993047742564524]]]},"id":"56","properties":{"class":"intact_forest"}},{"type":"Feature","geometry":{"type":"Polygon","coordinates":[[[-74.01692745205638,-2.703634407003779],[-74.00626298901317,-2.703634407003779],[-74.00626298901317,-2.699583414452396],[-74.01692745205638,-2.699583414452396],[-74.01692745205638,-2.703634407003779]]]},"id":"57","properties":{"class":"intact_forest"}},{"type":"Feature","geometry":{"type":"Polygon","coordinates":[[[-74.02563926693675,-2.697954440094317],[-74.02141210552928,-2.6979544400943176],[-74.02141210552928,-2.695339503009102],[-74.02563926693675,-2.695339503009102],[-74.02563926693675,-2.697954440094317]]]},"id":"58","properties":{"class":"intact_forest"}},{"type":"Feature","geometry":{"type":"Polygon","coordinates":[[[-74.0277206611323,-2.70477039719668],[-74.01954528805491,-2.70477039719668],[-74.01954528805491,-2.701040915974419],[-74.0277206611323,-2.701040915974419],[-74.0277206611323,-2.70477039719668]]]},"id":"59","properties":{"class":"intact_forest"}},{"type":"Feature","geometry":{"type":"Polygon","coordinates":[[[-74.00701400753735,-2.69844741940672],[-74.00072690960643,-2.69844741940672],[-74.00072690960643,-2.694996560023691],[-74.00701400753735,-2.6949965600236916],[-74.00701400753735,-2.69844741940672]]]},"id":"60","properties":{"class":"intact_forest"}},{"type":"Feature","geometry":{"type":"Polygon","coordinates":[[[-74.00566217419383,-2.702884224217797],[-74.0010273170161,-2.702884224217797],[-74.0010273170161,-2.699712017598204],[-74.00566217419383,-2.699712017598204],[-74.00566217419383,-2.702884224217797]]]},"id":"61","properties":{"class":"intact_forest"}},{"type":"Feature","geometry":{"type":"Polygon","coordinates":[[[-74.02050777275076,-2.7101962352342523],[-74.01602311927785,-2.7101962352342523],[-74.01602311927785,-2.7064667707020926],[-74.02050777275076,-2.706466770702092],[-74.02050777275076,-2.7101962352342523]]]},"id":"62","properties":{"class":"intact_forest"}},{"type":"Feature","geometry":{"type":"Polygon","coordinates":[[[-74.01228948432913,-2.7088459131954377],[-74.00492950279225,-2.7088459131954377],[-74.00492950279225,-2.705995228392006],[-74.01228948432913,-2.7059952283920055],[-74.01228948432913,-2.7088459131954377]]]},"id":"63","properties":{"class":"intact_forest"}},{"type":"Feature","geometry":{"type":"Polygon","coordinates":[[[-74.02106567222584,-2.714311493105534],[-74.01409192878712,-2.714311493105534],[-74.01409192878712,-2.711417953876073],[-74.02106567222584,-2.7114179538760728],[-74.02106567222584,-2.714311493105534]]]},"id":"64","properties":{"class":"intact_forest"}},{"type":"Feature","geometry":{"type":"Polygon","coordinates":[[[-74.01042266685475,-2.7157475433364446],[-74.002182920761,-2.7157475433364446],[-74.002182920761,-2.710174801562854],[-74.01042266685475,-2.7101748015628546],[-74.01042266685475,-2.7157475433364446]]]},"id":"65","properties":{"class":"intact_forest"}},{"type":"Feature","geometry":{"type":"Polygon","coordinates":[[[-74.00349183876027,-2.7089959490518996],[-73.9983634551238,-2.708995949051899],[-73.9983634551238,-2.7066168068532],[-74.00349183876027,-2.7066168068532],[-74.00349183876027,-2.7089959490518996]]]},"id":"66","properties":{"class":"intact_forest"}},{"type":"Feature","geometry":{"type":"Polygon","coordinates":[[[-74.00065942604054,-2.714247192309016],[-73.99666829902638,-2.714247192309016],[-73.99666829902638,-2.711139316399681],[-74.00065942604054,-2.711139316399681],[-74.00065942604054,-2.714247192309016]]]},"id":"67","properties":{"class":"intact_forest"}},{"type":"Feature","geometry":{"type":"Polygon","coordinates":[[[-74.02973457176198,-2.7187531520991386],[-74.02475639183034,-2.718753152099139],[-74.02475639183034,-2.7153880848573175],[-74.02973457176198,-2.7153880848573175],[-74.02973457176198,-2.7187531520991386]]]},"id":"68","properties":{"class":"intact_forest"}},{"type":"Feature","geometry":{"type":"Polygon","coordinates":[[[-74.02941270668019,-2.7237471517858682],[-74.02138753730763,-2.7237471517858682],[-74.02138753730763,-2.7201891970465257],[-74.02941270668019,-2.7201891970465257],[-74.02941270668019,-2.7237471517858682]]]},"id":"69","properties":{"class":"intact_forest"}},{"type":"Feature","geometry":{"type":"Polygon","coordinates":[[[-74.02076526481618,-2.7181530134057286],[-74.01598020393361,-2.7181530134057286],[-74.01598020393361,-2.7153880848573175],[-74.02076526481618,-2.715388084857318],[-74.02076526481618,-2.7181530134057286]]]},"id":"70","properties":{"class":"intact_forest"}},{"type":"Feature","geometry":{"type":"Polygon","coordinates":[[[-74.0193276007842,-2.7218610084130264],[-74.01434942085255,-2.721861008413027],[-74.01434942085255,-2.7198891280943367],[-74.0193276007842,-2.7198891280943363],[-74.0193276007842,-2.7218610084130264]]]},"id":"71","properties":{"class":"intact_forest"}},{"type":"Feature","geometry":{"type":"Polygon","coordinates":[[[-74.01010080177296,-2.718303048107064],[-74.00686069328297,-2.718303048107064],[-74.00686069328297,-2.7161382598955077],[-74.01010080177296,-2.7161382598955077],[-74.01010080177296,-2.718303048107064]]]},"id":"72","properties":{"class":"intact_forest"}},{"type":"Feature","geometry":{"type":"Polygon","coordinates":[[[-74.01213928062428,-2.7219253088038835],[-74.0055517752837,-2.721925308803883],[-74.0055517752837,-2.7202106305402456],[-74.01213928062428,-2.7202106305402456],[-74.01213928062428,-2.7219253088038835]]]},"id":"73","properties":{"class":"intact_forest"}},{"type":"Feature","geometry":{"type":"Polygon","coordinates":[[[-74.03134389717091,-2.7138662997775747],[-74.02490659553517,-2.7138662997775738],[-74.02490659553517,-2.71206587551894],[-74.03134389717091,-2.71206587551894],[-74.03134389717091,-2.7138662997775747]]]},"id":"74","properties":{"class":"intact_forest"}},{"type":"Feature","geometry":{"type":"Polygon","coordinates":[[[-74.02936979133595,-2.7277815422646756],[-74.0242628653716,-2.727781542264675],[-74.0242628653716,-2.72514523624511],[-74.02936979133595,-2.72514523624511],[-74.02936979133595,-2.7277815422646756]]]},"id":"75","properties":{"class":"intact_forest"}},{"type":"Feature","geometry":{"type":"Polygon","coordinates":[[[-74.0210227568816,-2.7278029756232605],[-74.01767536003102,-2.7278029756232605],[-74.01767536003102,-2.725616771079277],[-74.0210227568816,-2.725616771079277],[-74.0210227568816,-2.7278029756232605]]]},"id":"76","properties":{"class":"intact_forest"}},{"type":"Feature","geometry":{"type":"Polygon","coordinates":[[[-74.01535793144215,-2.72795300912274],[-74.00988622505177,-2.72795300912274],[-74.00988622505177,-2.724009265204352],[-74.01535793144215,-2.7240092652043515],[-74.01535793144215,-2.72795300912274]]]},"id":"77","properties":{"class":"intact_forest"}},{"type":"Feature","geometry":{"type":"Polygon","coordinates":[[[-74.01548667747487,-2.732132506223143],[-74.01209636528004,-2.732132506223143],[-74.01209636528004,-2.730032042830896],[-74.01548667747487,-2.730032042830896],[-74.01548667747487,-2.732132506223143]]]},"id":"78","properties":{"class":"intact_forest"}},{"type":"Feature","geometry":{"type":"Polygon","coordinates":[[[-74.00726838905324,-2.728317376114962],[-74.0026335318755,-2.7283173761149615],[-74.0026335318755,-2.7243093331305968],[-74.00726838905324,-2.7243093331305968],[-74.00726838905324,-2.728317376114962]]]},"id":"79","properties":{"class":"intact_forest"}}]}